{"type": "Feature", "properties": {"shapeName": "Chengalputtu", "shapeISO": "", "shapeID": "76128533B88669134807148", "shapeGroup": "IND", "shapeType": "ADM2"}, "geometry": {"type": "Polygon", "coordinates": [[[79.74748569300004, 12.531089085000076], [79.74792175600004, 12.533086894000064], [79.74781629700004, 12.534093848000055], [79.74843269700006, 12.533692673000076], [79.74966403500008, 12.533393939000064], [79.75150595000008, 12.534708498000043], [79.75303968400004, 12.53622364000006], [79.75586415800007, 12.539690673000052], [79.75641164900003, 12.54036271700005], [79.75558524300004, 12.542475653000054], [79.75513402300004, 12.544487090000075], [79.75506587300004, 12.544790887000033], [79.75372962200004, 12.545895151000025], [79.75372840800003, 12.546316402000059], [79.75372236800007, 12.548413253000035], [79.75442974200007, 12.552041314000064], [79.75482746000006, 12.556373588000042], [79.75591807000006, 12.558235978000027], [79.75594998300005, 12.558290475000035], [79.75902758900008, 12.557896094000057], [79.75909780400008, 12.557854977000034], [79.76005479900005, 12.55729457800004], [79.76190870500005, 12.554479385000036], [79.76488628200008, 12.553178132000028], [79.76560924800003, 12.551367060000075], [79.76592487900007, 12.548547619000033], [79.76592801900006, 12.547439652000037], [79.76919327400003, 12.548175190000052], [79.77135945700007, 12.548663149000049], [79.77587311000008, 12.548071009000068], [79.77612343400006, 12.548114466000072], [79.77823050800004, 12.54848025800004], [79.77801194100005, 12.553314488000069], [79.77837671400005, 12.553287914000066], [79.78067870900009, 12.553120198000045], [79.78190842700008, 12.553425668000045], [79.78200762200004, 12.554634638000039], [79.78251756600008, 12.555643256000053], [79.78281851100007, 12.55806147100003], [79.78456183200007, 12.558066126000028], [79.78856370900007, 12.557170237000037], [79.78989545200005, 12.557677394000052], [79.79379530600005, 12.556579705000047], [79.79490408800007, 12.557049904000053], [79.79522932900005, 12.557187830000032], [79.79573604100005, 12.559405125000069], [79.79749580300006, 12.562666918000048], [79.79818492000004, 12.563944199000048], [79.80311006700003, 12.562949785000058], [79.80937208800003, 12.560548562000065], [79.81255513100007, 12.559045849000029], [79.815219, 12.559959197000069], [79.81747508100005, 12.559964946000036], [79.81932308500006, 12.55916383400006], [79.82219260500005, 12.559876182000039], [79.82382760000007, 12.562096285000052], [79.82361591800003, 12.564613905000044], [79.82247176100003, 12.570755310000038], [79.82174754600004, 12.573170903000062], [79.82102119800004, 12.57639229700004], [79.81988884500004, 12.57800104100005], [79.81885425300004, 12.581423095000048], [79.81742004300008, 12.580815088000065], [79.81649489500006, 12.581618536000065], [79.81567229900008, 12.582422242000064], [79.81464351100004, 12.583628322000038], [79.81432353400004, 12.588260890000072], [79.81431684500006, 12.590779017000045], [79.81595782700003, 12.590783217000023], [79.81697331100008, 12.594613392000042], [79.81694809700008, 12.59508411400003], [79.81686541600004, 12.596627632000036], [79.81707016200005, 12.599549550000063], [79.81716190900005, 12.60085887200006], [79.81664321100004, 12.603073514000073], [79.81540733500003, 12.604984141000045], [79.81375956100004, 12.607498058000033], [79.81344702700005, 12.609310317000052], [79.81374695600005, 12.612232131000042], [79.81251262400008, 12.613538391000077], [79.81138111800004, 12.614744184000074], [79.81014891900008, 12.615244632000042], [79.81055596900006, 12.616454389000069], [79.80880116900005, 12.620579598000063], [79.80756514500007, 12.622490180000057], [79.80663736700006, 12.624200104000067], [79.80757106900006, 12.624145232000046], [79.80992029600003, 12.62400715900003], [79.81567036200005, 12.62180599800007], [79.81936580400009, 12.620253026000057], [79.82162627000008, 12.619303052000078], [79.82276066200006, 12.616989239000077], [79.82553168300007, 12.61639189500005], [79.82716993300005, 12.617504011000051], [79.82962956400007, 12.618316003000075], [79.83198973100008, 12.61942108200003], [79.83352262000005, 12.62013881300004], [79.83430969700004, 12.620072089000075], [79.83813944300005, 12.619747391000033], [79.84060222500005, 12.61935057900007], [79.84357169900005, 12.621372416000042], [79.84500696000003, 12.621678119000023], [79.84541264500007, 12.623492185000032], [79.84612478100007, 12.625810631000036], [79.84771766800003, 12.62691135800003], [79.84817271700007, 12.62722580600007], [79.85484520000006, 12.625227492000022], [79.86198291300008, 12.623747732000027], [79.86390432700006, 12.623349392000023], [79.86685268100007, 12.622738078000054], [79.86993138300005, 12.622141002000035], [79.87228640800004, 12.623858902000052], [79.87463754800007, 12.627188398000044], [79.87509829000004, 12.627114101000075], [79.87648464500006, 12.626890540000034], [79.87853421600005, 12.627701133000073], [79.88202277000005, 12.627306326000053], [79.88417542000008, 12.62791566200002], [79.88575881800006, 12.62725361300005], [79.88633168100006, 12.627014088000067], [79.88932677100007, 12.627498068000023], [79.89012555600004, 12.627627145000076], [79.89114798000008, 12.629039656000032], [79.89350843000005, 12.62854139500007], [79.89442569200008, 12.631061652000028], [79.89540631900007, 12.631195225000056], [79.89668168700007, 12.63136894300004], [79.89729314200008, 12.633082684000044], [79.89759686600007, 12.634795729000075], [79.89800388100008, 12.636206824000055], [79.89861794600006, 12.636812572000053], [79.89944527100005, 12.636695591000034], [79.90282511900006, 12.636217662000035], [79.90518398200004, 12.636424387000034], [79.91093120900007, 12.635228416000075], [79.91472961700003, 12.633927323000023], [79.91678644100006, 12.631615100000033], [79.91761116700008, 12.629803810000055], [79.92366659300006, 12.628306045000045], [79.92643548200004, 12.628614192000043], [79.92670459800007, 12.62938845900004], [79.92755665300007, 12.63183987800005], [79.92888882300008, 12.632447099000046], [79.92888412700006, 12.634562365000022], [79.92549182300007, 12.637778358000048], [79.92661863300003, 12.638485876000061], [79.92537956300004, 12.642109394000045], [79.92434494500003, 12.646035529000073], [79.92464818500008, 12.648050729000033], [79.92443331200008, 12.652381539000032], [79.92380694800005, 12.657215093000048], [79.92378652400004, 12.657294559000036], [79.92163353500007, 12.665671463000024], [79.92217087800003, 12.667495286000076], [79.92234623100006, 12.668090462000066], [79.92231471400004, 12.669055523000054], [79.92216406600005, 12.673668251000038], [79.92212583900005, 12.67483869800003], [79.92171182400006, 12.676449432000027], [79.92068146800005, 12.676374920000058], [79.92027571300008, 12.676345578000053], [79.91760296400008, 12.678656459000024], [79.91737349000005, 12.689333010000041], [79.91747288300007, 12.690743404000045], [79.91736753100008, 12.691951896000035], [79.91845159100006, 12.691969475000064], [79.92454943200005, 12.692068278000022], [79.92598653500005, 12.69176920700005], [79.92752466100006, 12.692175434000035], [79.93101446900005, 12.691578569000058], [79.93183125900003, 12.693393406000041], [79.93120669000007, 12.697421151000071], [79.93253875500005, 12.698229818000073], [79.93459128800004, 12.698032742000066], [79.93674575600005, 12.698138048000033], [79.93869612100008, 12.697739270000056], [79.93992494700007, 12.698849864000067], [79.94218312600003, 12.69845170900004], [79.94454259100007, 12.698658111000043], [79.94803701100005, 12.695945761000075], [79.94906543000008, 12.69483989500003], [79.94954785200008, 12.694854425000074], [79.94965014400003, 12.69569038700007], [79.94898167900004, 12.700024091000046], [79.94852078700006, 12.701970114000062], [79.94574307600004, 12.705661946000077], [79.94399032700005, 12.70929730000006], [79.94147272100008, 12.712362033000034], [79.94043210000007, 12.71480734100004], [79.93992634500006, 12.715419045000033], [79.93905163400007, 12.71647699500005], [79.93893958400008, 12.720117172000073], [79.93889163400007, 12.720159971000044], [79.93556406400006, 12.72313000400004], [79.93378768100007, 12.72467918600006], [79.93107582200008, 12.726842802000021], [79.93076925700007, 12.727087390000065], [79.93182045900005, 12.728394340000023], [79.92968849600004, 12.730287997000062], [79.92799749000005, 12.73227111500006], [79.92701922500004, 12.73330517200003], [79.92700840200007, 12.734952165000038], [79.92542915700005, 12.736616561000062], [79.92278780100008, 12.73940026200006], [79.92193914500007, 12.740294633000076], [79.91971811800005, 12.74227432400005], [79.91785375700005, 12.743736144000025], [79.91635009500004, 12.744073314000048], [79.91545718200007, 12.745541304000028], [79.90980435500006, 12.74559188400002], [79.90862453900007, 12.745749609000029], [79.90765516400006, 12.745879200000047], [79.90609160400004, 12.74608822600004], [79.90228820900006, 12.746930681000038], [79.90006127200007, 12.74814136200007], [79.89803334600003, 12.749243850000028], [79.89502648000007, 12.749831267000047], [79.88863961100003, 12.753950932000066], [79.88341122800006, 12.756517606000045], [79.88042977000003, 12.758371391000026], [79.87720240300007, 12.760378076000052], [79.87798790700003, 12.761770185000046], [79.88543184500008, 12.767031658000064], [79.88467404400006, 12.76849481100004], [79.88150575300006, 12.770023843000047], [79.88216229700004, 12.77125151000007], [79.87966760000006, 12.771479946000056], [79.87924657300005, 12.772292798000024], [79.87243444700005, 12.771922074000031], [79.87208707800005, 12.774121907000051], [79.87348984900007, 12.775599157000045], [79.88005000800007, 12.77637601500004], [79.88154310700008, 12.77679353700006], [79.88553096200008, 12.776982586000031], [79.88901636100007, 12.777739237000048], [79.89233612100008, 12.778413210000053], [79.89565972600008, 12.778516250000052], [79.89730869300007, 12.780484326000021], [79.89813045600005, 12.781876143000034], [79.90235682500008, 12.783697676000031], [79.90258435600003, 12.786961532000078], [79.90438821600003, 12.790643320000072], [79.90588035200005, 12.791223823000053], [79.90636704100007, 12.793021262000025], [79.90489834500005, 12.796719195000037], [79.90647655000004, 12.795728617000066], [79.90748961200006, 12.795730896000066], [79.90850061600008, 12.796616843000038], [79.90917650600005, 12.796397440000021], [79.91165288800005, 12.79640297900005], [79.91278030400008, 12.79563227500006], [79.91414383300008, 12.795523094000032], [79.91570768900004, 12.79530740000007], [79.91638484100008, 12.79453568300005], [79.91728711100006, 12.793764460000034], [79.91807656100008, 12.793103446000032], [79.91976598900004, 12.792665330000034], [79.92100592500003, 12.79189483700003], [79.92179410200004, 12.791786107000064], [79.92303051300007, 12.79256203400007], [79.92427748100005, 12.793299954000076], [79.92471667600006, 12.793559857000048], [79.92528123500006, 12.792787869000051], [79.92607190900003, 12.791574532000027], [79.92708819400008, 12.790140764000057], [79.92765348300009, 12.789037392000068], [79.92788307900008, 12.787049611000043], [79.92878901200004, 12.784621455000035], [79.92913115100004, 12.782633917000055], [79.93059488300008, 12.782416159000036], [79.93149731300008, 12.781534424000029], [79.93251303100004, 12.780321550000053], [79.93397650100007, 12.780214232000048], [79.93510279300006, 12.779885265000075], [79.93622785700006, 12.780108591000044], [79.93690025400008, 12.781435548000047], [79.93768765900006, 12.781658148000076], [79.93779630500006, 12.78342574100003], [79.93779117300005, 12.78574539300007], [79.93947808200005, 12.78641174300003], [79.94015197200008, 12.787075935000075], [79.94195412300007, 12.786527453000076], [79.94308067600008, 12.786087992000034], [79.94488257300003, 12.78564994900006], [79.94679557800004, 12.785874888000023], [79.95219836900003, 12.785886163000043], [79.95310002300005, 12.785335731000032], [79.95388555400007, 12.786441963000073], [79.95399502500004, 12.78787817400007], [79.95477843400005, 12.789978541000039], [79.95657372100004, 12.792633296000076], [79.95859628800008, 12.794294362000073], [79.95881246300007, 12.798492301000067], [79.96038177900004, 12.801588409000033], [79.96183950300008, 12.804242439000063], [79.96026169500004, 12.805122894000021], [79.95620645300005, 12.806440078000037], [79.95627821600004, 12.807049691000032], [79.95642756300003, 12.808318359000054], [79.95676053500006, 12.810528250000061], [79.95517792200008, 12.813617867000062], [79.95528883100008, 12.814391317000059], [79.95528550800003, 12.815937753000071], [79.95550804000004, 12.817153275000067], [79.95550234400008, 12.819804307000027], [79.95628678800006, 12.820798255000057], [79.95860872300005, 12.819716979000077], [79.95888001200007, 12.81959035400007], [79.95978153800007, 12.819150365000041], [79.96045956300003, 12.817936693000036], [79.96068799800008, 12.816390718000036], [79.96226540800006, 12.815731183000025], [79.96328088900003, 12.814628653000057], [79.96328533200005, 12.812529916000074], [79.96385168600005, 12.81087416500003], [79.96520461300008, 12.809882772000037], [79.96655613600007, 12.809554132000073], [79.96759828000006, 12.809385858000041], [79.96838347900007, 12.809259073000021], [79.96925870900003, 12.809117750000041], [79.97094769600005, 12.808900228000027], [79.97263438400006, 12.809787295000035], [79.97511021000008, 12.810123622000049], [79.97657337800007, 12.810236995000025], [79.97715002000007, 12.810186710000039], [79.97781186400005, 12.810128994000024], [79.97950085100007, 12.809911416000034], [79.98062834900009, 12.809029957000064], [79.98231710100004, 12.808922821000067], [79.98361887800007, 12.80746881400006], [79.98389665500008, 12.807158550000054], [79.98727569200008, 12.806171002000042], [79.98885296800006, 12.80551130300006], [79.99133054700008, 12.80496379400006], [79.99234254100008, 12.805518051000035], [79.99324241400006, 12.805851166000025], [79.99425353600003, 12.806847257000072], [79.99549177800003, 12.806849631000034], [79.99627865300005, 12.807403442000066], [79.99654035600008, 12.807441718000064], [80.00010486700006, 12.807963036000046], [80.00303120100006, 12.808189495000022], [80.00483229100007, 12.808192887000075], [80.00573735600005, 12.805874906000042], [80.00641619600003, 12.80410880200003], [80.00742800600005, 12.804773462000071], [80.00753778500007, 12.806209661000025], [80.00843404100004, 12.808420557000034], [80.00861835800004, 12.809797030000027], [80.00865596700004, 12.810077887000034], [80.01065760400007, 12.811164132000044], [80.01220902200004, 12.812227438000036], [80.01278328600006, 12.812206829000047], [80.01396523900007, 12.812164409000047], [80.01545230100004, 12.81157065900004], [80.01639624200004, 12.812433991000034], [80.01733968500008, 12.813562426000033], [80.01801346900004, 12.814425258000028], [80.01963222800003, 12.815621197000041], [80.02071128400007, 12.816484761000027], [80.02240897600007, 12.817083190000062], [80.02260124200006, 12.817150963000074], [80.02352113200004, 12.817559155000026], [80.02395098700003, 12.817749898000045], [80.02678780900004, 12.817755014000056], [80.02989382200008, 12.818290794000063], [80.02988865800006, 12.821074409000062], [80.03056213500008, 12.822136040000032], [80.03197677600008, 12.824193141000023], [80.03301199500004, 12.825722796000036], [80.03305456500004, 12.825785698000061], [80.03480636600005, 12.828174766000075], [80.03561509700006, 12.829170347000058], [80.03885756800008, 12.829043499000022], [80.03987028300008, 12.829310380000038], [80.04081280900004, 12.83103522500005], [80.04080872000003, 12.833288629000037], [80.04114489600005, 12.834150815000044], [80.04114285300005, 12.835277516000076], [80.04181833400008, 12.835278694000067], [80.04377722900006, 12.835282101000075], [80.04410516500008, 12.835313814000074], [80.04587086200007, 12.835484558000076], [80.04695270100007, 12.834889932000067], [80.04837215400005, 12.834362161000058], [80.04918331900006, 12.834032168000022], [80.05006202800007, 12.83370228900003], [80.05181885500008, 12.833373906000077], [80.05228840500007, 12.835230459000059], [80.05242115700008, 12.83655622200007], [80.05248671200007, 12.837683041000048], [80.05288989600007, 12.838876711000069], [80.05376639800005, 12.839806077000048], [80.05410110700006, 12.841529844000036], [80.05436803500004, 12.84338604900006], [80.05490622100007, 12.844646221000062], [80.05524175900007, 12.845906050000053], [80.05530732900007, 12.847032868000042], [80.05545187300004, 12.847333458000037], [80.05762092200007, 12.851844062000055], [80.05831928200007, 12.854518043000041], [80.06033587100006, 12.857194234000076], [80.06095058700004, 12.857453922000047], [80.06288352100006, 12.857715807000034], [80.06358210100007, 12.860303556000076], [80.06261106800008, 12.86280230500006], [80.06243022200005, 12.865733465000062], [80.06093094800008, 12.868748641000025], [80.05987422300007, 12.869953941000063], [80.05907948900006, 12.872108092000076], [80.05740753500004, 12.873312346000034], [80.05731828700004, 12.87408817000005], [80.05731571500007, 12.875553895000053], [80.05564297100005, 12.877189232000035], [80.05512118100006, 12.878659761000051], [80.05484802300003, 12.879429584000036], [80.05537444200007, 12.879947794000032], [80.05686643100006, 12.881157392000034], [80.05782807200006, 12.884090474000061], [80.05932024700007, 12.885213840000063], [80.05984457900007, 12.886939109000025], [80.06019313400003, 12.88866408000007], [80.06054154400005, 12.89047527100007], [80.06080416900005, 12.89107924600006], [80.06176873900006, 12.892374152000059], [80.06185528200007, 12.893150271000025], [80.06202807100004, 12.894874946000073], [80.06316620600006, 12.897463427000048], [80.06453572500004, 12.898811401000046], [80.06447773300005, 12.899022208000076], [80.06606027400005, 12.900376705000042], [80.06935859900005, 12.905789626000058], [80.07155310600007, 12.912011822000068], [80.07526859300003, 12.915397555000027], [80.07965615700004, 12.91780114200003], [80.08083390800005, 12.91861941600007], [80.08284752600008, 12.920018406000054], [80.08660087000004, 12.923404044000051], [80.08715370500005, 12.93010281100004], [80.09364870900004, 12.94289430200007], [80.09399271800004, 12.943371312000068], [80.09502402400005, 12.94480134500003], [80.10135516300005, 12.942906194000045], [80.10310962200003, 12.946737479000035], [80.10477292300004, 12.953430898000022], [80.10513215600008, 12.954025031000072], [80.11034533500003, 12.962647063000077], [80.11329023600007, 12.965086565000036], [80.11538594200005, 12.964709182000036], [80.11576296100003, 12.965161351000063], [80.11595885000008, 12.965396284000064], [80.11717231700004, 12.966851612000028], [80.12030687900005, 12.97397294700005], [80.12106539400008, 12.980759197000054], [80.12231072900005, 12.983399675000044], [80.12509770100007, 12.983403708000026], [80.12599041700008, 12.98492929200006], [80.12691900900006, 12.986516185000028], [80.12952882500008, 12.988252807000038], [80.13018332900003, 12.988688326000045], [80.13428980500004, 12.988155105000033], [80.13662205900005, 12.988885882000034], [80.13786745900006, 12.991620527000066], [80.13943835800006, 12.993431652000027], [80.14064991600003, 12.994828487000063], [80.14418175000003, 12.996507550000047], [80.14947399100004, 12.993133448000037], [80.15028065000007, 12.991669306000063], [80.15740482100006, 12.993369444000052], [80.15844743800005, 12.994047960000046], [80.16213190900004, 12.996445745000074], [80.16521422600005, 12.998451574000057], [80.16842584400007, 13.003640354000026], [80.17083977000004, 13.003643425000064], [80.17325709000005, 13.001054146000058], [80.18004189200008, 12.998808389000033], [80.18457556000004, 13.004022039000063], [80.18450726400005, 13.004313221000075], [80.18370890600005, 13.007716983000023], [80.18612302000008, 13.015909131000058], [80.18772811200006, 13.018039160000058], [80.19134559400004, 13.018043490000025], [80.19158188400007, 13.021984684000074], [80.19406951700006, 13.025613269000075], [80.19664146400004, 13.027207203000046], [80.19774, 13.02853], [80.19683, 13.02827], [80.19406, 13.02749], [80.19383, 13.02743], [80.1926, 13.0271], [80.19189, 13.02688], [80.19153, 13.02678], [80.19108, 13.02666], [80.19048, 13.0265], [80.19014, 13.02641], [80.18956, 13.02634], [80.18921, 13.02631], [80.1889, 13.02628], [80.18602, 13.026], [80.18586, 13.02598], [80.18574, 13.02603], [80.18512, 13.02688], [80.18506, 13.02695], [80.18478, 13.02733], [80.18446, 13.02742], [80.18334, 13.02779], [80.18258, 13.02801], [80.18194, 13.02821], [80.18172, 13.02828], [80.18167, 13.02831], [80.18136, 13.02839], [80.18072, 13.02858], [80.1803, 13.02871], [80.18011, 13.02877], [80.17963, 13.02892], [80.17924, 13.02904], [80.17906, 13.0291], [80.17888, 13.02915], [80.17836, 13.0293], [80.17828, 13.02934], [80.17818, 13.02937], [80.17816, 13.02938], [80.17737, 13.02962], [80.17711, 13.0297], [80.17679, 13.0298], [80.17645, 13.02991], [80.17613, 13.03001], [80.17591, 13.03008], [80.17453, 13.03051], [80.17333, 13.03088], [80.17331, 13.03088], [80.17298, 13.03095], [80.17263, 13.03101], [80.17227, 13.03108], [80.17176, 13.03118], [80.17146, 13.03124], [80.17145, 13.03119], [80.17074, 13.03136], [80.17005, 13.03147], [80.17005, 13.03151], [80.16873, 13.03176], [80.16786, 13.03192], [80.1676, 13.03197], [80.16736, 13.03087], [80.16719, 13.03028], [80.16716, 13.03017], [80.16666, 13.0279], [80.16519, 13.02824], [80.16498, 13.02829], [80.16458, 13.02836], [80.16378, 13.02855], [80.1633, 13.02866], [80.16316, 13.02869], [80.16306, 13.02897], [80.16297, 13.02923], [80.16284, 13.02961], [80.16269, 13.03002], [80.16261, 13.03023], [80.16226, 13.03118], [80.16204, 13.03177], [80.16197, 13.03198], [80.1601, 13.03189], [80.15977, 13.03188], [80.15935, 13.03186], [80.15897, 13.03184], [80.15783, 13.03179], [80.15746, 13.03177], [80.15688, 13.03174], [80.15576, 13.03169], [80.15415, 13.03161], [80.15348, 13.03155], [80.15289, 13.03155], [80.14867, 13.03136], [80.14856, 13.03178], [80.14849, 13.03201], [80.14838, 13.0325], [80.14836, 13.03257], [80.14749, 13.03605], [80.14747, 13.03616], [80.14733, 13.03673], [80.14718, 13.03735], [80.14701, 13.03806], [80.14722, 13.03808], [80.14898, 13.03824], [80.14906, 13.03825], [80.14919, 13.03825], [80.14934, 13.03825], [80.14956, 13.03829], [80.15021, 13.03835], [80.15105, 13.03842], [80.15108, 13.03842], [80.15105, 13.03847], [80.15091, 13.03871], [80.15083, 13.03885], [80.15067, 13.03914], [80.15041, 13.03959], [80.15015, 13.04005], [80.14992, 13.04045], [80.1495, 13.04112], [80.14937, 13.04141], [80.14924, 13.04161], [80.1492, 13.0417], [80.14904, 13.042], [80.149, 13.04207], [80.14897, 13.04212], [80.14895, 13.04216], [80.14886, 13.04231], [80.1486, 13.04257], [80.14839, 13.04278], [80.14811, 13.04306], [80.14741, 13.04375], [80.14734, 13.04382], [80.14723, 13.04393], [80.14629, 13.04484], [80.14604, 13.04509], [80.14595, 13.04518], [80.14588, 13.04524], [80.14574, 13.04538], [80.14569, 13.04543], [80.14489, 13.04622], [80.14481, 13.0463], [80.14464, 13.04646], [80.14435, 13.04675], [80.14393, 13.04717], [80.14359, 13.0475], [80.14336, 13.04772], [80.14325, 13.04783], [80.14314, 13.04793], [80.14285, 13.04822], [80.1426, 13.04847], [80.14255, 13.04823], [80.14242, 13.0476], [80.14231, 13.04702], [80.14201, 13.04706], [80.14185, 13.04705], [80.14074, 13.04696], [80.14048, 13.04693], [80.14043, 13.04693], [80.14024, 13.04695], [80.13999, 13.04698], [80.13974, 13.047], [80.13949, 13.04703], [80.13885, 13.04709], [80.13878, 13.0471], [80.13832, 13.04722], [80.13809, 13.04728], [80.13799, 13.04731], [80.13772, 13.04738], [80.13754, 13.04742], [80.13703, 13.04767], [80.137, 13.0477], [80.13684, 13.04789], [80.13665, 13.04807], [80.13646, 13.04828], [80.13628, 13.04847], [80.13614, 13.04858], [80.13607, 13.04914], [80.13599, 13.04958], [80.13589, 13.05075], [80.13585, 13.05113], [80.13585, 13.05116], [80.13582, 13.05156], [80.13579, 13.05202], [80.13575, 13.05264], [80.13555, 13.05291], [80.13504, 13.0536], [80.13444, 13.05405], [80.1334, 13.05455], [80.13324, 13.05463], [80.13303, 13.05475], [80.13267, 13.05496], [80.1323, 13.05517], [80.13192, 13.05538], [80.13164, 13.05554], [80.1316, 13.05558], [80.13107, 13.05614], [80.13089, 13.05451], [80.13083, 13.05398], [80.13078, 13.05351], [80.13072, 13.05295], [80.13069, 13.05268], [80.13052, 13.05251], [80.13049, 13.05248], [80.13023, 13.05223], [80.12947, 13.05143], [80.12918, 13.0512], [80.12879, 13.05111], [80.12849, 13.05104], [80.12841, 13.05102], [80.12797, 13.05091], [80.12739, 13.05078], [80.12706, 13.0507], [80.12523, 13.05026], [80.12445, 13.05008], [80.12441, 13.04992], [80.1243, 13.04953], [80.12424, 13.0493], [80.12388, 13.04791], [80.12371, 13.04727], [80.12343, 13.04743], [80.12218, 13.04812], [80.12173, 13.04837], [80.12072, 13.04851], [80.12018, 13.04852], [80.11926, 13.04868], [80.11918, 13.04869], [80.11913, 13.04811], [80.11918, 13.04795], [80.11939, 13.0472], [80.11935, 13.04696], [80.11927, 13.04653], [80.11913, 13.04586], [80.11827, 13.04587], [80.11815, 13.04588], [80.1174, 13.04597], [80.11677, 13.04604], [80.11655, 13.04605], [80.11529, 13.04612], [80.11406, 13.04619], [80.11376, 13.04622], [80.113, 13.04631], [80.11271, 13.04634], [80.11181, 13.04647], [80.11176, 13.04647], [80.11162, 13.04638], [80.11143, 13.04635], [80.11098, 13.04623], [80.10994, 13.04594], [80.10971, 13.0458], [80.10947, 13.04566], [80.10812, 13.04484], [80.10784, 13.04465], [80.10644, 13.0437], [80.10633, 13.04362], [80.10604, 13.04343], [80.10523, 13.04289], [80.10448, 13.0431], [80.10437, 13.04345], [80.10335, 13.04544], [80.10297, 13.04555], [80.10121, 13.04608], [80.10056, 13.04627], [80.10047, 13.0463], [80.09999, 13.04644], [80.1, 13.04634], [80.10003, 13.046], [80.10007, 13.04546], [80.09995, 13.04526], [80.09956, 13.04461], [80.0994, 13.04435], [80.09898, 13.04364], [80.09915, 13.0426], [80.0995, 13.04041], [80.09941, 13.04041], [80.09811, 13.03865], [80.09734, 13.03858], [80.09723, 13.03856], [80.09655, 13.0385], [80.09602, 13.03835], [80.09597, 13.03835], [80.09589, 13.03836], [80.09557, 13.03837], [80.09482, 13.03803], [80.09429, 13.03775], [80.09412, 13.03766], [80.09407, 13.03764], [80.09301, 13.03725], [80.09222, 13.03667], [80.09188, 13.03633], [80.09171, 13.0358], [80.09008, 13.03644], [80.08935, 13.0339], [80.08922, 13.03347], [80.08918, 13.03324], [80.08906, 13.0328], [80.08902, 13.03273], [80.08896, 13.03263], [80.08852, 13.03188], [80.08837, 13.03101], [80.08821, 13.0301], [80.08829, 13.02947], [80.08843, 13.02842], [80.08847, 13.02808], [80.08845, 13.02778], [80.0884, 13.02708], [80.0884, 13.02702], [80.08836, 13.02679], [80.08801, 13.02497], [80.08782, 13.02482], [80.08629, 13.02364], [80.08617, 13.02354], [80.08543, 13.02236], [80.08427, 13.02209], [80.08382, 13.02198], [80.08348, 13.02293], [80.08326, 13.02355], [80.08299, 13.02431], [80.0828, 13.02485], [80.0825, 13.02569], [80.08204, 13.02701], [80.08194, 13.02731], [80.08184, 13.02762], [80.08174, 13.0279], [80.08152, 13.02854], [80.08138, 13.02895], [80.08125, 13.02933], [80.08113, 13.02968], [80.08102, 13.03001], [80.08045, 13.03384], [80.08025, 13.03521], [80.08007, 13.03683], [80.08, 13.03742], [80.07994, 13.03798], [80.07985, 13.03875], [80.0799, 13.03899], [80.07999, 13.03939], [80.08006, 13.03975], [80.08013, 13.04006], [80.0802, 13.0404], [80.08024, 13.0406], [80.08028, 13.04077], [80.08044, 13.04153], [80.0799, 13.04203], [80.0791, 13.04277], [80.07907, 13.0428], [80.07898, 13.04289], [80.07763, 13.04309], [80.07695, 13.04319], [80.07669, 13.04324], [80.07636, 13.04328], [80.0761, 13.04332], [80.07487, 13.0432], [80.0746, 13.04317], [80.07434, 13.04315], [80.07348, 13.04304], [80.07314, 13.043], [80.07175, 13.04283], [80.07147, 13.04279], [80.07135, 13.04278], [80.07118, 13.04258], [80.07101, 13.04237], [80.06976, 13.04088], [80.06963, 13.04072], [80.06903, 13.03965], [80.06888, 13.03941], [80.06864, 13.03895], [80.06855, 13.0388], [80.06598, 13.03475], [80.06358, 13.03353], [80.06115, 13.03364], [80.05914, 13.0327], [80.05734, 13.03256], [80.05676, 13.03251], [80.05661, 13.0325], [80.05648, 13.03249], [80.05645, 13.03253], [80.05605, 13.03314], [80.05587, 13.03341], [80.05576, 13.03357], [80.05508, 13.03458], [80.05284, 13.0356], [80.05246, 13.03578], [80.05269, 13.03618], [80.0509, 13.03801], [80.05084, 13.03811], [80.05056, 13.03842], [80.05091, 13.03955], [80.0511, 13.04022], [80.05132, 13.04096], [80.05146, 13.04145], [80.05151, 13.04151], [80.05222, 13.04231], [80.05235, 13.04245], [80.05273, 13.04287], [80.05281, 13.04296], [80.05285, 13.04301], [80.05314, 13.04331], [80.05342, 13.04362], [80.05366, 13.04389], [80.05471, 13.04463], [80.0553, 13.04505], [80.05554, 13.04522], [80.05616, 13.04566], [80.0566, 13.04597], [80.0568, 13.04628], [80.05616, 13.04631], [80.05533, 13.04637], [80.05531, 13.04637], [80.05451, 13.0466], [80.05357, 13.04658], [80.05211, 13.04633], [80.051, 13.04606], [80.05082, 13.04601], [80.05073, 13.04599], [80.04979, 13.04553], [80.04866, 13.04463], [80.04711, 13.04439], [80.04465, 13.04476], [80.0441, 13.04481], [80.04147, 13.04521], [80.03999, 13.04489], [80.03845, 13.04483], [80.03798, 13.04481], [80.03714, 13.04478], [80.03492, 13.04489], [80.03454, 13.04532], [80.03442, 13.04541], [80.0343, 13.04551], [80.03389, 13.04596], [80.03391, 13.04626], [80.03395, 13.04691], [80.03447, 13.04746], [80.03551, 13.04754], [80.03561, 13.04768], [80.03579, 13.04794], [80.03629, 13.04881], [80.03613, 13.04891], [80.03527, 13.04913], [80.03493, 13.04924], [80.03517, 13.0499], [80.03521, 13.05001], [80.03491, 13.05096], [80.0345, 13.05153], [80.03394, 13.05188], [80.0325, 13.05189], [80.03174, 13.05187], [80.03086, 13.05184], [80.03017, 13.05157], [80.02928, 13.05123], [80.02853, 13.05112], [80.02822, 13.0513], [80.02722, 13.05198], [80.02688, 13.05251], [80.02643, 13.05321], [80.02587, 13.0533], [80.02481, 13.05344], [80.02046, 13.05338], [80.01718, 13.05318], [80.01549, 13.05438], [80.0152, 13.05626], [80.01491, 13.05638], [80.01285, 13.05739], [80.01106, 13.05803], [80.01087, 13.0581], [80.01063, 13.05819], [80.01009, 13.05838], [80.01014, 13.05769], [80.01016, 13.05741], [80.01017, 13.0573], [80.01013, 13.0571], [80.0099, 13.0561], [80.0095, 13.05433], [80.00947, 13.0542], [80.00901, 13.05336], [80.00847, 13.05237], [80.00839, 13.05223], [80.00774, 13.05145], [80.00732, 13.05094], [80.00714, 13.05081], [80.00657, 13.05039], [80.00597, 13.04995], [80.00547, 13.04958], [80.00528, 13.04944], [80.00513, 13.04933], [80.00478, 13.04908], [80.00469, 13.04901], [80.00456, 13.04892], [80.00405, 13.04864], [80.00317, 13.04816], [80.00278, 13.04795], [80.00263, 13.04787], [80.00256, 13.04785], [80.00148, 13.04755], [80.00125, 13.04728], [80.00038, 13.04622], [80.00032, 13.04615], [79.99898, 13.04556], [79.9983, 13.04475], [79.9981, 13.04439], [79.998, 13.04421], [79.99756, 13.04345], [79.99693, 13.04236], [79.99609, 13.03971], [79.99576, 13.03869], [79.99565, 13.03835], [79.99524, 13.03705], [79.99498, 13.03623], [79.99446, 13.03556], [79.99233, 13.0328], [79.99211, 13.03252], [79.99025, 13.03287], [79.9895, 13.03298], [79.98895, 13.03307], [79.98843, 13.03316], [79.98833, 13.03318], [79.98491, 13.03379], [79.98453, 13.03405], [79.98258, 13.03542], [79.98243, 13.03552], [79.98017, 13.0371], [79.98005, 13.03718], [79.97973, 13.0374], [79.97946, 13.03759], [79.9792, 13.03972], [79.97925, 13.04008], [79.9793, 13.04046], [79.97937, 13.04103], [79.9794, 13.04109], [79.97988, 13.04204], [79.98041, 13.04309], [79.98061, 13.04349], [79.98108, 13.04442], [79.98115, 13.04456], [79.98123, 13.04473], [79.98134, 13.04495], [79.98157, 13.04541], [79.98167, 13.0456], [79.98184, 13.04593], [79.98295, 13.04814], [79.9832, 13.04863], [79.98334, 13.04891], [79.9837, 13.04905], [79.98506, 13.04959], [79.98523, 13.04966], [79.98876, 13.05106], [79.98927, 13.05126], [79.98945, 13.05133], [79.99088, 13.05189], [79.9921, 13.05237], [79.99341, 13.05289], [79.99319, 13.05323], [79.99249, 13.05418], [79.98971, 13.05797], [79.98699, 13.05711], [79.9852, 13.05655], [79.98503, 13.0565], [79.98189, 13.05551], [79.98132, 13.05532], [79.98064, 13.05511], [79.9787, 13.0545], [79.97746, 13.05411], [79.97733, 13.05407], [79.97179, 13.04845], [79.9718, 13.04788], [79.97182, 13.04697], [79.97185, 13.04583], [79.97188, 13.04465], [79.97252, 13.04254], [79.97282, 13.04156], [79.97295, 13.04113], [79.97309, 13.04067], [79.97266, 13.04028], [79.97225, 13.03991], [79.97185, 13.03954], [79.97161, 13.03931], [79.97093, 13.03942], [79.96946, 13.03967], [79.96905, 13.03974], [79.96733, 13.04004], [79.96499, 13.04044], [79.96449, 13.04052], [79.96311, 13.04076], [79.96207, 13.04037], [79.95794, 13.03879], [79.95756, 13.03865], [79.94863, 13.03524], [79.9482, 13.03508], [79.94667, 13.0345], [79.94625, 13.03451], [79.94564, 13.03452], [79.93634, 13.03469], [79.93589, 13.0347], [79.93035, 13.03558], [79.92997, 13.03564], [79.92635, 13.03621], [79.92605, 13.03636], [79.92192, 13.03838], [79.92198, 13.04041], [79.92207, 13.04309], [79.92209, 13.04373], [79.92213, 13.04467], [79.92213, 13.04482], [79.92228, 13.04916], [79.92062, 13.04913], [79.91932, 13.04912], [79.91535, 13.04907], [79.91379, 13.04946], [79.90953, 13.05057], [79.90654, 13.05138], [79.90488, 13.05175], [79.90445, 13.05187], [79.90209, 13.04544], [79.90107, 13.04267], [79.89915, 13.03746], [79.89846, 13.03556], [79.90409, 13.03077], [79.90411, 13.02889], [79.90419, 13.02243], [79.90449, 13.02105], [79.90477, 13.01978], [79.90545, 13.01664], [79.90558, 13.01601], [79.90707, 13.01638], [79.90739, 13.01644], [79.91177, 13.01755], [79.91186, 13.01754], [79.91389, 13.01735], [79.91562, 13.01718], [79.91648, 13.0171], [79.92166, 13.01971], [79.92191, 13.01984], [79.92251, 13.02014], [79.92276, 13.02027], [79.92281, 13.02015], [79.92298, 13.01974], [79.92384, 13.01766], [79.92404, 13.01717], [79.92467, 13.01564], [79.9247, 13.01556], [79.92501, 13.01551], [79.92748, 13.01472], [79.93273, 13.01312], [79.94101, 13.00948], [79.94246, 13.00882], [79.94307, 13.00855], [79.94338, 13.00842], [79.94397, 13.00816], [79.94419, 13.00806], [79.94425, 13.00758], [79.94465, 13.00416], [79.94391, 13.00118], [79.94124, 12.99583], [79.93958, 12.99464], [79.93884, 12.99411], [79.93737, 12.99374], [79.93621, 12.99345], [79.93477, 12.99308], [79.93397, 12.99289], [79.93264, 12.99256], [79.93212, 12.9925], [79.93174, 12.99245], [79.92979, 12.99184], [79.92705, 12.99345], [79.91989, 12.99765], [79.91621, 12.9998], [79.91325, 13.00424], [79.91016, 13.00219], [79.90966, 13.00186], [79.90939, 13.00168], [79.90897, 13.00141], [79.90873, 13.00125], [79.90851, 13.00108], [79.90828, 13.00087], [79.908, 13.00062], [79.90771, 13.00036], [79.9074, 13.00008], [79.90545, 12.99833], [79.90255, 12.99572], [79.90229, 12.99572], [79.89793, 12.99581], [79.89489, 12.99164], [79.89518, 12.99154], [79.90163, 12.98929], [79.90344, 12.988], [79.91161, 12.98218], [79.91381, 12.98061], [79.91522, 12.9796], [79.91725, 12.97816], [79.91554, 12.97641], [79.91458, 12.97543], [79.91318, 12.974], [79.91294, 12.97105], [79.91287, 12.97026], [79.91272, 12.96856], [79.91014, 12.96422], [79.90916, 12.96384], [79.90562, 12.96247], [79.90359, 12.96168], [79.8999, 12.95805], [79.89875, 12.95493], [79.89603, 12.94755], [79.89535, 12.94759], [79.89504, 12.94761], [79.8878, 12.94807], [79.88669, 12.94814], [79.88632, 12.94816], [79.88484, 12.94826], [79.88403, 12.94831], [79.87799, 12.9487], [79.87497, 12.94889], [79.87415, 12.94894], [79.87334, 12.94899], [79.86827, 12.94931], [79.86716, 12.94938], [79.86501, 12.94951], [79.85624, 12.95088], [79.8561, 12.9509], [79.85403, 12.95122], [79.85254, 12.95472], [79.85199, 12.95602], [79.85184, 12.95609], [79.85057, 12.95667], [79.85004, 12.95692], [79.84746, 12.9581], [79.83958, 12.95953], [79.83813, 12.95979], [79.83703, 12.95999], [79.83841, 12.96488], [79.83054, 12.96459], [79.82829, 12.96451], [79.82539, 12.96441], [79.82512, 12.96496], [79.82456, 12.96608], [79.82364, 12.96794], [79.82331, 12.97098], [79.82271, 12.97656], [79.82248, 12.97866], [79.82219, 12.98137], [79.82167, 12.98613], [79.8237, 12.98913], [79.82054, 12.98846], [79.81973, 12.98829], [79.81895, 12.98813], [79.81807, 12.98794], [79.81742, 12.98898], [79.81657, 12.99036], [79.81651, 12.99046], [79.81594, 12.99138], [79.81654, 12.99179], [79.8193, 12.99365], [79.82005, 12.99415], [79.82065, 12.99455], [79.82076, 12.99751], [79.82091, 13.00135], [79.81964, 13.00337], [79.81893, 13.0045], [79.81833, 13.00545], [79.81812, 13.00577], [79.81602, 13.0091], [79.81557, 13.00982], [79.81426, 13.01189], [79.81325, 13.01348], [79.81239, 13.01484], [79.81157, 13.01614], [79.81124, 13.01666], [79.81056, 13.01774], [79.81046, 13.0179], [79.80702, 13.01703], [79.8056, 13.01666], [79.8049, 13.01649], [79.80475, 13.01645], [79.80419, 13.0163], [79.80315, 13.01604], [79.80261, 13.0159], [79.80048, 13.02124], [79.80011, 13.02484], [79.80003, 13.02561], [79.79987, 13.02717], [79.79982, 13.02763], [79.79982, 13.02767], [79.79895, 13.02737], [79.79398, 13.02564], [79.7925, 13.02513], [79.79234, 13.02507], [79.7899, 13.02422], [79.78937, 13.02404], [79.78699, 13.02321], [79.7859, 13.02322], [79.78571, 13.02316], [79.78466, 13.02274], [79.78368, 13.02235], [79.77854, 13.0203], [79.77049, 13.01709], [79.76446, 13.01352], [79.76431, 13.01343], [79.76319, 13.01277], [79.76248, 13.01235], [79.76104, 13.0115], [79.75966, 13.01018], [79.75763, 13.00824], [79.75046, 13.00141], [79.74955, 13.00041], [79.74884, 12.99963], [79.74703, 12.99765], [79.74626, 12.99681], [79.74612, 12.99666], [79.74553, 12.99601], [79.7455, 12.99598], [79.74348, 12.99378], [79.74292, 12.99316], [79.7417, 12.99204], [79.74167, 12.99201], [79.7403, 12.99075], [79.73522, 12.98608], [79.73418, 12.98557], [79.73313, 12.98507], [79.73275, 12.98489], [79.72797, 12.98257], [79.72673, 12.98197], [79.72424, 12.98126], [79.72023, 12.98011], [79.71945, 12.97988], [79.71878, 12.97969], [79.71407, 12.97834], [79.70933, 12.97699], [79.70844, 12.97673], [79.70674, 12.97624], [79.70411, 12.97495], [79.70244, 12.97413], [79.69118, 12.96861], [79.69102, 12.96853], [79.6856, 12.96348], [79.68305, 12.96111], [79.68189, 12.95911], [79.6817, 12.95879], [79.68149, 12.95842], [79.68123, 12.95796], [79.68097, 12.95752], [79.68071, 12.95707], [79.67989, 12.95674], [79.67975, 12.95668], [79.67923, 12.95648], [79.67823, 12.95608], [79.67745, 12.95577], [79.67705, 12.95561], [79.67664, 12.95545], [79.67566, 12.95506], [79.67422, 12.95449], [79.67405, 12.95442], [79.66843, 12.95219], [79.66538, 12.95098], [79.66248, 12.94989], [79.66211, 12.94981], [79.66164, 12.94958], [79.66125, 12.94934], [79.66117, 12.94891], [79.66122, 12.94815], [79.66127, 12.94771], [79.66151, 12.94523], [79.66159, 12.94392], [79.66172, 12.9418], [79.66183, 12.94012], [79.66229, 12.93283], [79.66238, 12.93147], [79.6619, 12.93103], [79.65759, 12.92913], [79.65465, 12.92817], [79.65407, 12.92798], [79.6532, 12.9277], [79.65013, 12.9267], [79.64579, 12.92528], [79.63967, 12.92329], [79.63447, 12.92033], [79.63284, 12.9194], [79.63198, 12.91891], [79.63126, 12.9185], [79.62716, 12.91617], [79.62526, 12.91509], [79.62216, 12.91332], [79.62187, 12.91321], [79.62108, 12.91289], [79.61955, 12.91227], [79.6135, 12.91013], [79.61152, 12.91105], [79.61003, 12.91058], [79.60802, 12.9098], [79.6067, 12.90926], [79.60537, 12.90876], [79.60373, 12.9082], [79.60345, 12.90815], [79.6033, 12.90809], [79.59893, 12.90641], [79.59827, 12.90616], [79.59733, 12.90579], [79.59444, 12.90461], [79.59311, 12.9041], [79.59217, 12.90392], [79.59213, 12.90391], [79.58371, 12.90179], [79.5809, 12.90145], [79.58084, 12.90144], [79.57938, 12.90127], [79.57336, 12.90055], [79.57281, 12.89945], [79.57252, 12.89888], [79.57242, 12.89867], [79.57226, 12.89835], [79.57157, 12.89697], [79.57151, 12.89685], [79.57101, 12.89585], [79.57, 12.89384], [79.56934, 12.89252], [79.56925, 12.89233], [79.56879, 12.89141], [79.56853, 12.89089], [79.5682, 12.89023], [79.56781, 12.88946], [79.56693, 12.88769], [79.56679, 12.88743], [79.56664, 12.88713], [79.56438, 12.88479], [79.56189, 12.88221], [79.5612, 12.8815], [79.56091, 12.87977], [79.56086, 12.8795], [79.56006, 12.87474], [79.56058, 12.87408], [79.56138, 12.87307], [79.56372, 12.87009], [79.56594, 12.86597], [79.56769, 12.86273], [79.56771, 12.86269], [79.56785, 12.86089], [79.56801, 12.85885], [79.56812, 12.85747], [79.56558, 12.85406], [79.56426, 12.85314], [79.56395, 12.85293], [79.56296, 12.85223], [79.56103, 12.85087], [79.56077, 12.85069], [79.561, 12.85059], [79.57523, 12.84493], [79.58062, 12.84279], [79.58297, 12.84185], [79.58361, 12.84103], [79.58418, 12.84029], [79.5848, 12.83948], [79.58597, 12.83797], [79.58736, 12.83617], [79.58764, 12.83581], [79.58848, 12.83472], [79.59136, 12.83345], [79.59715, 12.83091], [79.60223, 12.82996], [79.60282, 12.82985], [79.60358, 12.82971], [79.60791, 12.82891], [79.61314, 12.82793], [79.61325, 12.82791], [79.61535, 12.82691], [79.61681, 12.82622], [79.62006, 12.82467], [79.62302, 12.82327], [79.62442, 12.82296], [79.63134, 12.82141], [79.63252, 12.82115], [79.63423, 12.82033], [79.63589, 12.81954], [79.63606, 12.81946], [79.63744, 12.8188], [79.64018, 12.81749], [79.64032, 12.81743], [79.6421, 12.81408], [79.64271, 12.81293], [79.64336, 12.81169], [79.64368, 12.81108], [79.64505, 12.8085], [79.6448, 12.80344], [79.64478, 12.8031], [79.64464, 12.80277], [79.64462, 12.80179], [79.64454, 12.79849], [79.64226, 12.79335], [79.64194, 12.79262], [79.64175, 12.7922], [79.64095, 12.79138], [79.63835, 12.7887], [79.63895, 12.78778], [79.63947, 12.78699], [79.63966, 12.7867], [79.63982, 12.78645], [79.64023, 12.78633], [79.64075, 12.78619], [79.64229, 12.78576], [79.64236, 12.78574], [79.64585, 12.78478], [79.64681, 12.78451], [79.64797, 12.78419], [79.64832, 12.78409], [79.6495, 12.78377], [79.65047, 12.7835], [79.65042, 12.78279], [79.64987, 12.77464], [79.65099, 12.77284], [79.65168, 12.77174], [79.65193, 12.77133], [79.65345, 12.76889], [79.65692, 12.76492], [79.65847, 12.76698], [79.66113, 12.77051], [79.6617, 12.77127], [79.66065, 12.77366], [79.65974, 12.77574], [79.66094, 12.77599], [79.66396, 12.77661], [79.66448, 12.77671], [79.66492, 12.7768], [79.66629, 12.77708], [79.66672, 12.77718], [79.66952, 12.77775], [79.66972, 12.77779], [79.67325, 12.77851], [79.67274, 12.7796], [79.67091, 12.78353], [79.67065, 12.78408], [79.67055, 12.7843], [79.67023, 12.78497], [79.67117, 12.78469], [79.67217, 12.7844], [79.67288, 12.78419], [79.67361, 12.78398], [79.67378, 12.78393], [79.67433, 12.78377], [79.67656, 12.78311], [79.67705, 12.78289], [79.68123, 12.78173], [79.68365, 12.78207], [79.68868, 12.78554], [79.68976, 12.78466], [79.69377, 12.78137], [79.69403, 12.78116], [79.69476, 12.78056], [79.69669, 12.77967], [79.69679, 12.77963], [79.69705, 12.77951], [79.69968, 12.7783], [79.70053, 12.77791], [79.7012, 12.77761], [79.70296, 12.77679], [79.70347, 12.77725], [79.70505, 12.77869], [79.70615, 12.77969], [79.70641, 12.77993], [79.70646, 12.77997], [79.7074, 12.78084], [79.70858, 12.77985], [79.7086, 12.77983], [79.71024, 12.77845], [79.71169, 12.77723], [79.71126, 12.77506], [79.71037, 12.77052], [79.71039, 12.77034], [79.71102, 12.76273], [79.71226, 12.7591], [79.71254, 12.75911], [79.71571, 12.75861], [79.71812, 12.75827], [79.72186, 12.75773], [79.72246, 12.75765], [79.7292, 12.75669], [79.73017, 12.75598], [79.73041, 12.7558], [79.73063, 12.75564], [79.73163, 12.75491], [79.73508, 12.75238], [79.73681, 12.75141], [79.74099, 12.74907], [79.74266, 12.74813], [79.74649, 12.74431], [79.7469, 12.7439], [79.74665, 12.74294], [79.74563, 12.73903], [79.74527, 12.73764], [79.74303, 12.73456], [79.74219, 12.73341], [79.74183, 12.73333], [79.73901, 12.7327], [79.73718, 12.7323], [79.73564, 12.73195], [79.73515, 12.73184], [79.73192, 12.73112], [79.73141, 12.73101], [79.73077, 12.73094], [79.7295, 12.73079], [79.72713, 12.7305], [79.72103, 12.72977], [79.71599, 12.72778], [79.71692, 12.72591], [79.71799, 12.72375], [79.71805, 12.72364], [79.71972, 12.72373], [79.72472, 12.72399], [79.72636, 12.72407], [79.73062, 12.72272], [79.73512, 12.7213], [79.7372, 12.71919], [79.73941, 12.71695], [79.73997, 12.71053], [79.73876, 12.70624], [79.73628, 12.70346], [79.73626, 12.70344], [79.7357, 12.70282], [79.73626, 12.70228], [79.73634, 12.7022], [79.73651, 12.70204], [79.73768, 12.70092], [79.73956, 12.7012], [79.74278, 12.70169], [79.74353, 12.7018], [79.74404, 12.70188], [79.74585, 12.70215], [79.7463, 12.70115], [79.74711, 12.69931], [79.74655, 12.69766], [79.74647, 12.69741], [79.74615, 12.69647], [79.74599, 12.69599], [79.74585, 12.69557], [79.74556, 12.69473], [79.73898, 12.68958], [79.73495, 12.68834], [79.7343, 12.68814], [79.72766, 12.68608], [79.72642, 12.6855], [79.72517, 12.68491], [79.72436, 12.68453], [79.72016, 12.68257], [79.71864, 12.68186], [79.71615, 12.68059], [79.71572, 12.6804], [79.71531, 12.68023], [79.71515, 12.68013], [79.71445, 12.67981], [79.71384, 12.67951], [79.70728, 12.67654], [79.68627, 12.66923], [79.68524, 12.66887], [79.68467, 12.66867], [79.68358, 12.6686], [79.6814, 12.66845], [79.6805, 12.66866], [79.6802, 12.66871], [79.67962, 12.66875], [79.6794, 12.66873], [79.67875, 12.66851], [79.67802, 12.66827], [79.67764, 12.66824], [79.67151, 12.66786], [79.66694, 12.66879], [79.66604, 12.66917], [79.66507, 12.66955], [79.66458, 12.66972], [79.66378, 12.66994], [79.66343, 12.67012], [79.6632, 12.67024], [79.66261, 12.6704], [79.66176, 12.67057], [79.66062, 12.67076], [79.65998, 12.67083], [79.65938, 12.67085], [79.65866, 12.67086], [79.65599, 12.67031], [79.64887, 12.66883], [79.64838, 12.66775], [79.64788, 12.66664], [79.64574, 12.6619], [79.6453, 12.66094], [79.64405, 12.6581], [79.6438, 12.65786], [79.64326, 12.65735], [79.64317, 12.65726], [79.64263, 12.65675], [79.64201, 12.65616], [79.64115, 12.65535], [79.64098, 12.65519], [79.63734, 12.64654], [79.63715, 12.64608], [79.63695, 12.64559], [79.63651, 12.64354], [79.63639, 12.64298], [79.63596, 12.64096], [79.63588, 12.64059], [79.63574, 12.63993], [79.63434, 12.63331], [79.63409, 12.63217], [79.63501, 12.63164], [79.63744, 12.63025], [79.63904, 12.62934], [79.63919, 12.62664], [79.64428, 12.62764], [79.64471, 12.62773], [79.64584, 12.62703], [79.64605, 12.6269], [79.64622, 12.62679], [79.6466, 12.62655], [79.64734, 12.62609], [79.64734, 12.62453], [79.64734, 12.62273], [79.64734, 12.62232], [79.64734, 12.62057], [79.6473, 12.62027], [79.64726, 12.61999], [79.64709, 12.61879], [79.64696, 12.61791], [79.64684, 12.61704], [79.64657, 12.61551], [79.64648, 12.6145], [79.64623, 12.61269], [79.64618, 12.61237], [79.64605, 12.6115], [79.64604, 12.61136], [79.646, 12.61111], [79.64641, 12.61032], [79.64918, 12.60498], [79.65055, 12.60234], [79.65445, 12.60344], [79.65608, 12.60225], [79.65638, 12.60203], [79.65691, 12.60164], [79.65722, 12.60142], [79.65847, 12.60051], [79.65876, 12.6003], [79.66301, 12.59934], [79.66429, 12.59732], [79.66462, 12.5968], [79.66767, 12.59511], [79.67093, 12.59332], [79.6738, 12.59429], [79.67759, 12.59559], [79.67781, 12.59573], [79.67895, 12.59649], [79.68085, 12.59776], [79.68167, 12.5983], [79.68438, 12.59829], [79.68495, 12.59829], [79.68565, 12.59829], [79.68659, 12.59828], [79.68699, 12.59851], [79.68711, 12.59858], [79.68971, 12.60005], [79.69229, 12.60151], [79.69803, 12.59944], [79.70002, 12.59606], [79.70082, 12.5947], [79.70089, 12.59459], [79.70135, 12.59471], [79.70241, 12.59498], [79.70395, 12.59537], [79.70676, 12.59608], [79.70694, 12.59601], [79.7087, 12.59535], [79.70942, 12.59508], [79.71016, 12.5948], [79.71072, 12.59458], [79.71104, 12.59446], [79.71186, 12.59415], [79.71457, 12.59313], [79.72037, 12.59093], [79.72122, 12.59061], [79.72204, 12.5903], [79.72376108163272, 12.589651592501163], [79.72419, 12.58949], [79.72488, 12.58923], [79.72614, 12.58875], [79.72682, 12.58773], [79.72707, 12.58736], [79.72714, 12.58726], [79.72891, 12.58459], [79.7288, 12.58269], [79.72864, 12.57993], [79.72816, 12.57983], [79.72726, 12.57966], [79.72617, 12.57945], [79.72468, 12.57917], [79.7211, 12.58045], [79.71876, 12.58129], [79.71772, 12.57884], [79.71739, 12.57808], [79.71648, 12.57753], [79.71606, 12.57728], [79.71377, 12.57591], [79.71354127100005, 12.575772837000045], [79.70765, 12.57224], [79.70781, 12.57211], [79.70791, 12.57199], [79.71035, 12.56907], [79.7154, 12.56871], [79.72008, 12.56708], [79.72108, 12.56673], [79.72179, 12.56648], [79.72179, 12.56632], [79.72176, 12.56512], [79.72175, 12.56469], [79.72173, 12.5643], [79.72171, 12.5639], [79.72161, 12.56216], [79.72148, 12.55982], [79.72062, 12.55764], [79.72052, 12.55738], [79.72041, 12.5571], [79.72031, 12.55685], [79.71945, 12.55465], [79.71921, 12.55405], [79.71854, 12.55235], [79.7185, 12.55224], [79.71768, 12.55016], [79.72233, 12.5478], [79.72481, 12.54655], [79.72924, 12.5443], [79.73572, 12.54102], [79.73649, 12.54063], [79.74591, 12.53284], [79.74707, 12.53155], [79.74748569300004, 12.531089085000076]]]}}