{"type": "Feature", "properties": {"shapeName": "Krishnagiri", "shapeISO": "", "shapeID": "76128533B35717069663408", "shapeGroup": "IND", "shapeType": "ADM2"}, "geometry": {"type": "Polygon", "coordinates": [[[78.23218, 12.76375], [78.23178, 12.76387], [78.22996, 12.76442], [78.22401, 12.76621], [78.2211, 12.76621], [78.21042, 12.7662], [78.20878, 12.76733], [78.20782, 12.76798], [78.20646, 12.76891], [78.20491, 12.76998], [78.20171, 12.77217], [78.19613, 12.77351], [78.19539, 12.77369], [78.19523, 12.7736], [78.19011, 12.77114], [78.18862, 12.7725], [78.18673, 12.77436], [78.17881, 12.7758], [78.17756, 12.77603], [78.17744, 12.77596], [78.16953, 12.77124], [78.16346, 12.77302], [78.15908, 12.7743], [78.15829, 12.77485], [78.15437, 12.77763], [78.14784, 12.78012], [78.14628, 12.78028], [78.1398, 12.78096], [78.13842, 12.7811], [78.13751, 12.78108], [78.13659, 12.78106], [78.13627, 12.78105], [78.13541, 12.78103], [78.13532, 12.78103], [78.13498, 12.78102], [78.1322, 12.78096], [78.13197, 12.78095], [78.13141, 12.78286], [78.13106, 12.78409], [78.13038, 12.78642], [78.12983, 12.78832], [78.12942, 12.78972], [78.1291, 12.79081], [78.12631, 12.79362], [78.12499, 12.79644], [78.1249, 12.79668], [78.12383, 12.7996], [78.12069, 12.80228], [78.11732, 12.80319], [78.11685, 12.80331], [78.11607, 12.80352], [78.11328, 12.80427], [78.11252, 12.8047], [78.10886, 12.80679], [78.10633, 12.81108], [78.09764, 12.81416], [78.09361, 12.81995], [78.08724, 12.83129], [78.08479, 12.83207], [78.0833, 12.83162], [78.08238, 12.83134], [78.07703, 12.82969], [78.07713, 12.83149], [78.07718, 12.83229], [78.07747, 12.83744], [78.07564, 12.84091], [78.07479, 12.84105], [78.07394, 12.84118], [78.06861, 12.84204], [78.06374, 12.84281], [78.06242, 12.84302], [78.06239, 12.84327], [78.06235, 12.8436], [78.06227, 12.84419], [78.06209, 12.84559], [78.06179, 12.84793], [78.06155, 12.84923], [78.06109, 12.84972], [78.06044, 12.85063], [78.06044, 12.85089], [78.0603, 12.85121], [78.05985, 12.85142], [78.05849, 12.85234], [78.05826, 12.85257], [78.05774, 12.85307], [78.05434, 12.85287], [78.05396, 12.85285], [78.05299, 12.85279], [78.0529, 12.85261], [78.05101, 12.8489], [78.05, 12.84907], [78.04989, 12.84909], [78.04411, 12.85005], [78.04385, 12.85009], [78.03934, 12.85084], [78.03453, 12.85163], [78.03311, 12.85187], [78.0328, 12.85247], [78.03244, 12.85317], [78.03168, 12.85464], [78.03053, 12.85684], [78.02949, 12.85677], [78.02883, 12.85673], [78.02772, 12.85666], [78.02584, 12.85655], [78.02544, 12.85449], [78.02527, 12.85362], [78.0278, 12.849], [78.02776, 12.84587], [78.02774, 12.84418], [78.02289, 12.84427], [78.02108, 12.84431], [78.02, 12.84433], [78.01954, 12.84302], [78.01898, 12.84142], [78.01807, 12.83883], [78.01899, 12.83359], [78.01771, 12.83118], [78.01486, 12.82938], [78.0144, 12.8291], [78.01125, 12.82954], [78.0108, 12.82966], [78.01068, 12.82956], [78.00983, 12.82887], [78.00834, 12.82765], [78.00795, 12.82733], [78.0052, 12.82508], [78.00423, 12.82428], [78.00866, 12.82083], [78.00881, 12.82072], [78.01396, 12.81672], [78.01427, 12.81647], [78.01659, 12.81392], [78.01495, 12.81081], [78.01251, 12.8062], [78.01245, 12.80609], [78.01182, 12.80618], [78.00838, 12.80669], [78.00252, 12.80776], [77.99991, 12.80815], [77.99708, 12.80598], [77.99697, 12.80592], [77.99662, 12.80594], [77.99555, 12.80602], [77.99472, 12.80608], [77.99235, 12.80624], [77.99206, 12.80693], [77.99206, 12.8071], [77.99206, 12.80753], [77.99232, 12.81027], [77.99226, 12.82101], [77.98981, 12.82246], [77.98947, 12.82266], [77.98655, 12.82437], [77.98547, 12.82501], [77.98449, 12.82874], [77.98216, 12.8332], [77.98055, 12.83306], [77.97976, 12.833], [77.97933, 12.83297], [77.97917, 12.83296], [77.97727, 12.8328], [77.97389, 12.83252], [77.97364, 12.8325], [77.96834, 12.83204], [77.96698, 12.83402], [77.96585, 12.83569], [77.96624, 12.83716], [77.96732, 12.84125], [77.96824, 12.84473], [77.9688, 12.84686], [77.96843, 12.84717], [77.9672, 12.84823], [77.96604, 12.84922], [77.96541, 12.84951], [77.9649, 12.8499], [77.96381, 12.85078], [77.95963, 12.85243], [77.95885, 12.85295], [77.95893, 12.85616], [77.9592, 12.85777], [77.95934, 12.8586], [77.95707, 12.8595], [77.95632, 12.8598], [77.95469, 12.85988], [77.95378, 12.85993], [77.95061, 12.86009], [77.94935, 12.86015], [77.94686, 12.85777], [77.94661, 12.85753], [77.94585, 12.85681], [77.94522, 12.85621], [77.94421, 12.85524], [77.9433, 12.85009], [77.94546, 12.84661], [77.9469, 12.84428], [77.95069, 12.83984], [77.95035, 12.83904], [77.94987, 12.83789], [77.94964, 12.83735], [77.94408, 12.82415], [77.94377, 12.82341], [77.94302, 12.82348], [77.94189, 12.82359], [77.94114, 12.82366], [77.94013, 12.82376], [77.93987, 12.82378], [77.93557, 12.82419], [77.93152, 12.82668], [77.92899, 12.82966], [77.92738, 12.82976], [77.92618, 12.82983], [77.92494, 12.82991], [77.92471, 12.82992], [77.92121, 12.83013], [77.92084, 12.83082], [77.91996, 12.83245], [77.92098, 12.83656], [77.9213, 12.83787], [77.92149, 12.83864], [77.92254, 12.84286], [77.92549, 12.8492], [77.92559, 12.84942], [77.92568, 12.85048], [77.92576, 12.8514], [77.92588, 12.85284], [77.92595, 12.85414], [77.92604, 12.85469], [77.92716, 12.85581], [77.92866, 12.85732], [77.92914, 12.85779], [77.92936, 12.85787], [77.93243, 12.85889], [77.93507, 12.85977], [77.93741, 12.86054], [77.93852, 12.86091], [77.93864, 12.86135], [77.93876, 12.86182], [77.93901, 12.86278], [77.93952, 12.86469], [77.93956, 12.86473], [77.94178, 12.86665], [77.94441, 12.86653], [77.94517, 12.86649], [77.94464, 12.86987], [77.94428, 12.87213], [77.94354, 12.87222], [77.9408, 12.87257], [77.93434, 12.8734], [77.93036, 12.87391], [77.93025, 12.87436], [77.92975, 12.87635], [77.92904, 12.87927], [77.93495, 12.88074], [77.93551, 12.88088], [77.93867, 12.88167], [77.93941, 12.88185], [77.93946, 12.88248], [77.93971, 12.88519], [77.93768, 12.88649], [77.93633, 12.88736], [77.93496, 12.88825], [77.93436, 12.88829], [77.93131, 12.88853], [77.92839, 12.88876], [77.92502, 12.88393], [77.9244, 12.88386], [77.92166, 12.88353], [77.92108, 12.88346], [77.91997, 12.88333], [77.91283, 12.88373], [77.91263, 12.88307], [77.91115, 12.87824], [77.90879, 12.87837], [77.90744, 12.87844], [77.90741, 12.87844], [77.90488, 12.87858], [77.90467, 12.87843], [77.9038, 12.87781], [77.89807, 12.87726], [77.89507, 12.87234], [77.89287, 12.86873], [77.89004, 12.86959], [77.88931, 12.86974], [77.88871, 12.86986], [77.88282, 12.86925], [77.88024, 12.86909], [77.87966, 12.86906], [77.87769, 12.8694], [77.87752, 12.86935], [77.87735, 12.869], [77.87287, 12.86755], [77.87207, 12.86763], [77.8694, 12.86791], [77.86898, 12.86782], [77.86738, 12.86749], [77.86505, 12.86701], [77.86199, 12.86768], [77.86132, 12.86783], [77.86084, 12.86793], [77.85997, 12.86797], [77.85839, 12.86754], [77.85654, 12.86686], [77.85581, 12.86659], [77.8546, 12.86615], [77.85393, 12.86614], [77.85015, 12.8661], [77.84964, 12.86638], [77.84694, 12.86787], [77.84343, 12.868], [77.84144, 12.86808], [77.83775, 12.86885], [77.83607, 12.8692], [77.83512, 12.86797], [77.83271, 12.86483], [77.83265, 12.86306], [77.83263, 12.86231], [77.83261, 12.86153], [77.8326, 12.86117], [77.83257, 12.86006], [77.83218, 12.85999], [77.83158, 12.85989], [77.83056, 12.85971], [77.83018, 12.85965], [77.8291, 12.85946], [77.82885, 12.85941], [77.82751, 12.85918], [77.82729, 12.85885], [77.82409, 12.85423], [77.82181, 12.85359], [77.82026, 12.85315], [77.8195, 12.85293], [77.81562, 12.85294], [77.81539, 12.85294], [77.81385, 12.85142], [77.81348, 12.85105], [77.81275, 12.85033], [77.81227, 12.84995], [77.81201, 12.8497], [77.81158, 12.84929], [77.81136, 12.84908], [77.81071, 12.84846], [77.81035, 12.8481], [77.81026, 12.84802], [77.81004, 12.84808], [77.80848, 12.84847], [77.80314, 12.8498], [77.80238, 12.84999], [77.79988, 12.84926], [77.79979, 12.84893], [77.79902, 12.84551], [77.7964, 12.84442], [77.7953, 12.84397], [77.79499, 12.84263], [77.79456, 12.84084], [77.79398, 12.83841], [77.79553, 12.83682], [77.79796, 12.83433], [77.79847, 12.83381], [77.79873, 12.83367], [77.79971, 12.83316], [77.80008, 12.83296], [77.80041, 12.83279], [77.80162, 12.83216], [77.80206, 12.83193], [77.80241, 12.83174], [77.80277, 12.83155], [77.8084, 12.83121], [77.80869, 12.83119], [77.80944, 12.83114], [77.8115, 12.83101], [77.80917, 12.82197], [77.80992, 12.81966], [77.81018, 12.81888], [77.81055, 12.81774], [77.81091, 12.81666], [77.81103, 12.81628], [77.81117, 12.81585], [77.81096, 12.81577], [77.8108, 12.81571], [77.80928, 12.81514], [77.80906, 12.81518], [77.80801, 12.81539], [77.80675, 12.81565], [77.8049, 12.81602], [77.80261, 12.80885], [77.80187, 12.80653], [77.80304, 12.80502], [77.80703, 12.79985], [77.80971, 12.79738], [77.81002, 12.7971], [77.80982, 12.7966], [77.80861, 12.79359], [77.80844, 12.79316], [77.80821, 12.79321], [77.80404, 12.7941], [77.79963, 12.79208], [77.79845, 12.79154], [77.79421, 12.78704], [77.79395, 12.78676], [77.79355, 12.78633], [77.79206, 12.78125], [77.79191, 12.78108], [77.7906, 12.7796], [77.79011, 12.77905], [77.78983, 12.77874], [77.78963, 12.77851], [77.78878, 12.77751], [77.78769, 12.77631], [77.7861, 12.77426], [77.78447, 12.77266], [77.78439, 12.77256], [77.78432, 12.77248], [77.78424, 12.77239], [77.78411, 12.77226], [77.78383, 12.77195], [77.78373, 12.77183], [77.78355, 12.77163], [77.78319, 12.77123], [77.78271, 12.77068], [77.78214, 12.77004], [77.78214, 12.76966], [77.78215, 12.76908], [77.78215, 12.76881], [77.78215, 12.7685], [77.78216, 12.76737], [77.78216, 12.76728], [77.78217, 12.76575], [77.78217, 12.76499], [77.7835, 12.7628], [77.78347, 12.76279], [77.78349, 12.76276], [77.78359, 12.76254], [77.78362, 12.76247], [77.78364, 12.76245], [77.78368, 12.76241], [77.7839, 12.76213], [77.78391, 12.76212], [77.78439, 12.76133], [77.78503, 12.76086], [77.78779, 12.75887], [77.78878, 12.75815], [77.78885, 12.7581], [77.79012, 12.75757], [77.79164, 12.75694], [77.79205, 12.75671], [77.79417, 12.7559], [77.7942, 12.75534], [77.79487, 12.75532], [77.79498, 12.75527], [77.79501, 12.75516], [77.7952, 12.75515], [77.79546, 12.75512], [77.7948, 12.75306], [77.79476, 12.75248], [77.79491, 12.75237], [77.79465, 12.75182], [77.79457, 12.75164], [77.7945, 12.75146], [77.79404, 12.75039], [77.79331, 12.74874], [77.79314, 12.74835], [77.79275, 12.74827], [77.78978, 12.74511], [77.78867, 12.74392], [77.78825, 12.74376], [77.78315, 12.7419], [77.78163, 12.74134], [77.77977, 12.74066], [77.77915, 12.74044], [77.77754, 12.73986], [77.77599, 12.73979], [77.77414, 12.73972], [77.7737, 12.7397], [77.77261, 12.73966], [77.7689, 12.73952], [77.76749, 12.7384], [77.76684, 12.73788], [77.76449, 12.73602], [77.7636, 12.73531], [77.76349, 12.73476], [77.76221, 12.72861], [77.76614, 12.72578], [77.76764, 12.72556], [77.7726, 12.72484], [77.77362, 12.72469], [77.77306, 12.72217], [77.77278, 12.72092], [77.77211, 12.71794], [77.76867, 12.71487], [77.76793, 12.71422], [77.76772, 12.71311], [77.7675, 12.71198], [77.76686, 12.70866], [77.76659, 12.70729], [77.765, 12.70455], [77.76478, 12.70418], [77.7608, 12.69746], [77.76049, 12.69733], [77.76028, 12.6973], [77.75914, 12.69711], [77.75768, 12.69686], [77.75725, 12.69698], [77.75364, 12.69794], [77.75297, 12.69812], [77.752, 12.69838], [77.75181, 12.69841], [77.75151, 12.69847], [77.75117, 12.69858], [77.75102, 12.69863], [77.75039, 12.69884], [77.74796, 12.69969], [77.74741, 12.69987], [77.747, 12.70002], [77.74711, 12.70032], [77.74595, 12.70084], [77.74411, 12.70167], [77.74339, 12.70068], [77.74296, 12.70009], [77.74191, 12.69865], [77.7417, 12.69836], [77.74149, 12.69808], [77.73874, 12.69432], [77.73806, 12.69339], [77.73781, 12.69305], [77.7379, 12.69294], [77.74147, 12.68816], [77.74378, 12.6821], [77.74372, 12.68182], [77.74312, 12.67915], [77.74209, 12.67459], [77.74207, 12.67449], [77.74201, 12.6742], [77.74129, 12.67413], [77.7394, 12.67395], [77.73379, 12.67341], [77.73363, 12.67337], [77.72981, 12.67239], [77.72896, 12.67217], [77.72858, 12.67229], [77.72792, 12.67251], [77.72749, 12.67265], [77.72587, 12.67319], [77.72468, 12.67557], [77.72468, 12.67623], [77.72467, 12.67759], [77.72467, 12.67803], [77.72466, 12.67858], [77.72465, 12.68045], [77.71599, 12.682], [77.71398, 12.68109], [77.71376, 12.67945], [77.71372, 12.67912], [77.71368, 12.67879], [77.71239, 12.66895], [77.71232, 12.66841], [77.71091, 12.66684], [77.70944, 12.6652], [77.70599, 12.6614], [77.70416, 12.66154], [77.70274, 12.66165], [77.70162, 12.66174], [77.69803, 12.66203], [77.69189, 12.66009], [77.68885, 12.65913], [77.68378, 12.66054], [77.67827, 12.66073], [77.6781, 12.6616], [77.67784, 12.66293], [77.67819, 12.66461], [77.67899, 12.66841], [77.67975, 12.67203], [77.67954, 12.67218], [77.67903, 12.67254], [77.67634, 12.67444], [77.67904, 12.67867], [77.68005, 12.68025], [77.68073, 12.68132], [77.67733, 12.68193], [77.67139, 12.683], [77.66792, 12.68363], [77.66467, 12.68422], [77.66321, 12.68384], [77.65845, 12.68259], [77.64914, 12.68015], [77.64327, 12.68013], [77.61973, 12.67331], [77.60811, 12.66896], [77.60058, 12.66747], [77.60027, 12.66458], [77.60016, 12.66362], [77.59986, 12.66095], [77.59965, 12.65905], [77.59955, 12.65818], [77.59824, 12.65263], [77.59913, 12.64884], [77.5992, 12.64854], [77.59966, 12.64658], [77.60199, 12.6427], [77.60399, 12.6415], [77.60583, 12.64039], [77.60519, 12.63708], [77.60818, 12.631], [77.60798, 12.63079], [77.60748, 12.63027], [77.60725, 12.63003], [77.60389, 12.62652], [77.59574, 12.62188], [77.59246, 12.61504], [77.59182, 12.5942], [77.59159, 12.59367], [77.591, 12.59226], [77.5908, 12.59181], [77.58972, 12.58925], [77.58462, 12.5772], [77.58158, 12.57351], [77.58043, 12.56791], [77.58088, 12.56454], [77.58239, 12.55337], [77.58265, 12.55142], [77.58278, 12.55041], [77.5853, 12.54821], [77.58688, 12.54684], [77.58696, 12.54597], [77.58711, 12.54431], [77.58784, 12.53652], [77.58803, 12.53443], [77.58812, 12.53349], [77.58846, 12.53168], [77.58852, 12.53135], [77.58874, 12.53011], [77.58876, 12.53], [77.58992, 12.52372], [77.59014, 12.52255], [77.59032, 12.52151], [77.59005, 12.52058], [77.58902, 12.51705], [77.5918, 12.5165], [77.59838, 12.5152], [77.60154, 12.51457], [77.60416, 12.51405], [77.60571, 12.51375], [77.61578, 12.51342], [77.61605, 12.51261], [77.61695, 12.50989], [77.61534, 12.50499], [77.61437, 12.50394], [77.61236, 12.50176], [77.61112, 12.50077], [77.60031, 12.49215], [77.59308, 12.48638], [77.59183, 12.485], [77.58592, 12.47844], [77.59025, 12.47769], [77.59487, 12.47688], [77.60404, 12.47528], [77.60728, 12.47472], [77.62144, 12.48817], [77.62795, 12.49565], [77.62994, 12.49359], [77.63072, 12.49278], [77.63589, 12.48743], [77.63526, 12.48331], [77.63481, 12.48035], [77.63293, 12.46804], [77.6327, 12.46654], [77.6324, 12.46462], [77.63215, 12.46381], [77.63155, 12.46189], [77.62889, 12.45331], [77.62958, 12.45155], [77.63085, 12.44828], [77.6296, 12.44294], [77.62808, 12.43643], [77.6277, 12.43482], [77.62789, 12.42885], [77.63144, 12.42397], [77.63088, 12.41869], [77.62813, 12.41637], [77.62661, 12.41509], [77.62409, 12.408], [77.62397, 12.40738], [77.62178, 12.39586], [77.62119, 12.38928], [77.62101, 12.3872], [77.62097, 12.38679], [77.62071, 12.38387], [77.61837, 12.37787], [77.61723, 12.37069], [77.6172, 12.37048], [77.61698, 12.36991], [77.61682, 12.36948], [77.61523, 12.36536], [77.6147, 12.36397], [77.61311, 12.36286], [77.61108, 12.36144], [77.60853, 12.36086], [77.60764, 12.36066], [77.60419, 12.35988], [77.60267, 12.35954], [77.60204, 12.3594], [77.60177, 12.3587], [77.60158, 12.3582], [77.60129, 12.35746], [77.59836, 12.34993], [77.59786, 12.34866], [77.59702, 12.3465], [77.58615, 12.33644], [77.58596, 12.33638], [77.57945, 12.33436], [77.57863, 12.332], [77.57686, 12.32687], [77.56985, 12.31306], [77.56923, 12.31183], [77.56694, 12.30732], [77.56191, 12.30526], [77.55598, 12.30284], [77.55528, 12.30025], [77.55356, 12.29386], [77.55037, 12.29253], [77.54569, 12.29212], [77.53509, 12.29118], [77.53432, 12.29111], [77.53213, 12.28884], [77.53142, 12.28666], [77.53131, 12.28631], [77.52915, 12.27964], [77.51889, 12.27759], [77.51582, 12.27698], [77.51284, 12.27638], [77.51167, 12.27697], [77.51131, 12.27715], [77.50898, 12.27832], [77.50871, 12.27846], [77.50393, 12.28284], [77.50136, 12.28311], [77.49919, 12.282], [77.49493, 12.27982], [77.48914, 12.27968], [77.48591, 12.27599], [77.48088, 12.27188], [77.47898, 12.26631], [77.47793, 12.26319], [77.47738, 12.25848], [77.47421, 12.25405], [77.47366, 12.24578], [77.4775, 12.24401], [77.48443, 12.23499], [77.48308, 12.22737], [77.47915, 12.22025], [77.47646, 12.21231], [77.48005, 12.20657], [77.48126, 12.20643], [77.48138, 12.20641], [77.48577, 12.2059], [77.4896, 12.20406], [77.49334, 12.20021], [77.50335, 12.1973], [77.51227, 12.19572], [77.51863, 12.19517], [77.5194, 12.19462], [77.52024, 12.19448], [77.52226, 12.19414], [77.5306, 12.19882], [77.53076, 12.19884], [77.53238, 12.19869], [77.53543, 12.19842], [77.53826, 12.19985], [77.53885, 12.20016], [77.54028, 12.2003], [77.54202, 12.20033], [77.54391, 12.20334], [77.54442, 12.20403], [77.5481, 12.20451], [77.5497, 12.20482], [77.55015, 12.20481], [77.55196, 12.20369], [77.55662, 12.20125], [77.5608, 12.19951], [77.56276, 12.19883], [77.56441, 12.19824], [77.56599, 12.19767], [77.56689, 12.19736], [77.56991, 12.19847], [77.57062, 12.19873], [77.5711, 12.19931], [77.57171, 12.19936], [77.57196, 12.19962], [77.57222, 12.20003], [77.57234, 12.20024], [77.57297, 12.20052], [77.57336, 12.20052], [77.57441, 12.20064], [77.5766, 12.20088], [77.57695, 12.20094], [77.58078, 12.1993], [77.58682, 12.19986], [77.58872, 12.19959], [77.58952, 12.19933], [77.59038, 12.19908], [77.59282, 12.19875], [77.59387, 12.19861], [77.59489, 12.19859], [77.59559, 12.19846], [77.59606, 12.19847], [77.59717, 12.19846], [77.59839, 12.19909], [77.5991, 12.19937], [77.59975, 12.19969], [77.60044, 12.20009], [77.60076, 12.20047], [77.60089, 12.20079], [77.60102, 12.20104], [77.60121, 12.2013], [77.6019, 12.20181], [77.60275, 12.20242], [77.60358, 12.2033], [77.60386, 12.20357], [77.60544, 12.20551], [77.60759, 12.20645], [77.61427, 12.2055], [77.61528, 12.20551], [77.62171, 12.20196], [77.62416, 12.2011], [77.62769, 12.20117], [77.63154, 12.20173], [77.63259, 12.20209], [77.63684, 12.20012], [77.6401, 12.19693], [77.64426, 12.19786], [77.64681, 12.19814], [77.64724, 12.19809], [77.64778, 12.19852], [77.65595, 12.19902], [77.65857, 12.19895], [77.66684, 12.19823], [77.66811, 12.19785], [77.67134, 12.19565], [77.67503, 12.19413], [77.67916, 12.19344], [77.67997, 12.19304], [77.68419, 12.19191], [77.69736, 12.18769], [77.71277, 12.18345], [77.71764, 12.1837], [77.71908, 12.18373], [77.72109, 12.18402], [77.72229, 12.18373], [77.72579, 12.18301], [77.72628, 12.1829], [77.731, 12.18214], [77.73204, 12.18151], [77.73246, 12.18125], [77.73789, 12.17796], [77.74063, 12.17061], [77.74353, 12.16528], [77.74558, 12.16335], [77.74643, 12.16254], [77.74737, 12.16166], [77.74824, 12.16084], [77.75067, 12.15856], [77.75141, 12.16118], [77.75429, 12.16432], [77.75659, 12.16618], [77.7581, 12.16802], [77.76024, 12.16971], [77.76258, 12.1712], [77.77015, 12.17451], [77.77288, 12.17543], [77.77485, 12.17562], [77.77659, 12.17423], [77.77778, 12.17213], [77.77847, 12.16954], [77.77884, 12.16492], [77.78089, 12.16133], [77.78271, 12.15904], [77.78366, 12.15861], [77.79234, 12.15466], [77.79474, 12.15304], [77.79692, 12.15273], [77.79917, 12.15286], [77.80032, 12.1545], [77.80069, 12.15832], [77.80045, 12.16388], [77.80167, 12.17464], [77.80256, 12.17758], [77.80399, 12.17966], [77.80679, 12.18205], [77.80932, 12.18573], [77.81216, 12.19337], [77.81329, 12.19847], [77.81436, 12.20487], [77.81487, 12.21578], [77.81479, 12.21656], [77.81461, 12.22096], [77.81442, 12.22584], [77.82361, 12.24257], [77.84201, 12.2643], [77.86124, 12.2643], [77.87043, 12.28019], [77.87289, 12.28114], [77.87196, 12.28192], [77.87384, 12.2878], [77.87455, 12.2918], [77.87485, 12.29622], [77.87727, 12.30319], [77.87835, 12.30655], [77.87887, 12.31097], [77.87901, 12.31405], [77.87978, 12.31871], [77.88007, 12.3231], [77.87964, 12.32722], [77.87796, 12.33231], [77.87587, 12.33779], [77.87518, 12.33969], [77.87456, 12.34224], [77.87514, 12.34533], [77.87534, 12.34708], [77.87459, 12.34853], [77.87303, 12.34882], [77.87205, 12.34915], [77.87163, 12.35149], [77.87193, 12.35415], [77.87203, 12.35499], [77.87356, 12.35644], [77.87672, 12.35827], [77.87933, 12.35917], [77.88222, 12.36053], [77.8823, 12.36059], [77.88322, 12.36128], [77.8869, 12.36163], [77.88876, 12.36113], [77.88934, 12.36098], [77.89318, 12.36067], [77.89707, 12.3608], [77.89897, 12.3614], [77.90207, 12.36057], [77.90399, 12.35941], [77.90539, 12.3593], [77.9067, 12.35919], [77.90773, 12.35817], [77.90793, 12.35797], [77.9101, 12.35704], [77.91388, 12.35622], [77.9169, 12.35666], [77.91923, 12.35705], [77.92151, 12.35699], [77.92531, 12.35636], [77.93068, 12.35536], [77.9332, 12.35552], [77.93487, 12.35606], [77.93702, 12.35685], [77.93717, 12.35697], [77.93904, 12.35853], [77.94061, 12.36019], [77.94309, 12.36189], [77.94576, 12.36316], [77.94589, 12.36323], [77.94821, 12.36451], [77.94845, 12.36464], [77.95099, 12.3668], [77.95225, 12.36979], [77.9528, 12.37253], [77.95284, 12.37478], [77.95315, 12.3775], [77.95307, 12.38064], [77.95451, 12.38319], [77.95461, 12.3833], [77.95608, 12.38485], [77.95757, 12.38786], [77.9575, 12.3892], [77.9573, 12.39143], [77.95562, 12.39266], [77.95411, 12.39547], [77.95378, 12.39657], [77.95351, 12.39811], [77.95292, 12.39896], [77.9522, 12.40069], [77.9518, 12.40312], [77.95185, 12.40557], [77.95129, 12.40664], [77.95101, 12.40818], [77.95031, 12.41012], [77.95031, 12.41212], [77.95157, 12.41311], [77.9535, 12.41393], [77.95476, 12.41491], [77.95538, 12.4163], [77.95602, 12.41791], [77.95739, 12.41979], [77.95896, 12.42147], [77.96161, 12.42458], [77.96288, 12.42621], [77.96413, 12.42781], [77.96457, 12.42837], [77.966, 12.43039], [77.96745, 12.43246], [77.96773, 12.43286], [77.96849, 12.43456], [77.96897, 12.43563], [77.96894, 12.43741], [77.96889, 12.43889], [77.96889, 12.43897], [77.96791, 12.44044], [77.96742, 12.44218], [77.96768, 12.44442], [77.96853, 12.44617], [77.96858, 12.44628], [77.96871, 12.4474], [77.96881, 12.44829], [77.96894, 12.44883], [77.96925, 12.45011], [77.96935, 12.451], [77.96882, 12.45194], [77.96839, 12.45269], [77.96627, 12.45625], [77.96275, 12.46186], [77.96257, 12.46414], [77.96256, 12.46426], [77.96237, 12.46666], [77.96164, 12.46834], [77.96141, 12.46864], [77.95962, 12.47097], [77.95282, 12.47745], [77.95234, 12.47789], [77.9461, 12.48362], [77.94384, 12.4857], [77.9427, 12.48647], [77.94127, 12.48654], [77.93933, 12.48611], [77.93786, 12.48551], [77.93708, 12.48454], [77.93678, 12.4834], [77.93599, 12.48221], [77.93517, 12.4817], [77.93426, 12.48113], [77.93299, 12.4801], [77.93175, 12.47909], [77.93134, 12.47876], [77.93049, 12.47807], [77.93012, 12.47771], [77.92983, 12.47743], [77.92973, 12.47733], [77.92958, 12.47731], [77.92877, 12.47722], [77.92812, 12.47825], [77.92047, 12.48799], [77.92068, 12.49034], [77.92069, 12.49045], [77.92073, 12.49066], [77.92129, 12.49339], [77.92286, 12.49798], [77.92317, 12.49891], [77.92448, 12.50194], [77.92621, 12.50303], [77.92792, 12.50345], [77.92917, 12.50448], [77.9297, 12.50609], [77.92929, 12.50892], [77.92768, 12.51271], [77.92316, 12.52031], [77.92073, 12.52198], [77.91951, 12.52249], [77.91779, 12.5227], [77.91338, 12.52256], [77.90846, 12.52168], [77.90748, 12.52198], [77.907, 12.52301], [77.90673, 12.52404], [77.90651, 12.5249], [77.90527, 12.52668], [77.90429, 12.52784], [77.90206, 12.52926], [77.90058, 12.52991], [77.89934, 12.5306], [77.89965, 12.53148], [77.89982, 12.53197], [77.90152, 12.53459], [77.90348, 12.53595], [77.90418, 12.53659], [77.90517, 12.53748], [77.90593, 12.53825], [77.9079, 12.53853], [77.91063, 12.53741], [77.91089, 12.53732], [77.91336, 12.5365], [77.9183, 12.53589], [77.92027, 12.53681], [77.92249, 12.53799], [77.92262, 12.53805], [77.92668, 12.5403], [77.92915, 12.54172], [77.93046, 12.5426], [77.93162, 12.54337], [77.93458, 12.54485], [77.9355, 12.54524], [77.93681, 12.5458], [77.93829, 12.54556], [77.94053, 12.54431], [77.94498, 12.54179], [77.9459, 12.54087], [77.94695, 12.53983], [77.9489, 12.53718], [77.95055, 12.53094], [77.95057, 12.53055], [77.95073, 12.52739], [77.95092, 12.52474], [77.95235, 12.52312], [77.95477, 12.52205], [77.95723, 12.52277], [77.95947, 12.52413], [77.96034, 12.52483], [77.96172, 12.52594], [77.96267, 12.52716], [77.964, 12.52888], [77.96453, 12.53039], [77.96506, 12.5319], [77.96564, 12.53378], [77.96578, 12.53422], [77.96584, 12.53441], [77.96585, 12.53445], [77.96737, 12.53641], [77.96886, 12.53702], [77.97035, 12.53763], [77.9716, 12.53844], [77.97282, 12.53813], [77.97305, 12.53806], [77.97453, 12.53764], [77.97602, 12.53802], [77.97689, 12.53879], [77.97803, 12.53981], [77.97977, 12.5409], [77.98034, 12.5416], [77.98104, 12.54238], [77.98111, 12.54622], [77.98142, 12.54985], [77.98218, 12.55009], [77.98465, 12.55088], [77.98613, 12.55059], [77.98618, 12.55055], [77.98684, 12.55001], [77.9871, 12.54979], [77.9883, 12.54766], [77.98834, 12.54723], [77.98851, 12.54565], [77.98946, 12.54417], [77.99142, 12.54369], [77.99181, 12.5437], [77.99413, 12.54374], [77.99609, 12.54371], [77.99651, 12.54394], [77.99759, 12.54454], [78.00033, 12.54549], [78.00108, 12.54595], [78.00172, 12.54634], [78.002, 12.54651], [78.00209, 12.54657], [78.00406, 12.54677], [78.00438, 12.54675], [78.00676, 12.54658], [78.00808, 12.54544], [78.00843, 12.54515], [78.00905, 12.54224], [78.00902, 12.54157], [78.00896, 12.54019], [78.00866, 12.53942], [78.00841, 12.53877], [78.00805, 12.53515], [78.00795, 12.53418], [78.00852, 12.53128], [78.00899, 12.52822], [78.00918, 12.52697], [78.00921, 12.52681], [78.0093, 12.52541], [78.00933, 12.52501], [78.00996, 12.52371], [78.01085, 12.52327], [78.01112, 12.52314], [78.01423, 12.5232], [78.01875, 12.52316], [78.02051, 12.52301], [78.02254, 12.52284], [78.02303, 12.5228], [78.02391, 12.52273], [78.02497, 12.52245], [78.02639, 12.52208], [78.02918, 12.52189], [78.02982, 12.52174], [78.03188, 12.52126], [78.03522, 12.52024], [78.03647, 12.51977], [78.03648, 12.51975], [78.03653, 12.51972], [78.03656, 12.5197], [78.03657, 12.5197], [78.03658, 12.51969], [78.03661, 12.51968], [78.03665, 12.51967], [78.0367, 12.51963], [78.03684, 12.51956], [78.03692, 12.51952], [78.03696, 12.51951], [78.03706, 12.51953], [78.03708, 12.51954], [78.03809, 12.51916], [78.03976, 12.51773], [78.04002, 12.51744], [78.04101, 12.51635], [78.04108, 12.51627], [78.04199, 12.51612], [78.0435, 12.51716], [78.04471, 12.51771], [78.04815, 12.51755], [78.05095, 12.51596], [78.05146, 12.51554], [78.0547, 12.51283], [78.05665, 12.51012], [78.05819, 12.5083], [78.05915, 12.50741], [78.05949, 12.5071], [78.06153, 12.50675], [78.06241, 12.50669], [78.06376, 12.50659], [78.06392, 12.50658], [78.06501, 12.50632], [78.06681, 12.5066], [78.06748, 12.50671], [78.06752, 12.50672], [78.06828, 12.50685], [78.07004, 12.50679], [78.07107, 12.50603], [78.07179, 12.50542], [78.07296, 12.50581], [78.07399, 12.50636], [78.07522, 12.50593], [78.076, 12.5045], [78.07664, 12.50387], [78.07743, 12.5031], [78.07895, 12.50119], [78.07927, 12.49989], [78.07946, 12.49759], [78.07944, 12.49726], [78.07931, 12.49511], [78.0792, 12.49296], [78.07915, 12.4913], [78.07994, 12.48866], [78.08101, 12.48711], [78.0815, 12.48671], [78.08215, 12.48596], [78.08304, 12.48523], [78.08506, 12.48476], [78.08708, 12.48429], [78.08889, 12.48347], [78.09333, 12.48061], [78.09518, 12.47956], [78.09542, 12.47942], [78.09591, 12.479], [78.09643, 12.47856], [78.09768, 12.47838], [78.09865, 12.47887], [78.0987, 12.47889], [78.09987, 12.48087], [78.10012, 12.48129], [78.10133, 12.48334], [78.10219, 12.48385], [78.1031, 12.48395], [78.10381, 12.48402], [78.10512, 12.48435], [78.10556, 12.48488], [78.10682, 12.48641], [78.10767, 12.48813], [78.1088, 12.4895], [78.10924, 12.48959], [78.10962, 12.48967], [78.11071, 12.48949], [78.11294, 12.48825], [78.11608, 12.48593], [78.11674, 12.48487], [78.11688, 12.48347], [78.11692, 12.4812], [78.11732, 12.47682], [78.1174, 12.47646], [78.11773, 12.47507], [78.1187, 12.474], [78.12056, 12.47256], [78.12659, 12.46876], [78.12911, 12.46717], [78.13379, 12.4638], [78.14029, 12.45882], [78.14387, 12.45608], [78.14452, 12.45421], [78.14451, 12.45373], [78.1445, 12.45303], [78.14402, 12.45086], [78.14291, 12.44812], [78.1428, 12.44786], [78.1416, 12.44605], [78.13938, 12.44359], [78.1381, 12.44238], [78.13577, 12.44016], [78.13462, 12.43968], [78.13354, 12.4387], [78.13265, 12.43689], [78.13242, 12.43589], [78.13289, 12.43488], [78.13385, 12.43303], [78.13437, 12.43136], [78.13438, 12.43037], [78.13371, 12.42905], [78.13239, 12.42742], [78.13197, 12.42638], [78.13165, 12.42561], [78.13137, 12.42379], [78.13164, 12.42247], [78.13238, 12.42129], [78.13331, 12.42029], [78.13385, 12.41879], [78.13411, 12.41757], [78.13595, 12.409], [78.1389, 12.39524], [78.13924, 12.39368], [78.1397, 12.39149], [78.13982, 12.39093], [78.1401, 12.39027], [78.14032, 12.38975], [78.14038, 12.38961], [78.14138, 12.38849], [78.14142, 12.38844], [78.1434, 12.38742], [78.14502, 12.38706], [78.14606, 12.38687], [78.14733, 12.38619], [78.14812, 12.38536], [78.14862, 12.3842], [78.14971, 12.38434], [78.15067, 12.38464], [78.15174, 12.38364], [78.1519, 12.38337], [78.15234, 12.38265], [78.15346, 12.38197], [78.15681, 12.38084], [78.15883, 12.38013], [78.162, 12.3791], [78.16243, 12.37897], [78.16362, 12.37878], [78.16397, 12.37812], [78.16392, 12.37682], [78.1638, 12.37607], [78.16359, 12.37471], [78.16276, 12.37327], [78.16173, 12.37248], [78.16117, 12.37184], [78.16143, 12.37054], [78.16115, 12.36973], [78.16039, 12.36878], [78.16034, 12.36748], [78.16089, 12.36405], [78.16121, 12.36332], [78.1613, 12.36312], [78.16168, 12.36225], [78.16221, 12.36077], [78.16414, 12.35943], [78.16561, 12.35809], [78.16587, 12.35768], [78.16733, 12.35529], [78.16849, 12.35494], [78.16862, 12.3548], [78.16928, 12.3541], [78.16921, 12.35265], [78.16924, 12.35193], [78.16928, 12.35103], [78.17005, 12.35003], [78.17009, 12.35002], [78.17151, 12.34967], [78.17303, 12.34963], [78.17328, 12.34977], [78.17419, 12.35025], [78.1757, 12.35021], [78.1764, 12.34995], [78.17758, 12.34951], [78.17925, 12.34849], [78.17964, 12.34799], [78.18037, 12.34781], [78.18109, 12.3486], [78.18132, 12.34908], [78.18194, 12.34923], [78.18283, 12.34904], [78.18455, 12.34834], [78.1873, 12.34703], [78.18924, 12.3461], [78.18997, 12.34592], [78.19045, 12.34607], [78.19072, 12.34687], [78.1909, 12.34816], [78.1914, 12.34847], [78.19302, 12.3481], [78.19428, 12.34741], [78.19445, 12.34726], [78.19535, 12.34641], [78.19585, 12.34561], [78.19597, 12.34542], [78.19648, 12.34476], [78.1966, 12.34346], [78.19671, 12.34216], [78.19775, 12.34197], [78.20034, 12.34205], [78.2031, 12.34229], [78.20409, 12.34291], [78.20481, 12.34369], [78.20587, 12.34479], [78.20621, 12.34522], [78.20698, 12.34621], [78.20779, 12.34764], [78.2085, 12.34886], [78.20866, 12.34914], [78.2088, 12.34939], [78.20987, 12.35049], [78.20997, 12.35057], [78.21091, 12.3513], [78.21106, 12.35142], [78.21245, 12.35267], [78.21386, 12.35408], [78.21396, 12.35415], [78.2141, 12.35422], [78.21555, 12.35532], [78.21689, 12.35625], [78.21838, 12.35717], [78.22035, 12.35775], [78.22177, 12.35819], [78.22351, 12.35878], [78.22476, 12.35906], [78.22593, 12.35886], [78.22688, 12.35818], [78.22801, 12.35766], [78.22833, 12.35758], [78.22961, 12.35728], [78.23081, 12.35724], [78.232, 12.35719], [78.23275, 12.35717], [78.23328, 12.35666], [78.23326, 12.35553], [78.23273, 12.35393], [78.23182, 12.35283], [78.23112, 12.35108], [78.23131, 12.34941], [78.23132, 12.34929], [78.23202, 12.34684], [78.23252, 12.34505], [78.23331, 12.34421], [78.23398, 12.34257], [78.23473, 12.34255], [78.23505, 12.3427], [78.23567, 12.34171], [78.23684, 12.34038], [78.23724, 12.33975], [78.23758, 12.33922], [78.23792, 12.33727], [78.23732, 12.33616], [78.2372, 12.33596], [78.23635, 12.33458], [78.2358, 12.33408], [78.23515, 12.33349], [78.23466, 12.3331], [78.23421, 12.33272], [78.23378, 12.33238], [78.23363, 12.33226], [78.23314, 12.33192], [78.2323, 12.33133], [78.23214, 12.33126], [78.2315, 12.33096], [78.23069, 12.33058], [78.22932, 12.3305], [78.2272, 12.33037], [78.22436, 12.32985], [78.22348, 12.32969], [78.22234, 12.32908], [78.22216, 12.3289], [78.22129, 12.32799], [78.22084, 12.32687], [78.22052, 12.32554], [78.22049, 12.32543], [78.22063, 12.32478], [78.22077, 12.32413], [78.2214, 12.32314], [78.22267, 12.32246], [78.22277, 12.32242], [78.22381, 12.32194], [78.22461, 12.3211], [78.22501, 12.32027], [78.22508, 12.32012], [78.22508, 12.31963], [78.22507, 12.31883], [78.22494, 12.3184], [78.22492, 12.31781], [78.22441, 12.31612], [78.22435, 12.31604], [78.22385, 12.31533], [78.22341, 12.31421], [78.22296, 12.3131], [78.22314, 12.31213], [78.22412, 12.31145], [78.22463, 12.31136], [78.22627, 12.31106], [78.22708, 12.31082], [78.22933, 12.31016], [78.23165, 12.30928], [78.23427, 12.30839], [78.23628, 12.30753], [78.23837, 12.30601], [78.2398, 12.30502], [78.24033, 12.30466], [78.24228, 12.30315], [78.24384, 12.3023], [78.24488, 12.30211], [78.2456, 12.30176], [78.24577, 12.30063], [78.24569, 12.29988], [78.24559, 12.29902], [78.24579, 12.29823], [78.2468, 12.29771], [78.24808, 12.29703], [78.24909, 12.29652], [78.24913, 12.29555], [78.24887, 12.2946], [78.24827, 12.29333], [78.24848, 12.29253], [78.24873, 12.29204], [78.24864, 12.29124], [78.24604, 12.28715], [78.24602, 12.28565], [78.24602, 12.28554], [78.24635, 12.28505], [78.24667, 12.28456], [78.24696, 12.28426], [78.24762, 12.28357], [78.24845, 12.28274], [78.24908, 12.2816], [78.24894, 12.28032], [78.24926, 12.27903], [78.25007, 12.27805], [78.25109, 12.27729], [78.2512, 12.27721], [78.25216, 12.27622], [78.25204, 12.27511], [78.25178, 12.27415], [78.25231, 12.27333], [78.25317, 12.27283], [78.25375, 12.27249], [78.25388, 12.27168], [78.25393, 12.27137], [78.25378, 12.26993], [78.25446, 12.26911], [78.25534, 12.26876], [78.25636, 12.26825], [78.25949, 12.26752], [78.2636, 12.26581], [78.26479, 12.26545], [78.26526, 12.26544], [78.2657, 12.26543], [78.26699, 12.26603], [78.26812, 12.26664], [78.26845, 12.26695], [78.26913, 12.26757], [78.27, 12.26867], [78.27061, 12.27025], [78.27242, 12.27148], [78.27341, 12.27225], [78.27354, 12.2723], [78.27484, 12.27285], [78.27672, 12.27328], [78.27842, 12.27355], [78.27987, 12.27431], [78.28071, 12.27509], [78.28204, 12.27617], [78.28286, 12.27678], [78.28364, 12.27692], [78.28454, 12.27674], [78.28526, 12.27632], [78.28598, 12.2759], [78.28624, 12.27552], [78.28639, 12.27533], [78.28679, 12.27476], [78.28741, 12.2733], [78.28839, 12.27232], [78.29065, 12.27193], [78.29186, 12.27174], [78.29318, 12.27123], [78.29481, 12.27055], [78.29641, 12.26977], [78.29862, 12.26869], [78.30183, 12.26685], [78.30333, 12.26649], [78.30365, 12.26645], [78.30475, 12.26628], [78.30529, 12.2666], [78.30582, 12.2669], [78.30593, 12.26695], [78.3064, 12.26788], [78.30647, 12.26801], [78.30744, 12.26878], [78.3085, 12.27034], [78.31111, 12.27395], [78.31158, 12.27417], [78.31206, 12.2744], [78.31284, 12.27454], [78.31403, 12.27419], [78.31519, 12.27336], [78.31622, 12.27244], [78.31647, 12.27221], [78.3185, 12.27088], [78.31948, 12.26974], [78.31966, 12.26898], [78.31982, 12.2683], [78.32017, 12.26766], [78.32035, 12.26733], [78.32121, 12.26651], [78.3227, 12.26599], [78.32587, 12.26527], [78.32622, 12.26517], [78.32703, 12.26478], [78.32824, 12.26426], [78.33006, 12.26365], [78.33139, 12.26322], [78.33238, 12.26208], [78.33304, 12.26063], [78.33356, 12.25934], [78.33326, 12.25744], [78.33327, 12.25662], [78.33328, 12.25552], [78.33335, 12.25519], [78.33357, 12.25419], [78.33374, 12.25344], [78.3341, 12.25227], [78.33424, 12.25183], [78.3358, 12.24988], [78.33694, 12.24858], [78.3379, 12.2468], [78.33803, 12.24584], [78.33821, 12.24456], [78.33826, 12.24389], [78.33845, 12.24121], [78.33815, 12.23942], [78.33794, 12.23819], [78.33738, 12.23677], [78.33743, 12.23625], [78.33757, 12.23485], [78.33878, 12.23434], [78.33928, 12.23414], [78.33945, 12.23407], [78.3404, 12.23369], [78.34089, 12.23349], [78.34097, 12.23347], [78.34349, 12.23296], [78.34436, 12.23298], [78.34722, 12.23303], [78.34724, 12.23303], [78.34779, 12.2331], [78.34956, 12.2333], [78.35389, 12.23321], [78.35512, 12.23303], [78.35663, 12.23236], [78.35788, 12.23189], [78.35799, 12.23185], [78.35901, 12.23196], [78.36048, 12.23212], [78.36155, 12.23263], [78.36207, 12.23288], [78.36512, 12.2349], [78.36554, 12.23506], [78.36669, 12.2355], [78.36712, 12.23552], [78.36948, 12.23561], [78.37015, 12.23537], [78.37282, 12.23443], [78.37524, 12.23327], [78.37812, 12.2321], [78.37837, 12.23198], [78.38009, 12.23111], [78.38141, 12.23062], [78.38367, 12.22977], [78.38474, 12.22959], [78.38548, 12.22879], [78.38558, 12.22735], [78.38548, 12.22648], [78.38533, 12.22512], [78.38511, 12.22337], [78.38505, 12.22193], [78.38503, 12.2214], [78.385, 12.22066], [78.38427, 12.21975], [78.38385, 12.21924], [78.38337, 12.21869], [78.38206, 12.2172], [78.38151, 12.21676], [78.37968, 12.21529], [78.37823, 12.21412], [78.37777, 12.21375], [78.37642, 12.21267], [78.3758, 12.21199], [78.37528, 12.21142], [78.37417, 12.21112], [78.3734, 12.21145], [78.37172, 12.21228], [78.3678, 12.21203], [78.36635, 12.21157], [78.36552, 12.21131], [78.36543, 12.21128], [78.36337, 12.21073], [78.36211, 12.21039], [78.36081, 12.20946], [78.35997, 12.2082], [78.35921, 12.20518], [78.35879, 12.20364], [78.35864, 12.20311], [78.35841, 12.20152], [78.35838, 12.20072], [78.35834, 12.19993], [78.35893, 12.19896], [78.36065, 12.19876], [78.36203, 12.1985], [78.36221, 12.19847], [78.36345, 12.19823], [78.36595, 12.19786], [78.36765, 12.19703], [78.36858, 12.19625], [78.36889, 12.196], [78.36902, 12.19589], [78.37037, 12.19426], [78.37201, 12.19241], [78.37309, 12.19118], [78.37512, 12.19034], [78.37523, 12.19037], [78.37734, 12.19078], [78.37959, 12.19202], [78.38089, 12.192], [78.38242, 12.19197], [78.38259, 12.19197], [78.3861, 12.19319], [78.38773, 12.19435], [78.38917, 12.19553], [78.39053, 12.19646], [78.39078, 12.19663], [78.39238, 12.19772], [78.39305, 12.19789], [78.39477, 12.19832], [78.39614, 12.1983], [78.39698, 12.19829], [78.3987, 12.19762], [78.39923, 12.19713], [78.40003, 12.19639], [78.4001, 12.19633], [78.40149, 12.19487], [78.40233, 12.19454], [78.40334, 12.19414], [78.40527, 12.19338], [78.41005, 12.193], [78.41108, 12.19304], [78.41309, 12.19313], [78.41418, 12.19312], [78.41522, 12.19307], [78.41617, 12.19309], [78.4174, 12.19308], [78.41823, 12.19307], [78.41936, 12.19306], [78.42243, 12.19336], [78.42336, 12.19368], [78.42422, 12.19398], [78.42617, 12.19412], [78.42737, 12.19412], [78.42829, 12.19411], [78.42886, 12.19406], [78.43008, 12.19394], [78.4314, 12.19361], [78.43165, 12.19333], [78.43192, 12.19303], [78.43271, 12.19216], [78.43354, 12.1912], [78.43448, 12.19064], [78.43525, 12.19019], [78.43652, 12.18945], [78.44235, 12.186], [78.44421, 12.18492], [78.44518, 12.18436], [78.44787, 12.18282], [78.44845, 12.18239], [78.4505, 12.18087], [78.4549, 12.17751], [78.45568, 12.1767], [78.45629, 12.17606], [78.45718, 12.17477], [78.45755, 12.17349], [78.45759, 12.1718], [78.45761, 12.17108], [78.45665, 12.16852], [78.45657, 12.16514], [78.45696, 12.16305], [78.45668, 12.16097], [78.45648, 12.15599], [78.4551, 12.15206], [78.4549, 12.1515], [78.45428, 12.14926], [78.45448, 12.14829], [78.45622, 12.14732], [78.4596, 12.14648], [78.46062, 12.14623], [78.46224, 12.14583], [78.46578, 12.14445], [78.46985, 12.14287], [78.47382, 12.14139], [78.47485, 12.14114], [78.47725, 12.14056], [78.47733, 12.14053], [78.48036, 12.13941], [78.48386, 12.13754], [78.48435, 12.13728], [78.48441, 12.13728], [78.48674, 12.1371], [78.48862, 12.13794], [78.48959, 12.13837], [78.49259, 12.13996], [78.49439, 12.14106], [78.49442, 12.14108], [78.49578, 12.14123], [78.49674, 12.14083], [78.49733, 12.14058], [78.4987, 12.1404], [78.49933, 12.14169], [78.49928, 12.14188], [78.49888, 12.14323], [78.49837, 12.14493], [78.49818, 12.14668], [78.49787, 12.14962], [78.49865, 12.15172], [78.5014, 12.15591], [78.50237, 12.15753], [78.50347, 12.16066], [78.50362, 12.16108], [78.50474, 12.16302], [78.5055, 12.16593], [78.50578, 12.16649], [78.50678, 12.16852], [78.5072, 12.17107], [78.50738, 12.17215], [78.50751, 12.17289], [78.5074, 12.17438], [78.50713, 12.17582], [78.50672, 12.1771], [78.50698, 12.17874], [78.50715, 12.17986], [78.50781, 12.18083], [78.50938, 12.18165], [78.51031, 12.18213], [78.51453, 12.18262], [78.51618, 12.18267], [78.51654, 12.18268], [78.5205, 12.18278], [78.5217, 12.18281], [78.52616, 12.18294], [78.52702, 12.18296], [78.53342, 12.18313], [78.53594, 12.18304], [78.53883, 12.18295], [78.53905, 12.18294], [78.54082, 12.18289], [78.54279, 12.18282], [78.54623, 12.18379], [78.5463, 12.18381], [78.54704, 12.184], [78.54939, 12.18461], [78.54948, 12.18463], [78.55197, 12.18611], [78.55405, 12.18771], [78.55418, 12.18782], [78.55465, 12.18826], [78.55642, 12.18991], [78.55906, 12.19239], [78.56103, 12.19421], [78.56235, 12.19553], [78.56326, 12.1962], [78.56417, 12.19687], [78.56549, 12.19787], [78.56636, 12.19831], [78.56682, 12.19854], [78.56962, 12.19888], [78.56978, 12.19879], [78.57137, 12.19791], [78.57171, 12.19697], [78.572, 12.19618], [78.57209, 12.19592], [78.57248, 12.19492], [78.57277, 12.19405], [78.57299, 12.19344], [78.57329, 12.19133], [78.5736, 12.18914], [78.57419, 12.18652], [78.57438, 12.1857], [78.57454, 12.185], [78.57515, 12.18103], [78.57574, 12.17755], [78.57594, 12.17652], [78.57685, 12.17179], [78.57692, 12.17143], [78.57748, 12.16962], [78.57787, 12.16796], [78.57841, 12.1668], [78.57926, 12.16647], [78.57964, 12.1665], [78.58121, 12.16666], [78.58163, 12.16672], [78.58496, 12.1675], [78.58861, 12.16837], [78.59054, 12.1692], [78.59126, 12.16951], [78.5945, 12.17114], [78.59685, 12.17411], [78.59696, 12.17426], [78.59755, 12.17506], [78.59879, 12.17675], [78.60024, 12.17874], [78.60303, 12.18138], [78.60363, 12.18188], [78.60714, 12.18484], [78.60879, 12.18565], [78.6107, 12.18614], [78.61179, 12.18642], [78.61378, 12.18703], [78.61581, 12.18731], [78.61644, 12.1874], [78.6167, 12.18743], [78.61772, 12.18738], [78.61921, 12.1873], [78.62323, 12.18631], [78.62593, 12.18463], [78.62878, 12.18273], [78.63077, 12.18094], [78.6329, 12.17875], [78.63512, 12.17705], [78.63667, 12.18141], [78.63914, 12.18832], [78.64118, 12.19252], [78.64244, 12.19512], [78.6426, 12.19572], [78.64423, 12.20212], [78.64499, 12.20509], [78.64511, 12.20503], [78.6469, 12.2041], [78.65337, 12.20074], [78.65956, 12.19753], [78.66497, 12.20353], [78.66591, 12.20458], [78.66705, 12.20586], [78.6676, 12.20647], [78.66965, 12.20874], [78.67049, 12.20968], [78.67203, 12.21502], [78.67308, 12.21868], [78.67306, 12.2196], [78.67306, 12.21968], [78.67303, 12.22075], [78.67298, 12.22296], [78.67293, 12.225], [78.67015, 12.23067], [78.66822, 12.23223], [78.6659, 12.23411], [78.66374, 12.23587], [78.65976, 12.23738], [78.6532, 12.23987], [78.65383, 12.24301], [78.65445, 12.24618], [78.65445, 12.24635], [78.65441, 12.24707], [78.65421, 12.25069], [78.65415, 12.25183], [78.65413, 12.2521], [78.6532, 12.25657], [78.65305, 12.25731], [78.65272, 12.2589], [78.65232, 12.25905], [78.64943, 12.25974], [78.64539, 12.26071], [78.6372, 12.26273], [78.63835, 12.26388], [78.63838, 12.2639], [78.6413, 12.26676], [78.64196, 12.27123], [78.64202, 12.27162], [78.64206, 12.27192], [78.6443, 12.27654], [78.6448, 12.27886], [78.64517, 12.28056], [78.64395, 12.28245], [78.64389, 12.28258], [78.64331, 12.28241], [78.64275, 12.28184], [78.64273, 12.28182], [78.63457, 12.27341], [78.63311, 12.2719], [78.63187, 12.27062], [78.62936, 12.26803], [78.62799, 12.26662], [78.62664, 12.26523], [78.62482, 12.26644], [78.62421, 12.26685], [78.62237, 12.26807], [78.6222, 12.26819], [78.62039, 12.26939], [78.6186, 12.26746], [78.61851, 12.26736], [78.61533, 12.26389], [78.61134, 12.26279], [78.61053, 12.26305], [78.61011, 12.26318], [78.6075, 12.26399], [78.60538, 12.26741], [78.6051, 12.27237], [78.60566, 12.27389], [78.60642, 12.27597], [78.60768, 12.27937], [78.6087, 12.28216], [78.60898, 12.2829], [78.60928, 12.28371], [78.60935, 12.28392], [78.61046, 12.28563], [78.61113, 12.28666], [78.61139, 12.28705], [78.61178, 12.28765], [78.61234, 12.28852], [78.61294, 12.28944], [78.61299, 12.28956], [78.61451, 12.29336], [78.61518, 12.29504], [78.61491, 12.29638], [78.61361, 12.29761], [78.61232, 12.29882], [78.6125, 12.30113], [78.61281, 12.30508], [78.61176, 12.30883], [78.61055, 12.3112], [78.60999, 12.3123], [78.60986, 12.31234], [78.60568, 12.31368], [78.60377, 12.31399], [78.60352, 12.31403], [78.6031, 12.3141], [78.60289, 12.31413], [78.60256, 12.31419], [78.60095, 12.31445], [78.60066, 12.3145], [78.60004, 12.31388], [78.59678, 12.31058], [78.59561, 12.30939], [78.5953, 12.30951], [78.59421, 12.30993], [78.59367, 12.31014], [78.59235, 12.31064], [78.59121, 12.31198], [78.59022, 12.31314], [78.59269, 12.31591], [78.59366, 12.31698], [78.59424, 12.31764], [78.59439, 12.3178], [78.59576, 12.32232], [78.59592, 12.32284], [78.59732, 12.32312], [78.59769, 12.32319], [78.59841, 12.32334], [78.60086, 12.32384], [78.60149, 12.32397], [78.60167, 12.3243], [78.60413, 12.32876], [78.60559, 12.33011], [78.60811, 12.33245], [78.61055, 12.3311], [78.61269, 12.32991], [78.61294, 12.33033], [78.61326, 12.33087], [78.6143, 12.33264], [78.61586, 12.33529], [78.61593, 12.33542], [78.61773, 12.33846], [78.61732, 12.34104], [78.61709, 12.3425], [78.61733, 12.34322], [78.61861, 12.34713], [78.61749, 12.34826], [78.61666, 12.3491], [78.61582, 12.34994], [78.61461, 12.35116], [78.61365, 12.35214], [78.60256, 12.35529], [78.60185, 12.35549], [78.59997, 12.35602], [78.59834, 12.35648], [78.59766, 12.35668], [78.59557, 12.35727], [78.59278, 12.35806], [78.59177, 12.35873], [78.59124, 12.35908], [78.5902, 12.35977], [78.58989, 12.35997], [78.58704, 12.36186], [78.5835, 12.36422], [78.58065, 12.36765], [78.57993, 12.36852], [78.57871, 12.36998], [78.57595, 12.3733], [78.5751, 12.37433], [78.57441, 12.37598], [78.57328, 12.3781], [78.57296, 12.37876], [78.57217, 12.38039], [78.5715, 12.38176], [78.5714, 12.38196], [78.57113, 12.38373], [78.5707, 12.38651], [78.56935, 12.38723], [78.56792, 12.38799], [78.56633, 12.38841], [78.56315, 12.38926], [78.55754, 12.39077], [78.5561, 12.39159], [78.55584, 12.39174], [78.55007, 12.39505], [78.54551, 12.39766], [78.54384, 12.39745], [78.54095, 12.39709], [78.5388, 12.39749], [78.53634, 12.39795], [78.52905, 12.39994], [78.52818, 12.4004], [78.52568, 12.4017], [78.52337, 12.4029], [78.52067, 12.4043], [78.51648, 12.40557], [78.51319, 12.40135], [78.51277, 12.40111], [78.5092, 12.4004], [78.50751, 12.40017], [78.50589, 12.40292], [78.50554, 12.40351], [78.50542, 12.40371], [78.5052, 12.40409], [78.50505, 12.40434], [78.50494, 12.40453], [78.50304, 12.40775], [78.50298, 12.40778], [78.50244, 12.40805], [78.50186, 12.40833], [78.50179, 12.40837], [78.49957, 12.40948], [78.4977, 12.41041], [78.49718, 12.40974], [78.49513, 12.40711], [78.49481, 12.40669], [78.49366, 12.40521], [78.49341, 12.4049], [78.49315, 12.40328], [78.49254, 12.39957], [78.49212, 12.39702], [78.49151, 12.39331], [78.49148, 12.39309], [78.49143, 12.39277], [78.4906, 12.38774], [78.48887, 12.38844], [78.48367, 12.39054], [78.48189, 12.39054], [78.47878, 12.39086], [78.47671, 12.39099], [78.46822, 12.39154], [78.46749, 12.39159], [78.46718, 12.39162], [78.46567, 12.39121], [78.46495, 12.39102], [78.46297, 12.38724], [78.46025, 12.38515], [78.45769, 12.38604], [78.45352, 12.38749], [78.45288, 12.38771], [78.44819, 12.38934], [78.44411, 12.39076], [78.44031, 12.39059], [78.43854, 12.39246], [78.43805, 12.39298], [78.4369, 12.39419], [78.43697, 12.39632], [78.43701, 12.39736], [78.43938, 12.39956], [78.44038, 12.40049], [78.44104, 12.40111], [78.44127, 12.40132], [78.44136, 12.40197], [78.44142, 12.40246], [78.44153, 12.40326], [78.44163, 12.40401], [78.44211, 12.40769], [78.44411, 12.41021], [78.4476, 12.41461], [78.45058, 12.41837], [78.45067, 12.41854], [78.45097, 12.41888], [78.45123, 12.41918], [78.45137, 12.41955], [78.45334, 12.42478], [78.45341, 12.42497], [78.45505, 12.42932], [78.45535, 12.43011], [78.45381, 12.43301], [78.45293, 12.43467], [78.45081, 12.43866], [78.44942, 12.44127], [78.45144, 12.45061], [78.4509, 12.45091], [78.4501, 12.45134], [78.44968, 12.45154], [78.44681, 12.45318], [78.44567, 12.45407], [78.44259, 12.45649], [78.44137, 12.45744], [78.43878, 12.45947], [78.43675, 12.46106], [78.43431, 12.46273], [78.43343, 12.46414], [78.43294, 12.46492], [78.43241, 12.46577], [78.43, 12.46961], [78.42806, 12.4727], [78.42803, 12.47316], [78.42778, 12.47369], [78.42742, 12.47405], [78.42688, 12.47407], [78.42633, 12.47398], [78.42459, 12.47407], [78.42447, 12.47412], [78.42153, 12.47533], [78.42141, 12.47616], [78.42119, 12.47687], [78.42097, 12.47819], [78.42089, 12.47992], [78.42097, 12.48157], [78.42139, 12.48254], [78.42105, 12.48296], [78.42073, 12.48341], [78.41998, 12.48427], [78.41896, 12.4868], [78.41852, 12.4882], [78.41845, 12.48967], [78.41812, 12.49159], [78.4178, 12.49364], [78.41766, 12.49559], [78.41778, 12.4962], [78.41798, 12.49716], [78.41848, 12.49956], [78.41852, 12.49976], [78.42054, 12.50964], [78.42092, 12.51148], [78.42104, 12.51205], [78.42048, 12.51282], [78.41986, 12.51368], [78.41898, 12.51489], [78.41719, 12.51626], [78.41631, 12.51693], [78.41822, 12.52504], [78.41827, 12.52537], [78.41533, 12.52723], [78.41777, 12.53927], [78.41788, 12.54171], [78.41789, 12.54185], [78.41828, 12.55041], [78.41838, 12.55114], [78.41849, 12.55184], [78.41857, 12.55244], [78.41928, 12.5573], [78.41972, 12.56028], [78.42066, 12.56675], [78.42099, 12.56899], [78.41837, 12.57423], [78.4136, 12.58376], [78.41281, 12.58565], [78.41129, 12.58837], [78.41102, 12.59649], [78.411, 12.59721], [78.41092, 12.59957], [78.41007, 12.60047], [78.40838, 12.60225], [78.4094, 12.60548], [78.41034, 12.60844], [78.41037, 12.61142], [78.41038, 12.61205], [78.40967, 12.61483], [78.40856, 12.61922], [78.40843, 12.61972], [78.40967, 12.62528], [78.39826, 12.62554], [78.39527, 12.62534], [78.3863, 12.62472], [78.38043, 12.62347], [78.37737, 12.62475], [78.37591, 12.62536], [78.37263, 12.62673], [78.36708, 12.63058], [78.36038, 12.63522], [78.35082, 12.64345], [78.34136, 12.64994], [78.33432, 12.64871], [78.33062, 12.65216], [78.32397, 12.65836], [78.32284, 12.65944], [78.32067, 12.66147], [78.30683, 12.66567], [78.30678, 12.66565], [78.30231, 12.66433], [78.30072, 12.66798], [78.29886, 12.66956], [78.296, 12.67901], [78.27897, 12.69876], [78.27616, 12.70317], [78.25514, 12.70357], [78.25074, 12.70366], [78.2495, 12.70392], [78.24872, 12.70408], [78.2478, 12.70427], [78.24531, 12.70479], [78.24432, 12.705], [78.24229, 12.70325], [78.2391, 12.70053], [78.23869, 12.69552], [78.23834, 12.69139], [78.23978, 12.68512], [78.22828, 12.68582], [78.22425, 12.68607], [78.2197, 12.68635], [78.21357, 12.68673], [78.21174, 12.68684], [78.20694, 12.69115], [78.20145, 12.69248], [78.20111, 12.69447], [78.20107, 12.69473], [78.20454, 12.69666], [78.21039, 12.6999], [78.21094, 12.70116], [78.21008, 12.70214], [78.20906, 12.70331], [78.20631, 12.70644], [78.20767, 12.70786], [78.21064, 12.70752], [78.21159, 12.70741], [78.21259, 12.70826], [78.21486, 12.71019], [78.21763, 12.7103], [78.22142, 12.71045], [78.22544, 12.71356], [78.22667, 12.71374], [78.22721, 12.71382], [78.2292, 12.71411], [78.23196, 12.71451], [78.23352, 12.71719], [78.23885, 12.72638], [78.23988, 12.72954], [78.24049, 12.73141], [78.23758, 12.73948], [78.23173, 12.75569], [78.23082, 12.7582], [78.23114, 12.7595], [78.23218, 12.76375]]]}}