{"type": "Feature", "properties": {"shapeName": "Kallakurichi", "shapeISO": "", "shapeID": "76128533B19545859035458", "shapeGroup": "IND", "shapeType": "ADM2"}, "geometry": {"type": "Polygon", "coordinates": [[[78.71878, 11.98073], [78.71857, 11.98006], [78.71681, 11.97635], [78.71631, 11.9755], [78.71346, 11.96634], [78.71187, 11.96122], [78.71224, 11.9565], [78.71233, 11.95542], [78.71237, 11.9549], [78.7125, 11.95328], [78.71262, 11.95181], [78.71269, 11.95093], [78.7129, 11.94828], [78.71291, 11.94814], [78.71294, 11.94783], [78.71301, 11.94684], [78.70923, 11.94526], [78.70749, 11.94454], [78.70754, 11.94387], [78.70776, 11.94086], [78.707, 11.93847], [78.70588, 11.93493], [78.71293, 11.92681], [78.71354, 11.92705], [78.71365, 11.92709], [78.7154, 11.92779], [78.72098, 11.92194], [78.72199, 11.92056], [78.72216, 11.92032], [78.72247, 11.9199], [78.72473, 11.91681], [78.72494, 11.91652], [78.72337, 11.91404], [78.7226, 11.91283], [78.71918, 11.90947], [78.71914, 11.90943], [78.71838, 11.90868], [78.71549, 11.90585], [78.71342, 11.90398], [78.71312, 11.90334], [78.70992, 11.89882], [78.7091, 11.89766], [78.70876, 11.89673], [78.70803, 11.89473], [78.70687, 11.89156], [78.70435, 11.89075], [78.70306, 11.89071], [78.69889, 11.89056], [78.69614, 11.89046], [78.69515, 11.89074], [78.69452, 11.89091], [78.69351, 11.8912], [78.69045, 11.89459], [78.68874, 11.8991], [78.68606, 11.89855], [78.68512, 11.89836], [78.68288, 11.8979], [78.68169, 11.89725], [78.68011, 11.89639], [78.6788, 11.89567], [78.67774, 11.89509], [78.67585, 11.89406], [78.67385, 11.89297], [78.6718, 11.89186], [78.67115, 11.89185], [78.66936, 11.89183], [78.66839, 11.89183], [78.66722, 11.89183], [78.6662, 11.8918], [78.66382, 11.89084], [78.66022, 11.88946], [78.65992, 11.88928], [78.65935, 11.88866], [78.65836, 11.88756], [78.6582, 11.88739], [78.65729, 11.88638], [78.65645, 11.88545], [78.65604, 11.88229], [78.65576, 11.88007], [78.65247, 11.88075], [78.6478, 11.88171], [78.64508, 11.88227], [78.64387, 11.88252], [78.6419, 11.88293], [78.63687, 11.88498], [78.63455, 11.88239], [78.63538, 11.88011], [78.63697, 11.87573], [78.63643, 11.87375], [78.63608, 11.87248], [78.63516, 11.87142], [78.63357, 11.86959], [78.6298, 11.86826], [78.62904, 11.86712], [78.62747, 11.86472], [78.63158, 11.86277], [78.63341, 11.8619], [78.63651, 11.86184], [78.63666, 11.86184], [78.63756, 11.86182], [78.6407, 11.86176], [78.64281, 11.86172], [78.64453, 11.86169], [78.6467, 11.86199], [78.65029, 11.86248], [78.65178, 11.86269], [78.65319, 11.86201], [78.6551, 11.86109], [78.65626, 11.86054], [78.65882, 11.85932], [78.65915, 11.85916], [78.65955, 11.85757], [78.65969, 11.85699], [78.65987, 11.85626], [78.65995, 11.85593], [78.6605, 11.85373], [78.66823, 11.85393], [78.67164, 11.85402], [78.67285, 11.85405], [78.67513, 11.85411], [78.6756, 11.85412], [78.68212, 11.85382], [78.68551, 11.85367], [78.68701, 11.85361], [78.69095, 11.84938], [78.69524, 11.84672], [78.695, 11.84363], [78.6945, 11.83707], [78.69444, 11.8364], [78.69366, 11.8316], [78.69292, 11.82707], [78.69122, 11.81661], [78.69131, 11.81589], [78.69155, 11.81391], [78.69156, 11.81366], [78.69208, 11.80949], [78.69225, 11.80796], [78.69226, 11.80791], [78.69161, 11.80444], [78.6913, 11.80275], [78.69115, 11.80194], [78.69075, 11.79979], [78.68988, 11.79967], [78.67488, 11.79753], [78.67375, 11.79737], [78.66938, 11.79522], [78.66904, 11.79483], [78.66691, 11.79239], [78.6668, 11.79227], [78.66668, 11.79213], [78.66622, 11.79161], [78.66403, 11.78735], [78.66393, 11.78108], [78.66392, 11.78033], [78.66386, 11.7769], [78.66198, 11.77576], [78.66045, 11.77484], [78.65694, 11.77273], [78.65183, 11.76967], [78.65135, 11.76927], [78.64899, 11.76731], [78.6482, 11.76666], [78.64578, 11.76465], [78.64159, 11.76116], [78.64151, 11.7611], [78.64158, 11.76087], [78.64254, 11.75751], [78.64258, 11.75738], [78.64261, 11.75728], [78.64296, 11.75606], [78.64326, 11.755], [78.64336, 11.75464], [78.64347, 11.75425], [78.64398, 11.7525], [78.64404, 11.75228], [78.64429, 11.75138], [78.64439, 11.75104], [78.64434, 11.75086], [78.64389, 11.74923], [78.64375, 11.74872], [78.64329, 11.74704], [78.64315, 11.74651], [78.64287, 11.7455], [78.64266, 11.74503], [78.64243, 11.74451], [78.64119, 11.74175], [78.64103, 11.74141], [78.64028, 11.73981], [78.64028, 11.73971], [78.64027, 11.73957], [78.63939, 11.73771], [78.63929, 11.73412], [78.63926, 11.73304], [78.63891, 11.72041], [78.6389, 11.72029], [78.63888, 11.71963], [78.63887, 11.71923], [78.64253, 11.71738], [78.6434, 11.71694], [78.64349, 11.7169], [78.64587, 11.7157], [78.64694, 11.71515], [78.64705, 11.7151], [78.64845, 11.71439], [78.65182, 11.71325], [78.65335, 11.71274], [78.65324, 11.71021], [78.65321, 11.70947], [78.65317, 11.70864], [78.65228, 11.68962], [78.65104, 11.68075], [78.65152, 11.66471], [78.64786, 11.65686], [78.65512, 11.65902], [78.65848, 11.65842], [78.66098, 11.65798], [78.66073, 11.64999], [78.66059, 11.64536], [78.67541, 11.64093], [78.67936, 11.6409], [78.68012, 11.64176], [78.68086, 11.6426], [78.67905, 11.65624], [78.67904, 11.66113], [78.67966, 11.66158], [78.68342, 11.66437], [78.67965, 11.6647], [78.67836, 11.66482], [78.67814, 11.66789], [78.67934, 11.67283], [78.67976, 11.67399], [78.6803, 11.67547], [78.68001, 11.67589], [78.68108, 11.67762], [78.68386, 11.68012], [78.68807, 11.68261], [78.69034, 11.68395], [78.69054, 11.68415], [78.6907, 11.68421], [78.69511, 11.68578], [78.69697, 11.6861], [78.70071, 11.68725], [78.70783, 11.68696], [78.70896, 11.68624], [78.71205, 11.68426], [78.71514, 11.68211], [78.71558, 11.68181], [78.71936, 11.68191], [78.7226, 11.68347], [78.72584, 11.68505], [78.7267, 11.68499], [78.73044, 11.68473], [78.73457, 11.68691], [78.73586, 11.68738], [78.73823, 11.68781], [78.74338, 11.68874], [78.74694, 11.68893], [78.75724, 11.6908], [78.76142, 11.69042], [78.76605, 11.69182], [78.7739, 11.697], [78.78188, 11.69965], [78.78235, 11.69981], [78.78265, 11.69962], [78.78281, 11.69953], [78.7829, 11.69945], [78.78375, 11.69889], [78.78637, 11.69715], [78.79418, 11.68992], [78.80132, 11.68835], [78.80273, 11.68746], [78.80291, 11.68735], [78.80449, 11.68636], [78.80482, 11.68615], [78.80491, 11.67935], [78.80494, 11.67717], [78.80506, 11.6701], [78.80603, 11.66384], [78.80616, 11.66138], [78.80578, 11.66051], [78.80444, 11.65829], [78.80415, 11.65803], [78.80185, 11.65669], [78.79708, 11.65513], [78.79599, 11.65216], [78.78556, 11.64635], [78.78003, 11.64106], [78.77875, 11.63912], [78.78816, 11.63919], [78.78749, 11.63482], [78.78747, 11.63427], [78.7881, 11.63242], [78.79003, 11.62681], [78.78951, 11.62279], [78.78925, 11.62077], [78.78915, 11.61635], [78.78893, 11.61572], [78.78799, 11.61296], [78.78772, 11.61219], [78.78708, 11.61226], [78.78544, 11.61243], [78.78323, 11.61266], [78.78279, 11.6127], [78.78257, 11.61251], [78.78112, 11.6112], [78.77916, 11.60944], [78.77918, 11.60901], [78.77929, 11.60859], [78.77975, 11.60568], [78.77982, 11.60521], [78.77985, 11.60499], [78.77988, 11.60478], [78.78204, 11.60339], [78.78373, 11.6023], [78.7846, 11.60174], [78.78846, 11.59925], [78.78882, 11.59902], [78.78936, 11.59868], [78.78972, 11.59845], [78.79067, 11.59783], [78.79134, 11.59783], [78.79149, 11.59783], [78.79524, 11.59769], [78.79505, 11.59569], [78.79501, 11.59529], [78.79835, 11.59482], [78.80356, 11.59295], [78.80383, 11.59282], [78.8041, 11.5927], [78.80422, 11.59258], [78.80437, 11.59244], [78.80618, 11.59158], [78.80672, 11.59136], [78.80809, 11.5906], [78.80916, 11.59037], [78.81149, 11.58986], [78.81408, 11.58985], [78.81505, 11.58965], [78.81711, 11.58805], [78.822, 11.58508], [78.82209, 11.58488], [78.82383, 11.58108], [78.82635, 11.57936], [78.825, 11.57461], [78.82487, 11.57441], [78.82481, 11.57382], [78.82476, 11.56978], [78.82414, 11.56747], [78.82216, 11.56267], [78.81931, 11.56126], [78.81806, 11.55956], [78.81721, 11.55732], [78.81714, 11.55639], [78.81711, 11.55598], [78.81689, 11.55293], [78.81681, 11.55189], [78.8168, 11.55168], [78.81661, 11.54905], [78.81645, 11.54689], [78.81684, 11.54562], [78.8186, 11.54454], [78.82072, 11.54325], [78.822, 11.54247], [78.82398, 11.54265], [78.82508, 11.54275], [78.82772, 11.54299], [78.83197, 11.54187], [78.832, 11.54186], [78.83436, 11.54053], [78.83631, 11.53943], [78.83632, 11.53787], [78.83635, 11.53581], [78.83637, 11.53442], [78.8364, 11.53205], [78.83644, 11.52667], [78.8375, 11.52554], [78.83883, 11.52412], [78.8394, 11.52351], [78.84179, 11.52244], [78.84192, 11.52238], [78.8454, 11.5208], [78.84885, 11.52011], [78.85113, 11.51965], [78.85374, 11.52028], [78.85485, 11.52053], [78.8565, 11.52042], [78.85934, 11.52023], [78.86201, 11.51909], [78.86286, 11.51873], [78.86308, 11.51859], [78.864, 11.51804], [78.86815, 11.51551], [78.86941, 11.51507], [78.86968, 11.51501], [78.86999, 11.51487], [78.87099, 11.51453], [78.87205, 11.51417], [78.87219, 11.51411], [78.87228, 11.51369], [78.87229, 11.51301], [78.87226, 11.51265], [78.87224, 11.51227], [78.87227, 11.51192], [78.87238, 11.51144], [78.87265, 11.51091], [78.87294, 11.51041], [78.87329, 11.50874], [78.87628, 11.5062], [78.87749, 11.50607], [78.87933, 11.50589], [78.88006, 11.50583], [78.88013, 11.50582], [78.8865, 11.50529], [78.88674, 11.50523], [78.88758, 11.50515], [78.89778, 11.50423], [78.9056, 11.50353], [78.90624, 11.5057], [78.90811, 11.51202], [78.90854, 11.51346], [78.91183, 11.52038], [78.91348, 11.52386], [78.91461, 11.5247], [78.91522, 11.52515], [78.91693, 11.52641], [78.91761, 11.52827], [78.91776, 11.52866], [78.91797, 11.52923], [78.91814, 11.5297], [78.91836, 11.5303], [78.91804, 11.53053], [78.91524, 11.53253], [78.91531, 11.53276], [78.91542, 11.53313], [78.91593, 11.53484], [78.91622, 11.5358], [78.91637, 11.53627], [78.91653, 11.53681], [78.91766, 11.54056], [78.91859, 11.54362], [78.91894, 11.54479], [78.91934, 11.54611], [78.91942, 11.54637], [78.91976, 11.5475], [78.91995, 11.54814], [78.92123, 11.55383], [78.92193, 11.55693], [78.92734, 11.56211], [78.92769, 11.56365], [78.92833, 11.56369], [78.93079, 11.56625], [78.9329, 11.56602], [78.93618, 11.56566], [78.93666, 11.56593], [78.93773, 11.56653], [78.93876, 11.56712], [78.94438, 11.57017], [78.94559, 11.57097], [78.95003, 11.5718], [78.95891, 11.572], [78.9601, 11.57203], [78.96255, 11.57208], [78.96325, 11.57135], [78.97005, 11.56428], [78.97036, 11.56396], [78.97205, 11.56383], [78.97346, 11.56316], [78.97672, 11.56113], [78.97773, 11.56031], [78.97806, 11.56004], [78.98102, 11.55931], [78.98282, 11.5596], [78.98354, 11.55972], [78.98523, 11.55993], [78.98782, 11.56028], [78.98879, 11.56076], [78.98984, 11.56128], [78.99148, 11.56197], [78.99247, 11.56272], [78.99284, 11.563], [78.99374, 11.56368], [78.99503, 11.56449], [78.99672, 11.56574], [78.99972, 11.56624], [78.9999, 11.56627], [79.00182, 11.56639], [79.00427, 11.56674], [79.00534, 11.5669], [79.0055, 11.56692], [79.00608, 11.56754], [79.00698, 11.56795], [79.00761, 11.5691], [79.00773, 11.56926], [79.00899, 11.57088], [79.01003, 11.57269], [79.01085, 11.57347], [79.01135, 11.57395], [79.01297, 11.57496], [79.01408, 11.57616], [79.01519, 11.57776], [79.01645, 11.57983], [79.01692, 11.58091], [79.01721, 11.58164], [79.01556, 11.58444], [79.01587, 11.58522], [79.01607, 11.58571], [79.01628, 11.58622], [79.01694, 11.5879], [79.01735, 11.58892], [79.01739, 11.58902], [79.01746, 11.58919], [79.01808, 11.59073], [79.01835, 11.59142], [79.01888, 11.59275], [79.02224, 11.59105], [79.02418, 11.59109], [79.02694, 11.59115], [79.03141, 11.59169], [79.03297, 11.59186], [79.03432, 11.592], [79.03777, 11.59238], [79.04062, 11.59245], [79.043, 11.59231], [79.04488, 11.59225], [79.04539, 11.59226], [79.04607, 11.59227], [79.04803, 11.59254], [79.04785, 11.59227], [79.04746, 11.59171], [79.04663, 11.59054], [79.04596, 11.5896], [79.04963, 11.58746], [79.05089, 11.58734], [79.05152, 11.58727], [79.05184, 11.58724], [79.05275, 11.58715], [79.05368, 11.58706], [79.05558, 11.58687], [79.05723, 11.58831], [79.05763, 11.58866], [79.05838, 11.58931], [79.05849, 11.58941], [79.05875, 11.59026], [79.05894, 11.59087], [79.05907, 11.5913], [79.05929, 11.59203], [79.06244, 11.59278], [79.0626, 11.59282], [79.06549, 11.5935], [79.06662, 11.59377], [79.06751, 11.59398], [79.06822, 11.59714], [79.074, 11.59827], [79.07446, 11.59849], [79.07552, 11.59872], [79.07576, 11.59871], [79.07739, 11.59864], [79.07899, 11.59856], [79.07898, 11.59958], [79.07892, 11.60299], [79.07888, 11.60576], [79.07886, 11.60696], [79.07884, 11.60802], [79.07499, 11.60863], [79.07464, 11.6089], [79.07425, 11.60921], [79.07395, 11.60944], [79.07224, 11.61077], [79.07219, 11.61235], [79.07214, 11.61415], [79.07213, 11.61435], [79.07212, 11.61466], [79.072, 11.61852], [79.07186, 11.61926], [79.07164, 11.62037], [79.07151, 11.62101], [79.07379, 11.62141], [79.07874, 11.62209], [79.08008, 11.62228], [79.08306, 11.6226], [79.08509, 11.62308], [79.08616, 11.62373], [79.08699, 11.624], [79.08725, 11.62409], [79.0878, 11.62427], [79.08794, 11.62432], [79.08798, 11.62433], [79.09099, 11.6248], [79.09307, 11.62599], [79.09401, 11.62517], [79.09485, 11.62444], [79.09583, 11.62357], [79.0974, 11.6222], [79.09824, 11.62085], [79.09828, 11.62078], [79.09903, 11.61959], [79.10184, 11.6151], [79.10229, 11.61439], [79.10414, 11.61309], [79.10459, 11.61278], [79.10544, 11.61373], [79.10613, 11.6145], [79.10761, 11.61489], [79.10896, 11.61524], [79.11092, 11.61505], [79.11263, 11.61489], [79.11518, 11.61465], [79.11693, 11.61277], [79.11699, 11.61168], [79.11724, 11.60727], [79.11802, 11.60722], [79.1209, 11.60702], [79.11946, 11.60346], [79.11918, 11.60278], [79.11892, 11.60213], [79.11775, 11.59925], [79.11899, 11.59945], [79.12505, 11.60038], [79.12781, 11.59751], [79.13171, 11.5973], [79.1323, 11.59727], [79.13668, 11.59216], [79.13699, 11.5918], [79.13743, 11.59154], [79.14103, 11.58939], [79.1467, 11.58934], [79.14869, 11.5906], [79.14943, 11.59106], [79.1502, 11.59295], [79.15042, 11.5935], [79.15125, 11.5945], [79.15198, 11.59537], [79.15459, 11.59849], [79.15885, 11.59764], [79.15904, 11.5976], [79.16402, 11.59659], [79.16414, 11.59657], [79.16429, 11.59656], [79.16969, 11.59372], [79.17087, 11.59311], [79.17099, 11.59304], [79.1735, 11.59174], [79.1746, 11.59117], [79.17484, 11.59105], [79.17742, 11.58971], [79.17997, 11.58839], [79.18065, 11.58817], [79.18093, 11.5881], [79.18259, 11.58755], [79.18341, 11.58775], [79.18535, 11.58764], [79.1869, 11.58851], [79.19057, 11.59224], [79.19194, 11.59363], [79.19261, 11.59432], [79.19428, 11.59601], [79.19437, 11.59847], [79.19437, 11.59861], [79.19439, 11.59907], [79.1944, 11.59936], [79.19452, 11.6025], [79.19595, 11.60477], [79.20077, 11.61245], [79.20297, 11.61231], [79.20336, 11.61228], [79.20389, 11.61224], [79.20452, 11.6122], [79.20459, 11.61295], [79.20467, 11.61364], [79.20486, 11.61554], [79.21087, 11.61942], [79.21106, 11.61954], [79.21131, 11.61989], [79.21296, 11.62225], [79.21281, 11.62302], [79.21268, 11.62367], [79.21183, 11.62786], [79.21165, 11.62876], [79.21166, 11.63088], [79.21168, 11.63281], [79.21168, 11.63436], [79.21168, 11.63453], [79.2117, 11.63532], [79.21251, 11.63594], [79.21725, 11.63958], [79.21842, 11.63961], [79.21897, 11.63958], [79.2192, 11.63958], [79.22015, 11.63964], [79.22057, 11.63965], [79.2211, 11.63966], [79.2231, 11.6397], [79.22344, 11.6386], [79.22365, 11.63792], [79.22381, 11.6374], [79.22397, 11.63688], [79.22412, 11.6364], [79.22441, 11.63547], [79.22574, 11.63395], [79.22662, 11.63293], [79.22698, 11.63251], [79.22716, 11.63242], [79.22728, 11.63237], [79.23022, 11.63097], [79.23069, 11.63082], [79.23081, 11.63069], [79.23092, 11.63058], [79.23184, 11.6302], [79.23633, 11.6286], [79.23732, 11.63217], [79.2392, 11.63895], [79.23927, 11.63919], [79.23935, 11.63949], [79.23949, 11.64001], [79.23961, 11.64046], [79.23969, 11.64075], [79.23983, 11.64124], [79.24431, 11.64423], [79.24497, 11.64467], [79.24641, 11.64563], [79.2471, 11.64609], [79.24768, 11.64648], [79.24949, 11.64769], [79.24998, 11.64988], [79.25029, 11.6513], [79.25196, 11.65161], [79.25376, 11.65195], [79.25871, 11.6508], [79.26149, 11.64954], [79.26273, 11.64898], [79.26384, 11.64848], [79.26648, 11.64677], [79.26661, 11.64669], [79.27201, 11.64321], [79.27199, 11.64681], [79.27295, 11.64699], [79.27325, 11.64705], [79.275, 11.64737], [79.27634, 11.64716], [79.27875, 11.64678], [79.27886, 11.64677], [79.27921, 11.64671], [79.27949, 11.64667], [79.27999, 11.64681], [79.2804, 11.64698], [79.28122, 11.6473], [79.28151, 11.64741], [79.28182, 11.64752], [79.28191, 11.64755], [79.28308, 11.64798], [79.28651, 11.64923], [79.29026, 11.64898], [79.29088, 11.64855], [79.29226, 11.6476], [79.29233, 11.64755], [79.29422, 11.64625], [79.29752, 11.64306], [79.29753, 11.64276], [79.29763, 11.63901], [79.29768, 11.63741], [79.29774, 11.63549], [79.31119, 11.6343], [79.31169, 11.63688], [79.31177, 11.63732], [79.31178, 11.63738], [79.31252, 11.64124], [79.31344, 11.64307], [79.31388, 11.64395], [79.31764, 11.64271], [79.31896, 11.64373], [79.31963, 11.64426], [79.32008, 11.64447], [79.32048, 11.64466], [79.32092, 11.64525], [79.32191, 11.64868], [79.32572, 11.64989], [79.32689, 11.65027], [79.32895, 11.65092], [79.32967, 11.65115], [79.33035, 11.65288], [79.33038, 11.65297], [79.33111, 11.65483], [79.33245, 11.65825], [79.3331, 11.65991], [79.33334, 11.66003], [79.33739, 11.66146], [79.3423, 11.66096], [79.34256, 11.66091], [79.34389, 11.66077], [79.34586, 11.65951], [79.34627, 11.65925], [79.35176, 11.65846], [79.35584, 11.65932], [79.35812, 11.6598], [79.36037, 11.66027], [79.36208, 11.66064], [79.36265, 11.66076], [79.36317, 11.66095], [79.36314, 11.66203], [79.36313, 11.66236], [79.36305, 11.66263], [79.36169, 11.66725], [79.36167, 11.67176], [79.38331, 11.67988], [79.38561, 11.67974], [79.38596, 11.67972], [79.38682, 11.67967], [79.38929, 11.67977], [79.3915, 11.67972], [79.39196, 11.67971], [79.39502, 11.67966], [79.39547, 11.67783], [79.39549, 11.67774], [79.39586, 11.67624], [79.40355, 11.6742], [79.40474, 11.67389], [79.40821, 11.67297], [79.41175, 11.67203], [79.41309, 11.67168], [79.41321, 11.67164], [79.41555, 11.67102], [79.41709, 11.67062], [79.41755, 11.6705], [79.42012, 11.66981], [79.42067, 11.66967], [79.42084, 11.66934], [79.42229, 11.66644], [79.42279, 11.66544], [79.42409, 11.66575], [79.42598, 11.6662], [79.4301, 11.66718], [79.4306, 11.66672], [79.43112, 11.66624], [79.43151, 11.66588], [79.43197, 11.66545], [79.433, 11.6645], [79.4332, 11.66431], [79.43366, 11.66388], [79.43386, 11.66396], [79.43437, 11.66425], [79.43715, 11.66586], [79.44007, 11.66641], [79.44376, 11.66556], [79.44547, 11.66517], [79.44484, 11.6694], [79.44476, 11.66995], [79.44397, 11.67526], [79.4439, 11.67876], [79.44389, 11.67917], [79.44387, 11.67984], [79.44382, 11.68239], [79.44376, 11.68499], [79.44374, 11.68599], [79.44336, 11.68749], [79.44291, 11.68929], [79.44235, 11.69148], [79.44227, 11.69155], [79.44075, 11.69287], [79.44004, 11.69349], [79.43962, 11.69386], [79.43922, 11.69421], [79.43895, 11.69444], [79.43637, 11.69921], [79.4359, 11.70399], [79.43726, 11.71258], [79.4375, 11.71409], [79.43724, 11.71635], [79.43722, 11.71655], [79.43655, 11.72229], [79.43196, 11.72832], [79.43165, 11.72872], [79.43087, 11.72974], [79.42956, 11.73146], [79.43213, 11.73316], [79.4334, 11.734], [79.43779, 11.73456], [79.43835, 11.73451], [79.43883, 11.73446], [79.43938, 11.73441], [79.44154, 11.73421], [79.44309, 11.73366], [79.44676, 11.73234], [79.45416, 11.73471], [79.45834, 11.73776], [79.45911, 11.73832], [79.46101, 11.7397], [79.46167, 11.74076], [79.4626, 11.74223], [79.46364, 11.74386], [79.46383, 11.74422], [79.46449, 11.74744], [79.46456, 11.74777], [79.46472, 11.74856], [79.46477, 11.74879], [79.4649, 11.74945], [79.46464, 11.75069], [79.46433, 11.75218], [79.46406, 11.75345], [79.46387, 11.75708], [79.46385, 11.75747], [79.46367, 11.76099], [79.46394, 11.76361], [79.46402, 11.76433], [79.4655, 11.76656], [79.46648, 11.76803], [79.4651, 11.76871], [79.46497, 11.76877], [79.46482, 11.76884], [79.46336, 11.76955], [79.45568, 11.76953], [79.45513, 11.76952], [79.45433, 11.76903], [79.45239, 11.7678], [79.45178, 11.76481], [79.45167, 11.76428], [79.4503, 11.76283], [79.44719, 11.76264], [79.4416, 11.76433], [79.44174, 11.76465], [79.44249, 11.76633], [79.44308, 11.76767], [79.44332, 11.76822], [79.44256, 11.77298], [79.44232, 11.77446], [79.44216, 11.77547], [79.4421, 11.77583], [79.44085, 11.78364], [79.43647, 11.781168], [79.433517, 11.781729], [79.43264501300007, 11.78655679800005], [79.43083495100007, 11.788899473000072], [79.42902210800008, 11.790983874000062], [79.42614290100005, 11.791400031000023], [79.42498942700007, 11.793865259000029], [79.42342354300007, 11.794526580000024], [79.42157634100005, 11.793382683000061], [79.42128681300005, 11.790802694000035], [79.41979174200003, 11.785780973000044], [79.41931660300008, 11.783560908000027], [79.41924013000005, 11.783203589000038], [79.41688658700008, 11.78374356200004], [79.41493912400006, 11.78437092200005], [79.41440471000004, 11.784543077000023], [79.41363339700007, 11.785971313000061], [79.41391874300007, 11.788163920000045], [79.41401187100007, 11.78827622700004], [79.41604303700007, 11.790725695000049], [79.41751069700007, 11.793164838000052], [79.41781798200003, 11.797423518000073], [79.41756817100008, 11.798588292000034], [79.41692926900004, 11.800144362000026], [79.41497149800006, 11.800938669000061], [79.41447929700007, 11.800987688000077], [79.41353114500004, 11.801082111000028], [79.41183002500003, 11.801357274000054], [79.41065862500005, 11.802143749000038], [79.40923327100006, 11.803707595000049], [79.40687679400008, 11.803989219000073], [79.40512507000005, 11.801550299000041], [79.40448217600004, 11.800655187000075], [79.40353612700005, 11.797952532000068], [79.40346546200004, 11.797921248000023], [79.40182413100007, 11.797194594000075], [79.39966972000008, 11.796510695000052], [79.39945682900003, 11.796443113000066], [79.39761922600007, 11.796202961000063], [79.39539793900008, 11.796870580000075], [79.39343876800007, 11.79753560000006], [79.39330913100008, 11.798014526000031], [79.39280786000006, 11.799866391000023], [79.39261640800004, 11.801075053000034], [79.39256200200003, 11.801418530000035], [79.38797875700004, 11.801851044000045], [79.38445214000006, 11.803047970000023], [79.38264152600004, 11.805390310000064], [79.38134975300005, 11.807210979000047], [79.38137406300007, 11.809535315000062], [79.38060384500005, 11.811092580000036], [79.37759191200007, 11.811380366000037], [79.37669598700006, 11.813455421000072], [79.37301923500007, 11.812845658000072], [79.37092612100008, 11.813253531000043], [79.36963557300004, 11.81520327100003], [79.36964788700004, 11.815247898000052], [79.37045295100006, 11.818165578000048], [79.37035040900008, 11.818699063000054], [79.37007990400008, 11.820106361000057], [79.37011084200003, 11.823076342000036], [79.37079582700005, 11.825910796000073], [79.37187013000005, 11.827373217000059], [79.37197899500006, 11.827125115000058], [79.37236457200004, 11.827197168000055], [79.37121131900005, 11.829124850000028], [79.37120182200005, 11.83109425300006], [79.37018740400003, 11.831340195000053], [79.36596677700004, 11.832336517000044], [79.36293221100004, 11.832770636000078], [79.35979950700005, 11.833218756000065], [79.35561983600007, 11.832601573000034], [79.35209592800004, 11.830826863000027], [79.34885006600007, 11.830527836000044], [79.34725036200007, 11.830380447000039], [79.34325463600004, 11.831405732000064], [79.33876321500009, 11.832929068000055], [79.33664218100006, 11.832468408000068], [79.33658825400005, 11.832456696000065], [79.33099906100006, 11.82461717600006], [79.32596820100008, 11.822363276000033], [79.32553611300006, 11.82243849200006], [79.32296891200008, 11.822885365000047], [79.32098283100004, 11.824548827000058], [79.31991269900004, 11.824208806000058], [79.31796838800005, 11.823591012000065], [79.31481725700007, 11.825594454000054], [79.31332009900007, 11.826102081000045], [79.31181455500007, 11.825787562000073], [79.30881854200004, 11.826638346000038], [79.30749998900006, 11.828295342000047], [79.30634498600006, 11.82962188700003], [79.30366268900008, 11.828496305000044], [79.30165139800005, 11.827693208000028], [79.30015586900004, 11.828365187000031], [79.29969486100003, 11.828564563000043], [79.29599701900008, 11.830163738000067], [79.29475378300003, 11.830701390000058], [79.29347448900006, 11.831173490000026], [79.29281836500007, 11.83554952000003], [79.29155416200007, 11.837516404000041], [79.28690486400006, 11.839515277000032], [79.28472371100008, 11.841289475000053], [79.28447332000007, 11.84149314900003], [79.28230616900004, 11.842888716000061], [79.28157366500005, 11.843360414000074], [79.28068384800008, 11.847738606000064], [79.27918371400006, 11.849477658000069], [79.27905734500007, 11.849581536000073], [79.27556947200003, 11.845091462000028], [79.27283366400007, 11.843040722000069], [79.26690737800004, 11.841169950000051], [79.26472635100004, 11.843163180000033], [79.26188228400008, 11.846439347000057], [79.26229859400007, 11.848334992000048], [79.26217627400007, 11.848543086000063], [79.26117061600007, 11.850253921000046], [79.25710778100006, 11.849744560000033], [79.25400108800005, 11.848650176000035], [79.25013434200008, 11.848327951000044], [79.24972415300005, 11.848483153000075], [79.24437639400008, 11.850506561000032], [79.23961361700003, 11.854572037000025], [79.23907597600004, 11.855027322000069], [79.23732719100008, 11.856508223000048], [79.23879275000007, 11.86371353100003], [79.23864480700007, 11.86656861800003], [79.24196878000004, 11.869181458000071], [79.24452662900006, 11.872186141000043], [79.24719113700007, 11.873851], [79.25405709900008, 11.879550971000072], [79.25516132900003, 11.879910378000034], [79.25574259900003, 11.882748527000047], [79.25656706500007, 11.882710646000021], [79.25661987800004, 11.882708219000051], [79.25636086600008, 11.879448026000034], [79.25692848400007, 11.878934553000022], [79.25840287000005, 11.877260367000076], [79.25898592600004, 11.877216029000067], [79.25951623800006, 11.87752288200005], [79.26070596600005, 11.878219429000069], [79.26156740700003, 11.878316343000051], [79.26241266900007, 11.879223635000074], [79.26199783600003, 11.879364699000064], [79.26198861200004, 11.87995660300004], [79.27255321700005, 11.876202039000077], [79.27375085500006, 11.87581913400004], [79.27633999700004, 11.875597576000075], [79.27851661600005, 11.87273742900004], [79.28106306500007, 11.882917210000073], [79.28297226000007, 11.885407764000036], [79.28549338800008, 11.889245669000047], [79.28649430200005, 11.892460867000068], [79.28663433400004, 11.892910681000046], [79.28661957500003, 11.896038916000066], [79.28661193100004, 11.897659263000037], [79.28857713000008, 11.903637435000064], [79.28933516200004, 11.904956431000073], [79.28657969000005, 11.906977535000067], [79.28484419800003, 11.907126093000045], [79.28259470400008, 11.906182195000042], [79.27937388100008, 11.90659770800005], [79.27825890400004, 11.906736829000067], [79.27578073700005, 11.907018811000057], [79.27204788500006, 11.90646399600007], [79.26786341800005, 11.908727638000073], [79.26438460200006, 11.908535622000045], [79.25983718900005, 11.909525958000074], [79.26076565700004, 11.912003904000073], [79.26192022400005, 11.91654092300007], [79.26409069800008, 11.916895818000057], [79.26609064900003, 11.918900611000026], [79.26812150200004, 11.922842972000069], [79.27033837000005, 11.926104194000061], [79.27254447600006, 11.928687242000024], [79.27649677300008, 11.929693433000068], [79.28007105000006, 11.931674314000077], [79.28151965500007, 11.936109903000045], [79.28500032500006, 11.938382845000035], [79.28650018500008, 11.942080409000027], [79.28290167000006, 11.942418825000061], [79.27791490600003, 11.944222841000055], [79.27416592200007, 11.945020322000062], [79.27520821300004, 11.947473914000057], [79.27347284400008, 11.94873480900003], [79.27023113400008, 11.949894968000024], [79.26838776400007, 11.948676627000054], [79.26673642900005, 11.949885898000048], [79.26440995900003, 11.950223084000072], [79.26166947200005, 11.950620247000074], [79.25193005300008, 11.951687935000052], [79.25135453500008, 11.951765416000057], [79.24752901700003, 11.952280407000046], [79.24271877200005, 11.952352559000076], [79.24040187800006, 11.953431868000052], [79.23834059500007, 11.954392078000069], [79.23594301400004, 11.956142301000057], [79.23143691300004, 11.959431607000056], [79.22876324000003, 11.962309396000023], [79.22798148300006, 11.964462837000042], [79.22782428500005, 11.964839993000055], [79.22418254700005, 11.96750177000007], [79.22210802900008, 11.968907089000027], [79.21963199000004, 11.970312407000051], [79.21876203100004, 11.97178464700005], [79.21809995300003, 11.972452972000042], [79.21573053600008, 11.974748957000031], [79.21371853900007, 11.975513053000043], [79.21366533900004, 11.975533257000052], [79.21168746000006, 11.974916757000074], [79.20719189800008, 11.974122345000069], [79.20358103300003, 11.973960644000044], [79.19996848500006, 11.97369126700005], [79.19638466200007, 11.974222289000068], [79.19593215200007, 11.974289335000037], [79.19276697800007, 11.974659147000068], [79.19178311400003, 11.974673703000065], [79.18882815700005, 11.974502096000037], [79.18836191900004, 11.974367175000054], [79.18564280400005, 11.973580295000033], [79.18256007400004, 11.972226332000048], [79.17937309300004, 11.971196829000064], [79.17644732600007, 11.969614081000032], [79.17220552200007, 11.967319308000071], [79.16815416200006, 11.966948306000063], [79.16558374200008, 11.967085419000057], [79.16258242500004, 11.967245483000056], [79.15999745900007, 11.967160343000046], [79.15579986300008, 11.967022034000024], [79.15083443200007, 11.967509699000061], [79.14935857800003, 11.967654628000048], [79.14520790500006, 11.967930636000062], [79.14084357500008, 11.968532652000022], [79.13562128600006, 11.970223618000034], [79.13336874800007, 11.97305538300003], [79.13331120700008, 11.97313101900005], [79.13154680700006, 11.975450250000051], [79.12886186400004, 11.978611220000062], [79.12665382200004, 11.980522180000037], [79.12864062300008, 11.984149135000052], [79.12729094700006, 11.986909874000048], [79.12894491100008, 11.990997466000067], [79.12880135800003, 11.991392371000074], [79.12780006800006, 11.994146811000064], [79.12770531000007, 11.996637418000034], [79.12578601800004, 11.995877814000039], [79.12285000700007, 11.995830182000077], [79.12048365200008, 11.997038447000023], [79.11694031000007, 11.999257062000027], [79.11691311800007, 11.999434120000046], [79.11685691400004, 11.999800071000038], [79.11780171200007, 12.001592363000043], [79.11914663100004, 12.005546043000038], [79.12018733700006, 12.007607836000034], [79.11789871300005, 12.007911944000057], [79.11541973700008, 12.007767294000075], [79.11137060200008, 12.006922964000069], [79.10890138100007, 12.006310110000072], [79.10888702000005, 12.005980345000069], [79.10863689100006, 12.003422682000064], [79.10742263800006, 12.002194222000071], [79.10411726300003, 12.002172797000071], [79.10158947100007, 12.002416994000043], [79.09983291200007, 12.002511586000026], [79.09786649400007, 12.002678418000073], [79.09673438700008, 12.002810245000035], [79.09658612000004, 12.003311207000024], [79.09545040200004, 12.004849067000066], [79.08869860800007, 12.005516901000021], [79.08444914700004, 12.005578038000067], [79.07949599200003, 12.00415550100007], [79.07940393500007, 12.004129061000071], [79.07716561300003, 12.004266208000047], [79.07535053700008, 12.004377421000072], [79.07153931400006, 12.00785537300004], [79.06905994500005, 12.00998290900003], [79.06485070600007, 12.012705718000063], [79.06093815000008, 12.015058149000026], [79.06063850100008, 12.015238314000044], [79.05564779700006, 12.017401578000033], [79.05410557600004, 12.018964880000055], [79.05336423700004, 12.019716342000038], [79.04991110400005, 12.019595688000038], [79.04949799400003, 12.019581254000059], [79.04743026600005, 12.021460532000049], [79.04337098700006, 12.023281915000041], [79.04266699700008, 12.027856303000021], [79.04117596000003, 12.031490957000074], [79.03820822500006, 12.033911637000074], [79.03691105700005, 12.034969692000061], [79.03212786200004, 12.035439668000038], [79.03024158500006, 12.037724295000032], [79.02882759800008, 12.038374917000056], [79.02718047100007, 12.040224048000027], [79.02465855100007, 12.04256039300003], [79.02006758300007, 12.04566819300004], [79.01809398600005, 12.047268878000068], [79.01624927000006, 12.048765003000028], [79.01277792200005, 12.04928571000005], [79.01038820000008, 12.049519553000039], [79.01014214300005, 12.049426698000048], [79.00704823100006, 12.049280080000074], [79.00026633900006, 12.049023226000031], [78.995255, 12.049825], [78.99509859600005, 12.052051434000077], [78.9915, 12.05826], [78.99085, 12.05946], [78.98944, 12.06209], [78.98859, 12.06366], [78.98821, 12.0639], [78.98661, 12.06491], [78.9863, 12.0651], [78.98531, 12.06573], [78.98474, 12.06609], [78.98343, 12.06691], [78.98313, 12.0671], [78.98128, 12.06716], [78.97962, 12.06716], [78.97912, 12.06716], [78.97893, 12.06716], [78.97761, 12.06717], [78.97744, 12.06711], [78.97628, 12.06683], [78.97448, 12.06612], [78.97362, 12.06576], [78.97294, 12.0656], [78.97032, 12.06584], [78.96955, 12.06586], [78.96882, 12.06591], [78.96877, 12.06591], [78.96819, 12.06614], [78.96795, 12.06623], [78.96688, 12.06665], [78.96609, 12.06696], [78.96485, 12.06744], [78.96344, 12.06758], [78.96181, 12.06787], [78.96114, 12.06781], [78.96063, 12.06732], [78.95982, 12.06652], [78.95881, 12.06558], [78.95211, 12.05917], [78.94627, 12.05357], [78.94604, 12.05285], [78.94541, 12.05088], [78.9453, 12.05054], [78.94509, 12.04986], [78.94399, 12.0464], [78.94316, 12.04379], [78.94007, 12.0411], [78.93739, 12.03878], [78.93732, 12.03872], [78.93663, 12.03759], [78.9338, 12.03303], [78.9334, 12.0326], [78.93069, 12.02971], [78.92998, 12.029], [78.92874, 12.02784], [78.92558, 12.02491], [78.92291, 12.02359], [78.92045, 12.02381], [78.91703, 12.02585], [78.91609, 12.02614], [78.91371, 12.02686], [78.91146, 12.02916], [78.90989, 12.03124], [78.90684, 12.03228], [78.90533, 12.0328], [78.90396, 12.03314], [78.89989, 12.03414], [78.89767, 12.03468], [78.89529, 12.03527], [78.89197, 12.03519], [78.8905, 12.03475], [78.88916, 12.03351], [78.88394, 12.02926], [78.87712, 12.02729], [78.86292, 12.02328], [78.8369, 12.01585], [78.82932, 12.01435], [78.82113, 12.0098], [78.82046, 12.00898], [78.81996, 12.00941], [78.81489, 12.0138], [78.81418, 12.01442], [78.81073, 12.01636], [78.80726, 12.01831], [78.79713, 12.01263], [78.79704, 12.01258], [78.78336, 12.00889], [78.78089, 12.00864], [78.7803, 12.00857], [78.77924, 12.00846], [78.77408, 12.00793], [78.77322, 12.00784], [78.76722, 12.00907], [78.76533, 12.01], [78.76446, 12.01044], [78.76112, 12.01049], [78.75848, 12.00696], [78.75513, 12.00437], [78.7545, 12.00389], [78.75315, 12.00284], [78.7514, 12.00148], [78.74705, 11.99817], [78.74555, 11.99449], [78.74476, 11.99259], [78.74433, 11.9921], [78.74196, 11.98938], [78.73853, 11.98718], [78.73676, 11.98604], [78.73758, 11.98478], [78.73885, 11.98284], [78.73335, 11.9818], [78.73213, 11.98197], [78.72835, 11.98248], [78.72188, 11.98153], [78.72076, 11.98102], [78.71929, 11.9808], [78.71878, 11.98073]]]}}