{"type": "Feature", "properties": {"shapeName": "Mayiladuthurai", "shapeISO": "", "shapeID": "76128533B63176236753619", "shapeGroup": "IND", "shapeType": "ADM2"}, "geometry": {"type": "Polygon", "coordinates": [[[79.8549, 10.98524], [79.85516, 10.99374], [79.85522, 10.99497], [79.85526, 10.997], [79.85594, 11.01256], [79.85608, 11.01627], [79.85614, 11.01791], [79.85618, 11.01854], [79.8564, 11.02208], [79.85654, 11.02428], [79.85665, 11.02954], [79.85622, 11.03263], [79.85616, 11.03502], [79.85594, 11.04288], [79.85625, 11.05628], [79.8567, 11.06342], [79.85696, 11.06937], [79.85749, 11.0763], [79.85749, 11.07888], [79.85784, 11.08744], [79.85803, 11.09096], [79.85845, 11.09907], [79.85853, 11.11817], [79.85853, 11.12484], [79.85852, 11.12526], [79.85805, 11.13204], [79.85795, 11.13475], [79.85788, 11.13603], [79.85815, 11.14047], [79.85788, 11.14793], [79.85716, 11.16483], [79.85501, 11.18898], [79.85355, 11.20231], [79.85209, 11.21262], [79.84986, 11.22577], [79.84874, 11.23626], [79.84761, 11.24297], [79.84681, 11.24626], [79.846, 11.25075], [79.84392, 11.25989], [79.84143, 11.2721], [79.83911, 11.28852], [79.83741, 11.30205], [79.83736, 11.30276], [79.83726, 11.30516], [79.83713, 11.31533], [79.83705, 11.32298], [79.83735, 11.32932], [79.83769, 11.33826], [79.83799, 11.34671], [79.83774, 11.3529], [79.83679, 11.35694], [79.83581, 11.35849], [79.83516, 11.35951], [79.83275, 11.36149], [79.83069, 11.36355], [79.83022, 11.36482], [79.82914, 11.36768], [79.82347, 11.38164], [79.82, 11.39152], [79.8182, 11.39845], [79.81648, 11.4061], [79.81596, 11.40857], [79.81395, 11.41734], [79.81348, 11.41907], [79.81279, 11.41724], [79.81249, 11.41645], [79.81206, 11.41531], [79.81183, 11.41469], [79.8105, 11.41115], [79.81036, 11.41077], [79.81024, 11.40988], [79.80958, 11.405], [79.80784, 11.39198], [79.8071, 11.38938], [79.80655, 11.38741], [79.80647, 11.38716], [79.80646, 11.38712], [79.80628, 11.38647], [79.80613, 11.38595], [79.80607, 11.38572], [79.80548, 11.38364], [79.80511, 11.38313], [79.80461, 11.38245], [79.80337, 11.38075], [79.80263, 11.37973], [79.80201, 11.37919], [79.80093, 11.37824], [79.80029, 11.37769], [79.79963, 11.37711], [79.79947, 11.37697], [79.79709, 11.37488], [79.79657, 11.37467], [79.79373, 11.37352], [79.79099, 11.3724], [79.78509, 11.37364], [79.78166, 11.37625], [79.78134, 11.37636], [79.7807, 11.37693], [79.78027, 11.37725], [79.77888, 11.37829], [79.77356, 11.38125], [79.77292, 11.3816], [79.77258, 11.38179], [79.77112, 11.38261], [79.7706, 11.3829], [79.7701, 11.38274], [79.7676, 11.38198], [79.76731, 11.38189], [79.76652, 11.38165], [79.7658, 11.38142], [79.76539, 11.38107], [79.76203, 11.37822], [79.76113, 11.37667], [79.7608, 11.37612], [79.76071, 11.37596], [79.75904, 11.37309], [79.75973, 11.36862], [79.75999, 11.36689], [79.76066, 11.36474], [79.76066, 11.36462], [79.76052, 11.36427], [79.76025, 11.36385], [79.75988, 11.36267], [79.76095, 11.3607], [79.761, 11.36035], [79.76145, 11.35744], [79.76134, 11.35643], [79.7609, 11.35245], [79.76052, 11.35243], [79.76035, 11.35242], [79.75315, 11.35191], [79.74815, 11.35155], [79.74506, 11.35134], [79.74431, 11.35128], [79.73711, 11.35077], [79.736, 11.35069], [79.73449, 11.35059], [79.73384, 11.35035], [79.72921, 11.34861], [79.72798, 11.34784], [79.72719, 11.34734], [79.72064, 11.34323], [79.71597, 11.3389], [79.71495, 11.33798], [79.71456, 11.3376], [79.7145, 11.33755], [79.71429, 11.33734], [79.71415, 11.33721], [79.71383, 11.33691], [79.71317, 11.3363], [79.71225, 11.33544], [79.71216, 11.33536], [79.70939, 11.33279], [79.7092, 11.33261], [79.70703, 11.3306], [79.70507, 11.32879], [79.70404, 11.32783], [79.70322, 11.32706], [79.70041, 11.32446], [79.70003, 11.3241], [79.69922, 11.32335], [79.69809, 11.32231], [79.69062, 11.3168], [79.68565, 11.31315], [79.68341, 11.31149], [79.68155, 11.31012], [79.68145, 11.31005], [79.68119, 11.30986], [79.67896, 11.30822], [79.67697, 11.30675], [79.67051, 11.3057], [79.66588, 11.30577], [79.66531, 11.30578], [79.66364, 11.30581], [79.66147, 11.30503], [79.65751, 11.30361], [79.65543, 11.30239], [79.65377, 11.30141], [79.65287, 11.30088], [79.65047, 11.2981], [79.64873, 11.29608], [79.64672, 11.29374], [79.64627, 11.29208], [79.64461, 11.28584], [79.64411, 11.28396], [79.64427, 11.28302], [79.64439, 11.28232], [79.64452, 11.28163], [79.64457, 11.28131], [79.64486, 11.27976], [79.64491, 11.27943], [79.64511, 11.27822], [79.64525, 11.27742], [79.64528, 11.27724], [79.64565, 11.27512], [79.64591, 11.27365], [79.6461, 11.27255], [79.64634, 11.27118], [79.64881, 11.26396], [79.6495, 11.26194], [79.6501, 11.25608], [79.64949, 11.25097], [79.64542, 11.24873], [79.64386, 11.24785], [79.6385, 11.24673], [79.63509, 11.24796], [79.63418, 11.24871], [79.63261, 11.24952], [79.6323, 11.24969], [79.63146, 11.24983], [79.63088, 11.2501], [79.62957, 11.25064], [79.62706, 11.25202], [79.62614, 11.25263], [79.62519, 11.25343], [79.62476, 11.2538], [79.62294, 11.25534], [79.62241, 11.25572], [79.62192, 11.25572], [79.61985, 11.25572], [79.61901, 11.25572], [79.6172, 11.25427], [79.61352, 11.25132], [79.61318, 11.25104], [79.61267, 11.24684], [79.61262, 11.24644], [79.61214, 11.24249], [79.61198, 11.2411], [79.6118, 11.23965], [79.61158, 11.23751], [79.6115, 11.23717], [79.61059, 11.23498], [79.60873, 11.23051], [79.60848, 11.2299], [79.60699, 11.22633], [79.60688, 11.22611], [79.60661, 11.22582], [79.60586, 11.22508], [79.60514, 11.22436], [79.605, 11.22422], [79.60459, 11.22381], [79.60444, 11.22366], [79.60427, 11.22349], [79.60377, 11.22299], [79.60313, 11.22236], [79.60208, 11.22131], [79.60189, 11.22112], [79.59951, 11.21875], [79.59941, 11.21865], [79.59745, 11.21777], [79.59483, 11.21658], [79.59409, 11.21624], [79.59155, 11.21509], [79.59145, 11.21504], [79.59125, 11.21499], [79.59078, 11.21485], [79.58848, 11.21418], [79.58803, 11.21405], [79.58588, 11.21343], [79.57852, 11.2113], [79.57639, 11.21069], [79.57626, 11.21066], [79.57476, 11.21022], [79.57224, 11.2095], [79.56787, 11.20752], [79.56678, 11.20703], [79.56431, 11.20591], [79.55784, 11.20299], [79.55733, 11.20276], [79.55382, 11.20098], [79.55157, 11.19966], [79.55091, 11.19926], [79.55049, 11.19901], [79.54884, 11.19803], [79.54446, 11.19545], [79.54431, 11.19536], [79.53445, 11.18953], [79.53337, 11.18877], [79.52976, 11.1862], [79.52684, 11.18412], [79.52556, 11.18321], [79.52387, 11.18198], [79.52662, 11.18036], [79.52846, 11.17936], [79.52899, 11.17871], [79.52922, 11.17861], [79.53025, 11.17814], [79.53047, 11.17804], [79.53108, 11.17776], [79.53132, 11.17779], [79.53691, 11.17844], [79.53797, 11.17856], [79.53828, 11.1786], [79.53856, 11.17719], [79.53896, 11.17515], [79.53907, 11.17461], [79.53951, 11.17244], [79.53987, 11.17064], [79.53992, 11.17039], [79.54028, 11.16858], [79.54058, 11.16707], [79.5406, 11.16697], [79.54066, 11.16666], [79.54085, 11.16574], [79.54095, 11.16524], [79.5412, 11.16396], [79.54125, 11.16372], [79.54133, 11.16331], [79.54151, 11.16326], [79.54174, 11.1632], [79.54257, 11.163], [79.54338, 11.1628], [79.54437, 11.16255], [79.54453, 11.16251], [79.54544, 11.16033], [79.54567, 11.15979], [79.54581, 11.15946], [79.54587, 11.15949], [79.54707, 11.16007], [79.54722, 11.16014], [79.54741, 11.16024], [79.548, 11.16053], [79.54871, 11.16088], [79.54894, 11.16099], [79.54928, 11.16116], [79.55231, 11.16262], [79.55269, 11.16254], [79.55344, 11.16238], [79.5557, 11.1619], [79.55647, 11.16174], [79.55852, 11.16198], [79.55956, 11.16211], [79.55955, 11.16146], [79.55954, 11.16113], [79.55948, 11.15822], [79.5594, 11.15419], [79.56195, 11.15423], [79.56264, 11.15424], [79.56669, 11.1543], [79.56712, 11.15103], [79.56754, 11.14783], [79.56971, 11.14731], [79.57069, 11.14708], [79.57257, 11.14664], [79.57298, 11.14654], [79.57308, 11.14652], [79.57355, 11.14641], [79.57428, 11.14623], [79.57355, 11.14558], [79.56755, 11.14026], [79.56744, 11.14016], [79.56735, 11.14008], [79.56656, 11.13938], [79.56605, 11.13893], [79.5655, 11.13844], [79.56447, 11.13753], [79.56429, 11.13737], [79.56361, 11.13676], [79.56355, 11.13671], [79.56251, 11.13577], [79.56218, 11.1349], [79.56184, 11.13403], [79.5617, 11.13364], [79.56126, 11.13244], [79.5606, 11.13064], [79.56039, 11.13008], [79.55748, 11.12827], [79.55673, 11.12908], [79.55659, 11.12923], [79.5564, 11.12943], [79.5557, 11.13018], [79.55547, 11.13042], [79.55493, 11.13], [79.55365, 11.12898], [79.55371, 11.1272], [79.55371, 11.12702], [79.55372, 11.12663], [79.55373, 11.12643], [79.55376, 11.12538], [79.55347, 11.12524], [79.55072, 11.12395], [79.5503, 11.12375], [79.55074, 11.12297], [79.55134, 11.12191], [79.55147, 11.12168], [79.55182, 11.12106], [79.55268, 11.11953], [79.55183, 11.11732], [79.55179, 11.11723], [79.55157, 11.11666], [79.55148, 11.11643], [79.55115, 11.11557], [79.54917, 11.11528], [79.54859, 11.1152], [79.5483, 11.11511], [79.54822, 11.1151], [79.54769, 11.11501], [79.54718, 11.11396], [79.54639, 11.11295], [79.54668, 11.11281], [79.5476, 11.11236], [79.54925, 11.11169], [79.5488, 11.10953], [79.54741, 11.10872], [79.54662, 11.10826], [79.54135, 11.10877], [79.54069, 11.10883], [79.54033, 11.10887], [79.5403, 11.10852], [79.54026, 11.10804], [79.54019, 11.10726], [79.54016, 11.10581], [79.53807, 11.10329], [79.53781, 11.1005], [79.53907, 11.09767], [79.54022, 11.09506], [79.54028, 11.09493], [79.54091, 11.09496], [79.54265, 11.09503], [79.54191, 11.09817], [79.54235, 11.10393], [79.54346, 11.10397], [79.54581, 11.10404], [79.54909, 11.10413], [79.54902, 11.10331], [79.54896, 11.10249], [79.54887, 11.10134], [79.54883, 11.10089], [79.54877, 11.10077], [79.54861, 11.10045], [79.54853, 11.10029], [79.5477, 11.09864], [79.54735, 11.09793], [79.54706, 11.09735], [79.54683, 11.09689], [79.54603, 11.0953], [79.54429, 11.0918], [79.54362, 11.09046], [79.5427, 11.08862], [79.5424, 11.08801], [79.54204, 11.08729], [79.54215, 11.08687], [79.54246, 11.08574], [79.5426, 11.08521], [79.54287, 11.08423], [79.54418, 11.08522], [79.5455, 11.08622], [79.54658, 11.0858], [79.54824, 11.08515], [79.54913, 11.08414], [79.54939, 11.08384], [79.55067, 11.08237], [79.55118, 11.08178], [79.55139, 11.08154], [79.55171, 11.08118], [79.55195, 11.0809], [79.55106, 11.07945], [79.55103, 11.0794], [79.5467, 11.07632], [79.54489, 11.07462], [79.54425, 11.07403], [79.54408, 11.07317], [79.5433, 11.07258], [79.5428, 11.0722], [79.54202, 11.07161], [79.54135, 11.0711], [79.54086, 11.07072], [79.54039, 11.07036], [79.53755, 11.0682], [79.53748, 11.06791], [79.53737, 11.06742], [79.53646, 11.06343], [79.5364, 11.06321], [79.53633, 11.0629], [79.53618, 11.06264], [79.53619, 11.06255], [79.53584, 11.06227], [79.5356, 11.06192], [79.53474, 11.0613], [79.53321, 11.06019], [79.53316, 11.06009], [79.53298, 11.05972], [79.53278, 11.05932], [79.53158, 11.05694], [79.53104, 11.05637], [79.53054, 11.05584], [79.52994, 11.05519], [79.52895, 11.05414], [79.52697, 11.05316], [79.52651, 11.05321], [79.52626, 11.05309], [79.52594, 11.05299], [79.52564, 11.05293], [79.52545, 11.0529], [79.52496, 11.0528], [79.52461, 11.05223], [79.52399, 11.05185], [79.52382, 11.05177], [79.52367, 11.0517], [79.52336, 11.05156], [79.52249, 11.05116], [79.52157, 11.04921], [79.52118, 11.04837], [79.52105, 11.04809], [79.51974, 11.04639], [79.51958, 11.04618], [79.51937, 11.04591], [79.51883, 11.0452], [79.51803, 11.04416], [79.51678, 11.04253], [79.51579, 11.04124], [79.51588, 11.0409], [79.51596, 11.04056], [79.5164, 11.03884], [79.51643, 11.03872], [79.51661, 11.03802], [79.5167, 11.03768], [79.51672, 11.03759], [79.51755, 11.03442], [79.51759, 11.03426], [79.51811, 11.03226], [79.51925, 11.02684], [79.51928, 11.02671], [79.51966, 11.02623], [79.52114, 11.02613], [79.52231, 11.02605], [79.52308, 11.026], [79.52313, 11.026], [79.5237, 11.02596], [79.52507, 11.02587], [79.52544, 11.02585], [79.52659, 11.02577], [79.52722, 11.02573], [79.52868, 11.02563], [79.53072, 11.02575], [79.5326, 11.02587], [79.53319, 11.02591], [79.53417, 11.02597], [79.53487, 11.02601], [79.53492, 11.02564], [79.53516, 11.02392], [79.53537, 11.0224], [79.53541, 11.02213], [79.53551, 11.02139], [79.53561, 11.02066], [79.53571, 11.02], [79.53572, 11.01989], [79.53617, 11.01666], [79.53723, 11.01436], [79.5378, 11.01329], [79.53603, 11.01302], [79.53538, 11.01295], [79.53355, 11.0127], [79.53276, 11.01322], [79.5314, 11.01412], [79.53044, 11.01476], [79.52888, 11.01425], [79.52851, 11.01413], [79.52763, 11.01385], [79.5276, 11.0129], [79.52759, 11.01265], [79.52759, 11.01247], [79.52756, 11.01133], [79.5275, 11.00925], [79.52749, 11.00885], [79.52746, 11.008], [79.52789, 11.00809], [79.52838, 11.0082], [79.53037, 11.00862], [79.53073, 11.0087], [79.53514, 11.00963], [79.53565, 11.00974], [79.53975, 11.00863], [79.54115, 11.00825], [79.54145, 11.00816], [79.54221, 11.00796], [79.54583, 11.00654], [79.54631, 11.00635], [79.54651, 11.00603], [79.54707, 11.0051], [79.54763, 11.00418], [79.54915, 11.00169], [79.54871, 11.00086], [79.54829, 11.00006], [79.54817, 10.99983], [79.54805, 10.99965], [79.54794, 10.99952], [79.54749, 10.99897], [79.54511, 10.99797], [79.54284, 10.99753], [79.54279, 10.99754], [79.54233, 10.99762], [79.54201, 10.99758], [79.53991, 10.99733], [79.53854, 10.99717], [79.53679, 10.99696], [79.53484, 10.99673], [79.53441, 10.99668], [79.5342, 10.99665], [79.53188, 10.99636], [79.53114, 10.99675], [79.53047, 10.99709], [79.53043, 10.99728], [79.53035, 10.99762], [79.53029, 10.9979], [79.53014, 10.99857], [79.5272, 10.99864], [79.52704, 10.99864], [79.52686, 10.99865], [79.52687, 10.99835], [79.52688, 10.99804], [79.52689, 10.99773], [79.5269, 10.9976], [79.52691, 10.99733], [79.52692, 10.99696], [79.52694, 10.99639], [79.5261, 10.99631], [79.52493, 10.99681], [79.52436, 10.99706], [79.52357, 10.9974], [79.5234, 10.99747], [79.52341, 10.99734], [79.52344, 10.99692], [79.52345, 10.99674], [79.52348, 10.99626], [79.52354, 10.99617], [79.5238, 10.99375], [79.52397, 10.99216], [79.52025, 10.98765], [79.51957, 10.98764], [79.51925, 10.98764], [79.51728, 10.98761], [79.51686, 10.9876], [79.51649, 10.9876], [79.51637, 10.98759], [79.51279, 10.98754], [79.51061, 10.98447], [79.5107, 10.98438], [79.51133, 10.98375], [79.51269, 10.9824], [79.51468, 10.98041], [79.51546, 10.97964], [79.51538, 10.97401], [79.51531, 10.97236], [79.51531, 10.97014], [79.51531, 10.96975], [79.51531, 10.96956], [79.51563, 10.96893], [79.51606, 10.96901], [79.51632, 10.96904], [79.5175, 10.96916], [79.51848, 10.96926], [79.5188, 10.96929], [79.52056, 10.96948], [79.52128, 10.96956], [79.52303, 10.96974], [79.52425, 10.97045], [79.52554, 10.97018], [79.52611, 10.97006], [79.52685, 10.97014], [79.52738, 10.9702], [79.52868, 10.97033], [79.5287, 10.96995], [79.52876, 10.96904], [79.52879, 10.96862], [79.5288, 10.96848], [79.52881, 10.96829], [79.52845, 10.9675], [79.52826, 10.96643], [79.52767, 10.96527], [79.52687, 10.96407], [79.52662, 10.96259], [79.52756, 10.95935], [79.52772, 10.95881], [79.53188, 10.96048], [79.53184, 10.96075], [79.53172, 10.96152], [79.53158, 10.96243], [79.53156, 10.96256], [79.53132, 10.96416], [79.53123, 10.9648], [79.53341, 10.96519], [79.53463, 10.96541], [79.53581, 10.96547], [79.53641, 10.9655], [79.53704, 10.96553], [79.53928, 10.96565], [79.53998, 10.96569], [79.54344, 10.96489], [79.54471, 10.96651], [79.54483, 10.96651], [79.54732, 10.96616], [79.54814, 10.96618], [79.54929, 10.96649], [79.54986, 10.96665], [79.55094, 10.96668], [79.55307, 10.9662], [79.55333, 10.96614], [79.55304, 10.96682], [79.55307, 10.9669], [79.5531, 10.96696], [79.55313, 10.96704], [79.55324, 10.9673], [79.55375, 10.96853], [79.55435, 10.96996], [79.55681, 10.96927], [79.55738, 10.96911], [79.55753, 10.96907], [79.55775, 10.96986], [79.55782, 10.97014], [79.55789, 10.97038], [79.55793, 10.97052], [79.55915, 10.97423], [79.56815, 10.97578], [79.56823, 10.97579], [79.56881, 10.97586], [79.56898, 10.97588], [79.56953, 10.97594], [79.56962, 10.97337], [79.56964, 10.97285], [79.56988, 10.97198], [79.57165, 10.97219], [79.57184, 10.97108], [79.57161, 10.9709], [79.57339, 10.97074], [79.57433, 10.97072], [79.57709, 10.97066], [79.57702, 10.97093], [79.57688, 10.97141], [79.57564, 10.97584], [79.57559, 10.976], [79.57553, 10.97623], [79.57567, 10.97626], [79.57589, 10.97629], [79.57687, 10.97647], [79.57862, 10.97678], [79.57882, 10.97797], [79.57895, 10.97873], [79.57906, 10.9794], [79.57909, 10.97959], [79.57952, 10.98218], [79.57973, 10.98218], [79.58021, 10.98219], [79.58243, 10.98221], [79.5855, 10.98224], [79.58889, 10.98228], [79.58905, 10.98228], [79.58957, 10.98229], [79.59026, 10.9823], [79.59126, 10.97944], [79.59198, 10.97738], [79.59618, 10.97748], [79.59646, 10.97755], [79.59675, 10.97547], [79.59686, 10.9747], [79.59691, 10.97438], [79.59694, 10.97417], [79.59702, 10.9736], [79.59703, 10.97355], [79.5972, 10.97234], [79.59741, 10.97231], [79.59828, 10.97216], [79.59863, 10.97211], [79.59886, 10.9721], [79.59956, 10.97177], [79.60359, 10.97132], [79.60427, 10.9719], [79.60621, 10.97344], [79.60837, 10.97482], [79.60807, 10.97556], [79.60765, 10.97659], [79.60534, 10.97858], [79.60555, 10.9791], [79.60614, 10.97955], [79.60648, 10.9798], [79.60709, 10.98026], [79.60738, 10.98048], [79.60766, 10.98069], [79.60804, 10.98097], [79.60819, 10.98109], [79.60975, 10.98126], [79.61059, 10.98136], [79.61315, 10.98165], [79.61328, 10.98166], [79.61663, 10.98204], [79.61834, 10.98224], [79.61851, 10.98226], [79.61919, 10.98156], [79.61976, 10.98163], [79.62092, 10.98176], [79.62176, 10.98236], [79.6222, 10.98267], [79.62447, 10.98293], [79.62465, 10.98261], [79.62481, 10.98233], [79.62522, 10.9816], [79.62537, 10.98134], [79.62567, 10.98083], [79.62583, 10.98055], [79.62628, 10.97973], [79.62647, 10.9794], [79.62652, 10.97923], [79.6266, 10.97899], [79.62703, 10.97842], [79.62738, 10.97781], [79.62758, 10.97745], [79.62847, 10.97762], [79.62905, 10.97772], [79.62928, 10.97777], [79.62997, 10.97789], [79.63044, 10.97798], [79.63187, 10.97824], [79.63197, 10.97826], [79.63225, 10.97831], [79.63267, 10.97839], [79.6329, 10.97843], [79.63353, 10.97855], [79.63404, 10.97864], [79.63368, 10.97987], [79.63366, 10.97992], [79.63355, 10.98028], [79.63339, 10.98086], [79.63174, 10.98646], [79.63225, 10.98681], [79.63241, 10.98692], [79.63361, 10.98776], [79.6351, 10.9888], [79.63466, 10.98931], [79.63328, 10.99087], [79.63535, 10.99131], [79.63664, 10.99176], [79.63613, 10.99245], [79.63587, 10.99265], [79.63436, 10.99384], [79.63626, 10.99489], [79.63641, 10.99497], [79.63666, 10.99511], [79.63682, 10.99519], [79.63642, 10.99623], [79.63629, 10.99657], [79.63581, 10.9978], [79.6364, 10.99827], [79.63785, 10.99972], [79.63796, 10.99996], [79.63917, 11.00046], [79.63957, 11.00077], [79.63997, 11.00109], [79.64028, 11.00133], [79.64034, 11.00138], [79.64059, 11.00147], [79.64117, 11.00168], [79.64124, 11.00371], [79.64134, 11.00645], [79.64183, 11.00711], [79.64209, 11.00745], [79.64224, 11.00765], [79.64243, 11.00791], [79.64249, 11.00799], [79.64315, 11.00888], [79.6447, 11.00957], [79.64504, 11.00972], [79.64619, 11.01023], [79.64995, 11.01191], [79.65033, 11.01207], [79.65188, 11.01276], [79.6527, 11.01313], [79.65172, 11.01376], [79.65088, 11.01429], [79.65165, 11.01414], [79.6547, 11.01349], [79.65472, 11.01349], [79.6572, 11.01408], [79.65919, 11.01411], [79.6606, 11.0143], [79.66357, 11.0147], [79.66514, 11.01491], [79.6662, 11.01506], [79.66635, 11.01508], [79.66757, 11.01525], [79.66884, 11.01543], [79.66982, 11.01557], [79.67179, 11.01582], [79.67285, 11.01597], [79.67446, 11.01619], [79.67652, 11.01647], [79.67751, 11.01659], [79.67767, 11.01662], [79.67878, 11.01677], [79.67954, 11.01688], [79.68119, 11.01691], [79.68232, 11.01693], [79.68243, 11.01693], [79.68277, 11.01693], [79.68479, 11.01697], [79.68529, 11.01698], [79.68719, 11.01701], [79.688, 11.01702], [79.6883, 11.01703], [79.68928, 11.01705], [79.69013, 11.01706], [79.69147, 11.01708], [79.69838, 11.0156], [79.69933, 11.0154], [79.70002, 11.01525], [79.70034, 11.01518], [79.70199, 11.01482], [79.70301, 11.0146], [79.70349, 11.0145], [79.70408, 11.01425], [79.70583, 11.01351], [79.70664, 11.01317], [79.7075, 11.0128], [79.70948, 11.01119], [79.71215, 11.00903], [79.71298, 11.00869], [79.7131, 11.00864], [79.71331, 11.00854], [79.71359, 11.00843], [79.71461, 11.008], [79.71568, 11.00755], [79.72097, 11.00531], [79.72147, 11.0051], [79.72254, 11.00465], [79.72264, 11.00448], [79.72318, 11.00362], [79.72331, 11.00341], [79.72343, 11.00322], [79.72445, 11.00159], [79.72533, 11.00098], [79.72605, 11.00048], [79.72622, 11.00036], [79.72652, 11.00016], [79.72755, 10.99944], [79.73026, 10.99881], [79.73141, 10.99855], [79.73256, 10.99828], [79.73267, 10.99818], [79.73287, 10.99801], [79.73465, 10.99646], [79.73493, 10.99622], [79.73504, 10.99619], [79.73622, 10.99619], [79.73953, 10.99611], [79.7416, 10.99607], [79.74183, 10.99606], [79.74239, 10.99605], [79.74839, 10.99772], [79.74979, 10.99811], [79.74995, 10.99897], [79.74975, 11.00002], [79.74956, 11.00093], [79.74944, 11.00116], [79.74908, 11.00189], [79.74892, 11.00221], [79.74891, 11.00223], [79.74851, 11.00315], [79.74861, 11.00358], [79.74864, 11.00373], [79.74969, 11.00445], [79.75034, 11.00439], [79.75203, 11.00439], [79.75327, 11.00432], [79.7548, 11.00451], [79.75575, 11.00478], [79.75679, 11.00549], [79.75732, 11.00562], [79.75823, 11.00497], [79.75888, 11.00426], [79.7596, 11.00373], [79.76051, 11.00328], [79.76116, 11.00308], [79.76123, 11.00256], [79.76129, 11.00171], [79.76162, 11.00126], [79.76201, 11.00119], [79.7624, 11.00139], [79.76266, 11.00197], [79.76305, 11.00243], [79.76344, 11.0025], [79.76376, 11.0025], [79.7637, 11.00514], [79.76384, 11.00624], [79.76445, 11.00706], [79.76578, 11.00759], [79.76649, 11.00771], [79.76704, 11.00786], [79.76761, 11.00808], [79.76832, 11.00816], [79.76846, 11.00817], [79.76928, 11.00822], [79.7701, 11.00743], [79.77197, 11.00486], [79.77228, 11.00484], [79.77269, 11.00481], [79.77342, 11.00537], [79.7735, 11.00546], [79.77404, 11.00606], [79.77475, 11.00589], [79.77504, 11.00544], [79.77557, 11.00461], [79.77901, 11.0024], [79.77985, 11.00234], [79.78081, 11.00239], [79.78176, 11.00171], [79.78235, 11.00154], [79.7832, 11.00197], [79.78397, 11.0023], [79.78489, 11.00269], [79.78753, 11.0031], [79.78873, 11.00324], [79.78884, 11.00226], [79.78883, 11.00152], [79.78922, 11.00124], [79.78942, 11.0011], [79.7902, 11.00067], [79.79227, 10.99952], [79.79276, 10.99939], [79.79298, 10.99933], [79.79335, 10.99967], [79.79324, 11.00029], [79.79325, 11.00091], [79.79409, 11.00108], [79.79516, 11.00074], [79.79598, 10.99969], [79.79654, 10.99731], [79.7966, 10.99706], [79.79685, 10.99577], [79.79627, 10.99524], [79.79591, 10.99479], [79.79636, 10.99303], [79.79703, 10.99014], [79.79739, 10.98999], [79.798, 10.99043], [79.79813, 10.99152], [79.7983, 10.99144], [79.79885, 10.99121], [79.79931, 10.9903], [79.79978, 10.98989], [79.80128, 10.98859], [79.80168, 10.98824], [79.80203, 10.98796], [79.80207, 10.98789], [79.80238, 10.98731], [79.8028, 10.98715], [79.80322, 10.98699], [79.80353, 10.98692], [79.80417, 10.98677], [79.80434, 10.98681], [79.80537, 10.98702], [79.80586, 10.98771], [79.80611, 10.98879], [79.80662, 10.99046], [79.80723, 10.99138], [79.80806, 10.99154], [79.80822, 10.9915], [79.80902, 10.99131], [79.81021, 10.99107], [79.81141, 10.99143], [79.81154, 10.99252], [79.81119, 10.99317], [79.81096, 10.99393], [79.81097, 10.99466], [79.8111, 10.99539], [79.81135, 10.99573], [79.81206, 10.99577], [79.81289, 10.99531], [79.81337, 10.9955], [79.81349, 10.99574], [79.81303, 10.99665], [79.81245, 10.99769], [79.81241, 10.99818], [79.81249, 10.99856], [79.81247, 10.99877], [79.81234, 10.99905], [79.81282, 11.00005], [79.81344, 11.00077], [79.8149, 11.00117], [79.81499, 11.0012], [79.81593, 11.00142], [79.81607, 11.00145], [79.81714, 11.00144], [79.81844, 11.00092], [79.81916, 11.00108], [79.82, 11.00159], [79.82096, 11.0027], [79.82144, 11.00349], [79.82157, 11.00397], [79.82193, 11.00429], [79.82253, 11.00421], [79.82264, 11.0042], [79.82306, 11.00383], [79.82346, 11.00348], [79.82381, 11.00234], [79.82416, 11.00156], [79.8245, 11.00066], [79.82509, 11.00033], [79.82581, 11.00024], [79.8264, 11.00065], [79.82677, 11.00158], [79.82677, 11.00243], [79.82749, 11.00246], [79.82819, 11.00199], [79.8288, 11.00133], [79.82907, 11.00103], [79.82935, 11.00072], [79.8296, 11.00045], [79.82984, 10.99993], [79.83033, 10.99967], [79.83078, 10.99943], [79.8322, 10.99935], [79.83256, 10.99978], [79.8328, 11.00109], [79.83353, 11.00202], [79.83394, 11.00242], [79.83432, 11.00284], [79.83488, 11.0034], [79.83494, 11.00345], [79.83518, 11.00366], [79.83612, 11.00424], [79.83742, 11.00453], [79.83871, 11.00419], [79.83936, 11.00399], [79.84024, 11.00371], [79.84113, 11.00369], [79.84126, 11.00373], [79.84189, 11.00389], [79.84242, 11.00429], [79.84265, 11.00446], [79.84341, 11.00454], [79.84374, 11.00436], [79.84379, 11.00433], [79.84422, 11.00384], [79.84429, 11.00376], [79.84416, 11.00326], [79.84366, 11.00259], [79.84336, 11.00174], [79.84289, 11.00041], [79.8425, 10.9984], [79.8421, 10.9965], [79.8421, 10.99601], [79.84261, 10.99581], [79.8449, 10.99604], [79.84746, 10.99623], [79.84802, 10.99628], [79.84897, 10.99635], [79.8506, 10.99585], [79.85111, 10.99564], [79.85148, 10.99493], [79.85148, 10.99482], [79.85149, 10.99431], [79.85126, 10.99391], [79.85074, 10.99302], [79.84997, 10.99099], [79.85008, 10.98902], [79.85031, 10.98669], [79.85055, 10.98547], [79.85093, 10.98525], [79.8541, 10.98528], [79.85428, 10.98528], [79.8549, 10.98524]]]}}