{"type": "Feature", "properties": {"shapeName": "Tenkasi", "shapeISO": "", "shapeID": "76128533B27604563137530", "shapeGroup": "IND", "shapeType": "ADM2"}, "geometry": {"type": "Polygon", "coordinates": [[[77.20922, 9.07187], [77.20901, 9.07142], [77.20792, 9.0693], [77.20735, 9.06818], [77.20645, 9.06641], [77.20213, 9.06055], [77.20064, 9.057], [77.19798, 9.0547], [77.19892, 9.05062], [77.19989, 9.04641], [77.18792, 9.04375], [77.18685, 9.04557], [77.18519, 9.04839], [77.1715, 9.04638], [77.16597, 9.04278], [77.16307, 9.03701], [77.16352, 9.03541], [77.16465, 9.03135], [77.15833, 9.0252], [77.15425, 9.02285], [77.15037, 9.02173], [77.14992, 9.0216], [77.15002, 9.02127], [77.15103, 9.018], [77.15289, 9.01522], [77.15204, 9.00973], [77.15504, 9.00796], [77.1564, 9.00789], [77.16103, 9.00765], [77.16178, 9.00161], [77.16476, 8.99672], [77.16633, 8.99554], [77.1664, 8.99549], [77.16714, 8.99493], [77.17285, 8.99065], [77.17639, 8.98799], [77.18121, 8.97214], [77.19279, 8.96668], [77.19335, 8.96065], [77.19825, 8.95686], [77.19934, 8.95181], [77.19778, 8.94733], [77.19979, 8.94239], [77.20001, 8.93866], [77.19991, 8.93835], [77.1999, 8.93831], [77.19735, 8.9308], [77.19817, 8.92936], [77.19879, 8.92827], [77.19861, 8.92557], [77.19926, 8.92473], [77.20298, 8.92], [77.20693, 8.92194], [77.20788, 8.92241], [77.20495, 8.92551], [77.20497, 8.92553], [77.20795, 8.92941], [77.21205, 8.93177], [77.21391, 8.93064], [77.21569, 8.92956], [77.21631, 8.92918], [77.22299, 8.92729], [77.22564, 8.92378], [77.22324, 8.92052], [77.22032, 8.91655], [77.22186, 8.91165], [77.22302, 8.90798], [77.22457, 8.90306], [77.22814, 8.90298], [77.22998, 8.90294], [77.23309, 8.90202], [77.23983, 8.89805], [77.2423, 8.89507], [77.24185, 8.89042], [77.24178, 8.88971], [77.2416, 8.88772], [77.24557, 8.88175], [77.25051, 8.87899], [77.25736411000008, 8.878134327000055], [77.25836, 8.87801], [77.25735553600003, 8.884048862000043], [77.25928776600006, 8.884947082000053], [77.26355674200005, 8.885625257000072], [77.26763282300004, 8.884469912000043], [77.27151571200005, 8.881867018000037], [77.27801622300007, 8.882835865000061], [77.28192669700007, 8.883678901000053], [77.28721933500003, 8.883681957000022], [77.29056121500008, 8.885161244000074], [77.29223143700005, 8.887193598000067], [77.29659583800003, 8.886734317000048], [77.30263273500003, 8.884152116000053], [77.30616262000007, 8.881383847000052], [77.31071358700007, 8.879077750000022], [77.31489276600007, 8.877417772000058], [77.31832659800006, 8.880835943000022], [77.31868972800004, 8.880779698000026], [77.31935169400003, 8.876888596000072], [77.31905422000006, 8.874574713000072], [77.31777228200008, 8.871170045000042], [77.31554862000007, 8.86865847100006], [77.31888609500004, 8.868404800000064], [77.32068354100005, 8.86755465400006], [77.32226725200007, 8.866278893000072], [77.32410809400005, 8.864109684000027], [77.32475099300007, 8.86176970300005], [77.32193833100007, 8.85943904900006], [77.31911464300003, 8.860763206000058], [77.31774646300005, 8.859148813000047], [77.31532840200003, 8.859201067000072], [77.31116151700007, 8.86151251900003], [77.30872928100007, 8.857099431000051], [77.30997534200003, 8.853656669000031], [77.31132892000005, 8.851505230000043], [77.31349366300003, 8.849946024000076], [77.31549665500006, 8.847256860000073], [77.31733809200006, 8.843007316000069], [77.31912512700006, 8.83929576600002], [77.32098475100008, 8.836420879000059], [77.32456277600005, 8.831335204000027], [77.32468745400007, 8.83115798700004], [77.32268398100007, 8.829521428000021], [77.32145180200007, 8.827016306000075], [77.32074236100004, 8.82444901200006], [77.32047708600004, 8.823489041000073], [77.32155770200006, 8.820524999000042], [77.32253547200008, 8.817663131000074], [77.32239286900005, 8.815507370000034], [77.31949485400008, 8.811660242000073], [77.31939926900003, 8.809443550000026], [77.31621026400006, 8.807796881000058], [77.31307959100008, 8.807677828000067], [77.31012517100004, 8.809438983000064], [77.30746705100006, 8.80932012300002], [77.30717343300006, 8.805970969000043], [77.30695327100005, 8.804211719000023], [77.30687930100004, 8.803620640000076], [77.30644415400008, 8.799830753000037], [77.30554816700004, 8.79625801900005], [77.30605486000007, 8.793076725000049], [77.30830053700004, 8.790956837000067], [77.31155562200007, 8.790065410000068], [77.31582099200006, 8.788672099000053], [77.31834713000006, 8.78660810100007], [77.32048017600005, 8.785102069000061], [77.31992114100007, 8.780748089000042], [77.32102231300007, 8.778605380000045], [77.32377480300005, 8.77727401200002], [77.32525959000003, 8.776770451000061], [77.32542683900004, 8.776427271000045], [77.32692676800008, 8.773349515000064], [77.32989636500008, 8.772198290000063], [77.33293879300004, 8.770074589000046], [77.33395363700004, 8.767769887000043], [77.33739303500005, 8.76852776100003], [77.33956611700006, 8.767087970000034], [77.34311400600006, 8.768169999000065], [77.34573658400006, 8.766283737000037], [77.34755313600004, 8.765343504000043], [77.34989933200006, 8.764554029000067], [77.35216999400006, 8.763388120000059], [77.35466842000005, 8.760265067000034], [77.35682592000006, 8.758082838000064], [77.35947544400005, 8.755411474000027], [77.36114090200005, 8.753567787000065], [77.36377710800008, 8.749890675000074], [77.36058081500005, 8.749823268000057], [77.36124742500004, 8.747902425000063], [77.36274684300008, 8.744756363000022], [77.36371114600007, 8.741303825000045], [77.36499231300007, 8.740766905000044], [77.36614184900003, 8.743659], [77.36686752400004, 8.746490700000038], [77.36692686200007, 8.749924599000053], [77.37001480400005, 8.751371515000073], [77.37310248400007, 8.753661815000044], [77.37570679200007, 8.752759027000025], [77.37716868400008, 8.749933181000074], [77.37913079700007, 8.748863587000073], [77.38343446600004, 8.74741698300005], [77.38602868000004, 8.748613908000038], [77.38672596900005, 8.744710939000072], [77.38982665400005, 8.745152535000045], [77.39223095500006, 8.746601180000027], [77.39286390300003, 8.746160678000024], [77.39296496300005, 8.74585935400006], [77.39400394300003, 8.74276145500005], [77.39691545000005, 8.740747714000065], [77.39792754300004, 8.73979435900003], [77.40168785900005, 8.741042432000029], [77.40325003400005, 8.74104283400004], [77.40168687600004, 8.744790572000056], [77.40067517500006, 8.748081359000025], [77.40159397500008, 8.748630107000054], [77.40398306800006, 8.74927064700006], [77.40508603500007, 8.748356745000024], [77.40701629400007, 8.746437444000037], [77.40784347400006, 8.745889137000063], [77.40867043000003, 8.746255010000027], [77.41115121800004, 8.747718289000034], [77.40903727300008, 8.74927189500005], [77.40775023100008, 8.751374199000054], [77.40793350400008, 8.753476859000045], [77.41105776200004, 8.75430036900002], [77.41528534400004, 8.752655814000036], [77.41876717300005, 8.750838318000035], [77.42029139100003, 8.751896687000055], [77.42183880000005, 8.753340453000021], [77.42328937000008, 8.755361571000037], [77.42309529200008, 8.758344647000058], [77.42270803900004, 8.759884241000066], [77.42531972200004, 8.760558372000048], [77.42764600100008, 8.76082963500005], [77.42754587400003, 8.75990163800003], [77.43064268700005, 8.757308378000062], [77.43520614600004, 8.754553230000056], [77.43968796700005, 8.752365417000021], [77.44115519400003, 8.748718057000076], [77.44465925100008, 8.745881570000051], [77.44699106800005, 8.743728133000047], [77.44971101500005, 8.745558043000074], [77.45655505000008, 8.747504273000061], [77.46014004500006, 8.748558416000037], [77.46005832300006, 8.750828021000075], [77.45745061800005, 8.753745810000055], [77.45970312600008, 8.756144382000059], [77.45728725800006, 8.757231268000055], [77.45492420600004, 8.757879454000033], [77.45410892000007, 8.761689060000037], [77.45361993300008, 8.76241851900005], [77.45290571000004, 8.76525898400007], [77.45295957400003, 8.765233563000038], [77.45549394900007, 8.767673947000048], [77.45892786400003, 8.769219717000055], [77.46039961200006, 8.769301210000037], [77.46268855600005, 8.77385625200003], [77.46162505700005, 8.779224311000064], [77.45979318300004, 8.78220891500007], [77.45778132600003, 8.785486758000047], [77.45852434000005, 8.78845190100003], [77.46149760100008, 8.789783165000074], [77.46159603300003, 8.790338320000046], [77.46238911600005, 8.794811286000026], [77.46328104900005, 8.795846555000026], [77.46149679200005, 8.797620976000076], [77.46179375200006, 8.801392027000077], [77.46402363600004, 8.803906261000066], [77.46335408300007, 8.809082105000073], [77.46469185000007, 8.812631427000042], [77.46385584100005, 8.813983170000029], [77.46492248900006, 8.818582504000062], [77.46655872100007, 8.818370381000022], [77.46656484200008, 8.81964423900007], [77.46559379900003, 8.822006715000043], [77.46623185900006, 8.82574599700007], [77.46718914000007, 8.829450030000032], [77.46616027200008, 8.832906956000045], [77.46619556000007, 8.834882398000047], [77.46457793500008, 8.83825220500006], [77.46374425500005, 8.839982185000054], [77.46243927600005, 8.84340613300003], [77.46211274300003, 8.84704643300006], [77.46276748700006, 8.847385897000038], [77.46308155400004, 8.850864708000074], [77.46304183800004, 8.855007968000052], [77.46398512400003, 8.854734448000045], [77.46543938200006, 8.854031012000064], [77.46732592800004, 8.853679395000029], [77.46897657700003, 8.854265846000033], [77.47078448000008, 8.854383254000027], [77.47251381900008, 8.853953424000053], [77.47554025200003, 8.851686564000033], [77.47455781700006, 8.849966653000024], [77.47554036700006, 8.849966718000076], [77.47715172100004, 8.850396781000029], [77.47978482300005, 8.852820353000027], [77.48112105000007, 8.853797607000047], [77.48037421000004, 8.855595589000075], [77.47884139700005, 8.85583003000005], [77.47899851300008, 8.857471710000027], [77.48017740600005, 8.861028727000075], [77.48096328600008, 8.864585720000036], [77.48159205000007, 8.866422858000021], [77.48155265300005, 8.868299050000076], [77.48156692800006, 8.870125076000022], [77.48326224400006, 8.870101071000022], [77.48486067300007, 8.870366076000039], [77.48643492400004, 8.869595409000055], [77.48733106800006, 8.868126242000073], [77.48859048100007, 8.866729338000027], [77.48851790100008, 8.86427264100007], [77.48984993500005, 8.863501952000036], [77.49113648900004, 8.862160887000073], [77.49275686400006, 8.85975580400003], [77.49418372400004, 8.858914037000034], [77.49585241600005, 8.858024165000074], [77.49776293400004, 8.857591261000039], [77.49947997700008, 8.857398858000067], [77.49904467400006, 8.855859581000061], [77.50068915800006, 8.855138046000036], [77.50233363400008, 8.85439245300006], [77.50409903200006, 8.854632950000052], [77.50605789600007, 8.85458482100006], [77.50777491300005, 8.85400756000007], [77.50903242000004, 8.852636614000062], [77.50954025600004, 8.852059373000031], [77.51041408200007, 8.850369274000059], [77.51205838800007, 8.84910553100002], [77.51359059000004, 8.84843646400003], [77.51732770500007, 8.84806463600006], [77.51908410500005, 8.847098197000037], [77.52050418900006, 8.846726447000037], [77.52360585900004, 8.844607718000077], [77.52528752700005, 8.844273101000056], [77.52883770600005, 8.84352949600003], [77.52999606800006, 8.841894036000042], [77.53145345800004, 8.84111340000004], [77.53276148400005, 8.841745135000053], [77.53354643900008, 8.843640606000065], [77.53496657600004, 8.844123653000054], [77.53597568800006, 8.845127080000054], [77.53761991600004, 8.844197731000065], [77.53956286100004, 8.841001129000063], [77.54262727000008, 8.841186631000028], [77.54404729500004, 8.840703289000032], [77.54464506600004, 8.83940235700004], [77.54628935000005, 8.83929065600006], [77.54759715700004, 8.83806396500006], [77.54811985800006, 8.834347151000031], [77.54897074300004, 8.832788359000062], [77.54937892600003, 8.831089657000064], [77.54893314300006, 8.829206431000046], [77.54900693500008, 8.825698342000067], [77.54796720200005, 8.824406026000077], [77.54870942800005, 8.821968738000066], [77.54585034700006, 8.819531906000066], [77.54703820200007, 8.817943890000038], [77.54581288300005, 8.816799299000024], [77.54477311900007, 8.814953066000044], [77.54603525400006, 8.81366046200003], [77.54796581100004, 8.813623294000024], [77.54896807600005, 8.812552276000076], [77.55076791600004, 8.812522504000071], [77.55253804500006, 8.813172312000063], [77.55313702800004, 8.81241383500003], [77.55112145800007, 8.809136773000034], [77.55201999000008, 8.80845951200007], [77.55408997900008, 8.811411537000026], [77.55485221100008, 8.809759212000074], [77.55667659800008, 8.80910889100005], [77.55705763500004, 8.807808731000023], [77.55553260900007, 8.807213079000064], [77.55452483300007, 8.805642269000032], [77.55545052100007, 8.804558714000052], [77.55722055800004, 8.804802218000077], [77.55877255900003, 8.803826902000026], [77.56059700800006, 8.803772442000025], [77.56310178400008, 8.801117654000052], [77.56430015100005, 8.802417554000044], [77.56590691900004, 8.803338181000072], [77.56950146500003, 8.80385215900003], [77.57146205600003, 8.80374345000007], [77.57239781100003, 8.80382333800003], [77.57286961300008, 8.804935114000045], [77.57318691200004, 8.805926340000042], [77.57386531600008, 8.808045642000025], [77.57396039600007, 8.809600985000031], [77.57391374100007, 8.813277302000074], [77.57486169100008, 8.81440828500007], [77.57661490500004, 8.814030875000071], [77.57652050200005, 8.815821916000061], [77.57742087300005, 8.815963128000021], [77.57822632400007, 8.815397376000021], [77.57888999300008, 8.81662267300004], [77.57930457400005, 8.819007493000072], [77.58009131900008, 8.821233130000053], [77.58172466000008, 8.822676543000057], [77.58275309100003, 8.823698984000032], [77.58378128400005, 8.823638599000049], [77.58499118600008, 8.824721150000073], [77.58547524400007, 8.82556323600005], [77.58577806200003, 8.827307715000074], [77.58644378500003, 8.82905211000002], [77.58723012800004, 8.829292555000052], [77.58801665800007, 8.830315038000037], [77.58922630500007, 8.830194438000035], [77.59013364900005, 8.830555162000053], [77.59079947200007, 8.832600333000073], [77.59110246900008, 8.834946375000072], [77.59140564700004, 8.838014298000076], [77.59213206700008, 8.840420390000077], [77.59261692700005, 8.844330461000027], [77.59316246700007, 8.848962396000047], [77.59298277300007, 8.856000778000066], [77.59364378200007, 8.858623660000035], [77.59416214300006, 8.860014479000029], [77.59509498500006, 8.86166277700005], [77.59514727600003, 8.86356888000006], [77.59633895000007, 8.864495874000056], [77.59747888300006, 8.865628945000026], [77.59758521700007, 8.865747848000069], [77.59830795800008, 8.866556027000058], [77.59794597300004, 8.868925888000035], [77.59820551800004, 8.870934968000029], [77.59820605200008, 8.872944117000031], [77.59712992200008, 8.873441330000048], [77.59675575000006, 8.873614211000074], [77.59665256300008, 8.875211253000032], [77.59566867800004, 8.876653971000053], [77.59504737000003, 8.877942046000044], [77.59390791700008, 8.878818117000037], [77.59252828900003, 8.878336453000031], [77.59199101800004, 8.878148878000047], [77.59012618000008, 8.878509949000033], [77.58784723000008, 8.880210541000054], [77.58721523000008, 8.88031125200007], [77.58655218400008, 8.880416910000065], [77.58561962000005, 8.880004992000067], [77.58465473100006, 8.879310485000076], [77.58411706500004, 8.87892348400004], [77.58396670800005, 8.878797022000072], [77.58116372800004, 8.876502857000048], [77.58028316200006, 8.876915180000026], [77.57972807400006, 8.875914863000048], [77.57940827100003, 8.875067325000032], [77.58018927900008, 8.873760434000076], [77.58171622500004, 8.873230350000028], [77.58217697500004, 8.869098174000044], [77.58121794700008, 8.86825077800006], [77.57993928100007, 8.867262181000058], [77.57681418400006, 8.867262836000066], [77.57333398900005, 8.867404803000056], [77.57209117000008, 8.868005432000075], [77.57077720600006, 8.868005683000035], [77.56974744900003, 8.86857094800007], [77.56839830300004, 8.870372358000054], [77.56822117600007, 8.872738623000032], [77.56772415600005, 8.873621636000053], [77.56697881700006, 8.876023318000023], [77.56619765100004, 8.876729795000074], [77.56583082200007, 8.878166038000074], [77.56568597400008, 8.879789811000023], [77.56434339100008, 8.879429213000037], [77.56336354000007, 8.878419048000069], [77.56212976800003, 8.877769757000067], [77.55842868800005, 8.877156938000041], [77.55472789200007, 8.878384331000063], [77.55313149600005, 8.879142311000066], [77.55222457300005, 8.880441437000059], [77.55178942800006, 8.882353912000042], [77.55208005600008, 8.884843618000048], [77.55208020900005, 8.885926117000054], [77.55157242700005, 8.887405601000069], [77.55066552700004, 8.889065556000048], [77.55012151300008, 8.891014126000073], [77.55033940300007, 8.892313095000077], [77.55175467800007, 8.89328714900006], [77.55393195500005, 8.894225006000056], [77.55402006600008, 8.894903272000022], [77.55806243500007, 8.894784378000054], [77.56232161200006, 8.893777663000037], [77.56456736000007, 8.89277094800002], [77.56735518600004, 8.890912399000058], [77.56936861500003, 8.88882153000003], [77.57010406000006, 8.887580465000042], [77.57127153600004, 8.888044602000036], [77.57137535500004, 8.889126431000022], [77.56961436400007, 8.891135912000038], [77.57027038800004, 8.891675717000055], [77.57178635500003, 8.891722538000067], [77.57301843500005, 8.89355957400005], [77.57453449700006, 8.894030370000053], [77.57505589900006, 8.895443554000053], [77.57387159200005, 8.895679338000036], [77.57202428200003, 8.897140098000023], [77.57022422600005, 8.898035524000022], [77.56828201100006, 8.898789639000029], [77.57022456700008, 8.899825689000068], [77.57093546100003, 8.901238842000055], [77.57181751800005, 8.902081897000073], [77.57216743900005, 8.902416346000052], [77.57278366000008, 8.904159281000034], [77.57302089200005, 8.905949399000065], [77.57415815200005, 8.907174024000028], [77.57463220500006, 8.908634326000026], [77.57425344500007, 8.909859251000057], [77.57392190800005, 8.910330412000064], [77.57093744000008, 8.911508732000073], [77.56790563800007, 8.91301680500004], [77.56572666700004, 8.914948689000028], [77.56591629300004, 8.915608189000068], [77.56866390800008, 8.914335734000076], [77.57117464100008, 8.913157523000052], [77.57316436700006, 8.912733150000065], [77.57515412800007, 8.912497206000069], [77.57643347700008, 8.913392027000043], [77.57804421700007, 8.913109035000048], [77.57956015200006, 8.91259050800005], [77.58083909700008, 8.911600932000056], [77.58230759200006, 8.910846857000024], [77.58420262800007, 8.910799323000049], [77.58576612900004, 8.911175842000034], [77.58785076100008, 8.91150512300004], [77.58946175900007, 8.91235271000005], [77.59093039200008, 8.912211026000023], [77.59277814100005, 8.912493227000027], [77.59585792400003, 8.913717294000037], [77.59713740200004, 8.914894701000037], [77.59761154300008, 8.916307862000053], [77.59765942100006, 8.918192231000035], [77.59713849700006, 8.919040339000048], [77.59737024600008, 8.920815747000063], [77.59756876300008, 8.921752139000034], [77.59702380000004, 8.92278729800006], [77.59766864300008, 8.924561442000027], [77.59796648100007, 8.926187819000063], [77.59747149900005, 8.928800132000049], [77.59707562100004, 8.931313846000023], [77.59667938700005, 8.932496825000044], [77.59578735000008, 8.93323635300004], [77.59553996800008, 8.935010730000045], [77.59554103400006, 8.939101506000043], [77.59539367400004, 8.94427662000004], [77.59564196100007, 8.94595229600003], [77.59723726300007, 8.951848581000036], [77.59767428400005, 8.952164414000038], [77.59791342700004, 8.952337241000066], [77.60000293600007, 8.95215336800004], [77.60086307300008, 8.951175460000059], [77.60227640600004, 8.950502920000076], [77.60381273500008, 8.95013586400006], [77.60473468100008, 8.950441128000023], [77.60590235300003, 8.95037969200007], [77.60756132300008, 8.949096015000066], [77.60842161400006, 8.948729136000054], [77.61026504900008, 8.947812021000061], [77.61081793800008, 8.947078599000065], [77.61180119000005, 8.946894990000033], [77.61247713900008, 8.946650366000028], [77.61284574700005, 8.946222521000038], [77.61321407100007, 8.944878106000033], [77.61315172800005, 8.942006203000062], [77.61315103100003, 8.939745328000072], [77.61326787100006, 8.936922457000037], [77.61320495000007, 8.935370325000065], [77.61426607200008, 8.93412827900005], [77.61450918800006, 8.934350534000032], [77.61582756000007, 8.935555774000022], [77.61595313000004, 8.937728745000072], [77.61595391500003, 8.940212186000053], [77.61670391700005, 8.942384960000027], [77.61800439100006, 8.944901120000054], [77.61811725000007, 8.94574066000007], [77.61963713200004, 8.945572257000038], [77.62025656700007, 8.946187745000032], [77.62042581700007, 8.947307124000076], [77.62070776800005, 8.94876229700003], [77.62121443600006, 8.948818103000065], [77.62234032400005, 8.948817733000055], [77.62315589300005, 8.949103626000067], [77.62329744300007, 8.949153245000048], [77.62397363900004, 8.951112028000068], [77.62397475800003, 8.95441435600003], [77.62645194400005, 8.954973235000068], [77.62814078600007, 8.954916682000032], [77.63118051500004, 8.954299930000047], [77.63253156100006, 8.95418750500005], [77.63309059800008, 8.954778759000021], [77.63427739100007, 8.956033940000054], [77.63422183500006, 8.958048939000037], [77.63512300300005, 8.959224015000075], [77.63692451800006, 8.959335296000063], [77.63936623600006, 8.959654685000032], [77.64016962000005, 8.961303840000028], [77.64118652700006, 8.961516287000052], [77.64279174800004, 8.960770753000077], [77.64407615500005, 8.960770256000046], [77.64584247100004, 8.961408063000022], [77.64637774700003, 8.961673894000057], [77.64841122500007, 8.961247417000038], [77.64958860000007, 8.96124694200006], [77.65087314100003, 8.961565671000074], [77.65183671400007, 8.96220377700007], [77.65210460900005, 8.96294858300007], [77.65360302600004, 8.962788339000042], [77.65488741800004, 8.962734595000029], [77.65788429300005, 8.962520495000035], [77.65868705100007, 8.962520151000035], [77.66066704900004, 8.962200047000067], [77.66039897300004, 8.961082789000045], [77.66039771300007, 8.958209542000077], [77.66012882500007, 8.955229993000046], [77.65948626100004, 8.954378937000058], [77.65957859400004, 8.951924073000043], [77.66113322900003, 8.949634273000072], [77.66145309400008, 8.949072466000075], [77.66219023600007, 8.947777763000033], [77.66206502000006, 8.94604550500003], [77.66144236400004, 8.945117753000034], [77.66131745200005, 8.944066046000046], [77.66144130100008, 8.942704889000026], [77.66200036100008, 8.940539254000043], [77.66218122600003, 8.940487788000041], [77.66722647700004, 8.939052094000033], [77.66971510200005, 8.93837041300003], [77.67164312900007, 8.936451608000027], [77.67369564000006, 8.934656472000029], [77.67425452800006, 8.932305214000053], [77.67649447200006, 8.932180419000076], [77.67854705600007, 8.93063273000007], [77.68053773600008, 8.92976561100005], [77.68209346800006, 8.930136061000042], [77.68481153500005, 8.929083216000038], [77.68681558900005, 8.92788624800005], [77.68793754400008, 8.926609986000074], [77.68930066500008, 8.92652956400002], [77.68929988500008, 8.925014675000057], [77.69058173800005, 8.922861284000021], [77.69402999500005, 8.923417615000062], [77.69651582400007, 8.92357577100006], [77.69819997500008, 8.92405326100004], [77.69903824500005, 8.924469460000068], [77.69948328900006, 8.924690422000026], [77.70020508900006, 8.924929226000074], [77.70252709500005, 8.926914081000064], [77.70249, 8.92721], [77.69817, 8.92836], [77.69651, 8.9293], [77.6954, 8.92991], [77.6953, 8.93075], [77.69353, 8.94489], [77.69321, 8.94743], [77.69315, 8.94972], [77.69314, 8.95013], [77.69302, 8.95469], [77.69295, 8.95708], [77.6908, 8.95864], [77.68895, 8.95998], [77.68461, 8.96312], [77.6836, 8.96509], [77.6834, 8.96547], [77.68312, 8.96601], [77.68263, 8.96698], [77.68243, 8.96738], [77.68308, 8.96856], [77.68313, 8.96866], [77.68417, 8.97059], [77.68441, 8.97191], [77.68499, 8.97524], [77.68569, 8.97543], [77.69239, 8.97726], [77.6936, 8.98062], [77.69913, 8.97975], [77.7019, 8.97707], [77.70361, 8.97542], [77.70467, 8.9744], [77.7055, 8.9736], [77.70551, 8.97309], [77.70555, 8.96935], [77.70809, 8.96879], [77.70968, 8.96845], [77.71074, 8.96822], [77.71206, 8.96793], [77.71383, 8.96754], [77.71412, 8.96748], [77.71642, 8.96698], [77.71961, 8.96695], [77.72092, 8.96667], [77.72137, 8.96837], [77.72307, 8.96966], [77.7238, 8.97055], [77.72414, 8.97097], [77.72545, 8.97258], [77.7243, 8.97433], [77.72286, 8.97649], [77.72518, 8.98022], [77.72581, 8.98042], [77.72899, 8.98146], [77.73078, 8.98205], [77.73241, 8.98497], [77.73057, 8.98568], [77.72941, 8.98613], [77.72981, 8.98842], [77.72908, 8.98968], [77.72933, 8.99112], [77.7292, 8.99486], [77.72659, 8.99854], [77.72464, 9.00129], [77.72433, 9.00172], [77.71483, 9.00286], [77.71045, 9.00238], [77.70876, 9.00253], [77.70873, 9.00253], [77.70532, 9.00283], [77.70346, 9.00242], [77.69982, 9.00245], [77.69842, 9.00328], [77.69544, 9.00505], [77.6924, 9.00686], [77.69211, 9.00703], [77.69183, 9.0072], [77.69048, 9.008], [77.68991, 9.00842], [77.68965, 9.00861], [77.68888, 9.00917], [77.69055, 9.01479], [77.69194, 9.0151], [77.69485, 9.01575], [77.69519, 9.01703], [77.69535, 9.0176], [77.69667, 9.01788], [77.69808, 9.01818], [77.69793, 9.02364], [77.69743, 9.02548], [77.69718, 9.02645], [77.69676, 9.02799], [77.69631, 9.0285], [77.69535, 9.0296], [77.69519, 9.02978], [77.69429, 9.0308], [77.69567, 9.03256], [77.69754, 9.0334], [77.70024, 9.03462], [77.70196, 9.03488], [77.70387, 9.03517], [77.70397, 9.03561], [77.7046, 9.03829], [77.70526, 9.04112], [77.70986, 9.04244], [77.7136, 9.04506], [77.71345, 9.04602], [77.71343, 9.04618], [77.71306, 9.04855], [77.71017, 9.05442], [77.70995, 9.05486], [77.70338, 9.06252], [77.7039, 9.06443], [77.70629, 9.07317], [77.70702, 9.07335], [77.70871, 9.0738], [77.70963, 9.07215], [77.70974, 9.07195], [77.70978, 9.07187], [77.71016, 9.07186], [77.7112, 9.07185], [77.73664, 9.0715], [77.73769, 9.07149], [77.73799, 9.07184], [77.73949, 9.07363], [77.7403, 9.07459], [77.74295, 9.07434], [77.7432, 9.07432], [77.74324, 9.07453], [77.74367, 9.07657], [77.74631, 9.07756], [77.7466, 9.07767], [77.74556, 9.08137], [77.74517, 9.08277], [77.7438, 9.08767], [77.74366, 9.08904], [77.74251, 9.10014], [77.74236, 9.10152], [77.74227, 9.10241], [77.74203, 9.10476], [77.73985, 9.10467], [77.73897, 9.10463], [77.72765, 9.10414], [77.72507, 9.10658], [77.72411, 9.1075], [77.72206, 9.10625], [77.72111, 9.10467], [77.72019, 9.10448], [77.71696, 9.10382], [77.71668, 9.10376], [77.7161, 9.10364], [77.71395, 9.10385], [77.71037, 9.10419], [77.7099, 9.10389], [77.70899, 9.10332], [77.70859, 9.10306], [77.70564, 9.1012], [77.7047, 9.10169], [77.70426, 9.10192], [77.70213, 9.10302], [77.6991, 9.102], [77.69899, 9.10197], [77.69882, 9.10191], [77.69759, 9.1015], [77.6964, 9.1011], [77.69476, 9.10127], [77.69431, 9.10132], [77.69055, 9.10171], [77.68878, 9.10264], [77.68522, 9.10463], [77.6822, 9.10514], [77.68151, 9.10765], [77.67946, 9.10622], [77.67846, 9.1093], [77.67863, 9.11148], [77.67908, 9.11742], [77.67882, 9.11875], [77.67855, 9.12014], [77.67777, 9.12418], [77.67726, 9.12402], [77.67656, 9.1238], [77.67649, 9.12425], [77.67643, 9.12456], [77.67616, 9.12615], [77.67596, 9.12622], [77.67418, 9.12685], [77.67453, 9.12747], [77.67553, 9.12924], [77.67645, 9.13087], [77.67652, 9.13237], [77.67657, 9.13351], [77.6766, 9.1343], [77.67672, 9.13686], [77.6814, 9.13672], [77.68272, 9.13669], [77.68435, 9.13664], [77.68447, 9.13664], [77.68459, 9.13618], [77.68529, 9.13343], [77.68542, 9.13292], [77.6912, 9.13317], [77.69291, 9.13324], [77.69354, 9.13328], [77.69371, 9.13328], [77.6946, 9.13331], [77.6957, 9.13336], [77.69732, 9.13343], [77.69813, 9.13397], [77.69941, 9.13484], [77.70108, 9.13597], [77.70244, 9.13689], [77.69982, 9.13955], [77.69954, 9.13983], [77.69932, 9.14005], [77.69917, 9.1402], [77.69534, 9.14408], [77.69519, 9.14431], [77.69307, 9.14761], [77.69269, 9.14821], [77.69267, 9.14892], [77.69259, 9.15271], [77.69257, 9.15338], [77.69321, 9.1584], [77.69493, 9.15876], [77.69568, 9.15892], [77.69756, 9.1611], [77.69774, 9.16131], [77.69826, 9.16192], [77.69917, 9.16297], [77.69975, 9.16324], [77.70454, 9.16551], [77.70486, 9.16609], [77.70704, 9.16999], [77.70669, 9.17741], [77.70776, 9.18443], [77.70783, 9.18484], [77.70814, 9.18715], [77.7082, 9.18729], [77.70822, 9.18742], [77.70824, 9.18756], [77.71579, 9.18782], [77.71638, 9.1904], [77.72089, 9.1919], [77.73018, 9.195], [77.73896, 9.21005], [77.73905, 9.21241], [77.73979, 9.23095], [77.74272, 9.23931], [77.74217, 9.24297], [77.74021, 9.25604], [77.74034, 9.25646], [77.74106, 9.25883], [77.74244, 9.26337], [77.74331, 9.26626], [77.74364, 9.26735], [77.74327, 9.26773], [77.74311, 9.26789], [77.74228, 9.2757], [77.74223, 9.2762], [77.74202, 9.27617], [77.7413, 9.27607], [77.74017, 9.27983], [77.73825, 9.28056], [77.73589, 9.28146], [77.73574, 9.28151], [77.73551, 9.28151], [77.73364, 9.28152], [77.73267, 9.28153], [77.72826, 9.28156], [77.72802, 9.28156], [77.72592, 9.28157], [77.725, 9.28265], [77.72467, 9.28304], [77.72005, 9.28384], [77.71944, 9.28395], [77.7182, 9.28638], [77.71805, 9.28667], [77.71763, 9.28662], [77.71617, 9.28644], [77.71497, 9.28629], [77.71349, 9.28611], [77.71316, 9.29081], [77.7129, 9.2908], [77.70791, 9.2906], [77.70193, 9.29036], [77.69941, 9.29026], [77.69867, 9.28942], [77.69812, 9.28879], [77.69775, 9.28888], [77.6963, 9.28922], [77.69618, 9.28925], [77.69587, 9.28933], [77.69504, 9.28952], [77.69295, 9.28945], [77.69258, 9.28944], [77.68679, 9.28924], [77.68486, 9.28917], [77.68328, 9.28551], [77.67929, 9.28783], [77.67486, 9.28731], [77.66929, 9.28665], [77.66406, 9.28603], [77.66171, 9.28575], [77.66176, 9.28522], [77.66178, 9.28504], [77.66186, 9.2842], [77.65748, 9.28352], [77.65486, 9.28455], [77.65447, 9.28549], [77.65363, 9.28757], [77.65346, 9.28759], [77.64943, 9.28799], [77.64815, 9.28811], [77.64662, 9.28827], [77.64637, 9.29025], [77.64627, 9.29102], [77.64475, 9.2915], [77.64141, 9.29257], [77.63886, 9.29338], [77.63637, 9.29417], [77.62652, 9.29311], [77.62605, 9.29306], [77.62581, 9.29373], [77.62511, 9.29569], [77.61804, 9.29655], [77.61783, 9.29882], [77.61773, 9.29982], [77.61534, 9.29942], [77.61497, 9.29936], [77.61462, 9.30072], [77.61446, 9.30136], [77.6134, 9.30158], [77.61109, 9.30207], [77.60958, 9.30239], [77.60889, 9.3013], [77.60869, 9.30099], [77.60765, 9.30101], [77.60642, 9.30104], [77.6051, 9.30108], [77.60487, 9.30477], [77.60472, 9.30705], [77.59068, 9.30869], [77.58964, 9.30882], [77.58885, 9.30891], [77.58924, 9.31444], [77.59147, 9.3152], [77.59429, 9.31617], [77.59395, 9.32126], [77.59392, 9.32171], [77.59337, 9.32522], [77.5934, 9.32641], [77.59343, 9.3266], [77.59355, 9.32734], [77.59331, 9.331], [77.59259, 9.34211], [77.59257, 9.34241], [77.59243, 9.34451], [77.59239, 9.34516], [77.59053, 9.34575], [77.59024, 9.3465], [77.58978, 9.34767], [77.58935, 9.34876], [77.58853, 9.3486], [77.58228, 9.34739], [77.58007, 9.34635], [77.57962, 9.34614], [77.57536, 9.34412], [77.57399, 9.34527], [77.57383, 9.3454], [77.57407, 9.34565], [77.57565, 9.3473], [77.57592, 9.34758], [77.57592, 9.34769], [77.5759, 9.34839], [77.57572, 9.35387], [77.57567, 9.35532], [77.57566, 9.35562], [77.57441, 9.3555], [77.57411, 9.35547], [77.5722, 9.35529], [77.57074, 9.35515], [77.56968, 9.35505], [77.56808, 9.35489], [77.56791, 9.35487], [77.56699, 9.35478], [77.56344, 9.35444], [77.56148, 9.35425], [77.56058, 9.35528], [77.5607, 9.35471], [77.56092, 9.35408], [77.56173, 9.35183], [77.5632, 9.34707], [77.56455, 9.34294], [77.56451, 9.34235], [77.56441, 9.34104], [77.56213, 9.33818], [77.55979, 9.337], [77.55694, 9.33624], [77.55563, 9.33646], [77.55561, 9.33646], [77.55479, 9.33662], [77.55398, 9.33723], [77.5539, 9.33725], [77.55215, 9.33774], [77.55102, 9.33807], [77.54985, 9.33917], [77.54882, 9.34011], [77.54791, 9.34026], [77.54712, 9.34032], [77.54607, 9.33987], [77.54526, 9.33913], [77.544, 9.33793], [77.54264, 9.33776], [77.54005, 9.33794], [77.54087, 9.33868], [77.54133, 9.33961], [77.54111, 9.34015], [77.54039, 9.34031], [77.53813, 9.33985], [77.5371, 9.33962], [77.53644, 9.33905], [77.53558, 9.33883], [77.53439, 9.33825], [77.53372, 9.3377], [77.53287, 9.33732], [77.53147, 9.33742], [77.53024, 9.33769], [77.52812, 9.33823], [77.52763, 9.33835], [77.5253, 9.33937], [77.52305, 9.3363], [77.52257, 9.33611], [77.51978, 9.33502], [77.51444, 9.33501], [77.51193, 9.335], [77.51001, 9.33237], [77.50595, 9.33566], [77.49757, 9.33546], [77.49264, 9.33682], [77.49215, 9.33695], [77.49127, 9.33693], [77.48992, 9.3372], [77.48639, 9.33829], [77.48251, 9.33968], [77.48239, 9.34038], [77.47902, 9.34121], [77.47707, 9.34169], [77.47671, 9.34025], [77.47647, 9.33926], [77.47607, 9.3376], [77.47586, 9.33675], [77.47562, 9.33578], [77.47556, 9.33556], [77.47447, 9.33111], [77.47401, 9.32926], [77.47315, 9.32948], [77.4704, 9.3302], [77.46633, 9.33125], [77.46305, 9.33302], [77.46138, 9.33272], [77.46075, 9.33261], [77.45933, 9.33402], [77.46179, 9.33927], [77.46565, 9.34751], [77.46653, 9.3478], [77.46718, 9.34801], [77.4683, 9.34838], [77.46702, 9.34952], [77.46694, 9.34959], [77.46641, 9.35006], [77.46652, 9.35051], [77.46678, 9.35153], [77.4665, 9.35172], [77.46564, 9.3523], [77.46508, 9.35269], [77.46465, 9.35299], [77.46463, 9.35301], [77.46391, 9.35363], [77.4634, 9.35413], [77.46314, 9.35438], [77.46258, 9.35492], [77.4624, 9.35509], [77.46138, 9.35567], [77.4604, 9.35623], [77.45968, 9.35666], [77.45876, 9.35742], [77.45779, 9.35804], [77.45653, 9.35887], [77.45562, 9.35958], [77.45493, 9.36025], [77.45451, 9.36144], [77.45431, 9.36225], [77.45439, 9.36278], [77.45447, 9.36331], [77.45461, 9.36395], [77.45463, 9.36488], [77.45448, 9.36548], [77.45383, 9.36578], [77.45287, 9.36656], [77.45184, 9.36751], [77.45116, 9.36826], [77.45061, 9.36898], [77.45056, 9.36905], [77.45074, 9.36921], [77.45177, 9.37011], [77.45226, 9.37037], [77.45276, 9.37072], [77.45348, 9.37095], [77.45524, 9.37066], [77.45675, 9.37011], [77.45845, 9.36985], [77.45921, 9.37028], [77.45959, 9.37106], [77.45959, 9.37129], [77.45961, 9.37194], [77.45946, 9.37303], [77.45901, 9.3741], [77.45864, 9.37497], [77.45818, 9.37594], [77.4576, 9.37654], [77.45744, 9.37671], [77.45601, 9.37838], [77.45498, 9.37962], [77.45411, 9.38109], [77.45318, 9.38238], [77.45197, 9.38355], [77.45098, 9.38423], [77.44991, 9.38528], [77.44945, 9.38569], [77.4492, 9.38591], [77.44876, 9.38667], [77.44831, 9.38744], [77.44818, 9.38806], [77.44816, 9.3881], [77.44778, 9.3889], [77.44736, 9.38949], [77.44688, 9.38999], [77.44636, 9.39068], [77.44601, 9.39125], [77.44538, 9.39204], [77.44438, 9.39279], [77.44335, 9.39363], [77.44199, 9.39425], [77.4406, 9.39496], [77.43976, 9.3956], [77.43901, 9.39639], [77.43852, 9.3968], [77.43791, 9.39706], [77.43737, 9.39696], [77.43568, 9.39753], [77.43456, 9.39819], [77.43315, 9.39975], [77.43245, 9.40011], [77.43184, 9.40043], [77.43084, 9.40107], [77.43008, 9.401], [77.42977, 9.40052], [77.42931, 9.40006], [77.42889, 9.39994], [77.42777, 9.39923], [77.42701, 9.39847], [77.42696, 9.39797], [77.42693, 9.39763], [77.42694, 9.39695], [77.42626, 9.39652], [77.42602, 9.3963], [77.42377, 9.39421], [77.42353, 9.39678], [77.42351, 9.39701], [77.42347, 9.39737], [77.42146, 9.39956], [77.42104, 9.39938], [77.41272, 9.39589], [77.41201, 9.39559], [77.40651, 9.39534], [77.40261, 9.39433], [77.39583, 9.39468], [77.3901, 9.39291], [77.38499, 9.39781], [77.38358, 9.39944], [77.38295, 9.40138], [77.38083, 9.40069], [77.37995, 9.40071], [77.37868, 9.40074], [77.37826, 9.40075], [77.37608, 9.40081], [77.37232, 9.40606], [77.37224, 9.40617], [77.37205, 9.40643], [77.37187, 9.40656], [77.37132, 9.40649], [77.36769, 9.40606], [77.36387, 9.40832], [77.36317, 9.40967], [77.36305, 9.4099], [77.36232, 9.41132], [77.36211, 9.41173], [77.36126, 9.41195], [77.35845, 9.41268], [77.35547, 9.41163], [77.35093, 9.41261], [77.34999, 9.41552], [77.34733, 9.41821], [77.34124, 9.41864], [77.33882, 9.4161], [77.3385, 9.41225], [77.34058, 9.40961], [77.34116, 9.40887], [77.34192, 9.40791], [77.34459, 9.40452], [77.34481, 9.40027], [77.34207, 9.39399], [77.3433, 9.39092], [77.343, 9.38913], [77.34113, 9.38833], [77.33699, 9.38656], [77.33685, 9.37809], [77.33678, 9.37368], [77.33802, 9.37204], [77.3403, 9.36899], [77.33951, 9.36801], [77.33922, 9.36765], [77.33728, 9.36524], [77.33759, 9.36334], [77.33789, 9.36152], [77.32695, 9.34503], [77.32867, 9.33829], [77.32435, 9.33801], [77.31742, 9.33531], [77.30782, 9.33801], [77.30413, 9.33723], [77.30264, 9.33753], [77.3014, 9.33779], [77.30188, 9.33486], [77.30242, 9.33155], [77.30026, 9.33032], [77.29956, 9.32993], [77.29995, 9.32943], [77.30267, 9.32592], [77.30413, 9.32038], [77.30407, 9.31843], [77.30154, 9.31537], [77.30083, 9.31121], [77.29502, 9.30555], [77.29076, 9.30447], [77.28741, 9.30203], [77.28414, 9.30114], [77.28424, 9.29837], [77.28447, 9.29195], [77.29152, 9.27344], [77.28725, 9.27292], [77.28501, 9.27265], [77.28523, 9.26811], [77.28333, 9.26553], [77.28309, 9.25391], [77.28114, 9.2522], [77.27992, 9.25113], [77.28113, 9.24208], [77.27698, 9.23461], [77.27889, 9.22719], [77.28435, 9.21904], [77.27572, 9.21027], [77.27086, 9.20353], [77.26782, 9.20041], [77.2646, 9.19941], [77.25725, 9.20009], [77.2571, 9.19669], [77.25661, 9.19547], [77.25416, 9.18932], [77.26088, 9.18627], [77.26597, 9.18593], [77.26993, 9.17511], [77.26791, 9.16833], [77.26727, 9.16619], [77.26889, 9.1567], [77.26948, 9.15319], [77.26374, 9.14937], [77.26303, 9.14564], [77.26178, 9.14473], [77.25536, 9.14007], [77.25028, 9.12799], [77.24787, 9.12488], [77.24626, 9.12464], [77.24343, 9.1242], [77.23562, 9.11873], [77.23475, 9.11812], [77.22942, 9.11638], [77.22705, 9.10758], [77.22337, 9.10613], [77.22253, 9.1058], [77.22102, 9.1032], [77.22093, 9.10304], [77.21995, 9.10136], [77.21355, 9.09838], [77.21148, 9.09386], [77.20747, 9.08513], [77.20771, 9.08371], [77.20836, 9.07992], [77.21062, 9.07497], [77.2093, 9.07206], [77.20922, 9.07187]]]}}