{"type": "Feature", "properties": {"shapeName": "Ranipet", "shapeISO": "", "shapeID": "76128533B22687502928564", "shapeGroup": "IND", "shapeType": "ADM2"}, "geometry": {"type": "Polygon", "coordinates": [[[79.18691766900008, 13.037346053000022], [79.18817688300004, 13.036830020000025], [79.19054268600007, 13.034679397000048], [79.19369759300008, 13.031133296000064], [79.19477747700006, 13.027398435000066], [79.19676861300007, 13.025486914000055], [79.19726947300006, 13.02792306200007], [79.19860023000007, 13.03042113600003], [79.19944291700006, 13.032312724000064], [79.20117751800007, 13.033249260000048], [79.20339548900006, 13.034114604000024], [79.20540754600006, 13.035184690000051], [79.20707164400005, 13.035918379000066], [79.21084810300005, 13.035941666000042], [79.21218695200008, 13.035949908000077], [79.21342584300004, 13.035195659000067], [79.21444350100006, 13.032477680000056], [79.21525760900005, 13.030303294000078], [79.21704652700004, 13.02913850300007], [79.21987362300007, 13.028169609000031], [79.22352721500005, 13.026788168000053], [79.22634173500006, 13.02405729800006], [79.22823998900003, 13.023005657000056], [79.22882026200006, 13.022684179000066], [79.22876233500006, 13.020172926000043], [79.22809371600005, 13.01712165500004], [79.22789473400007, 13.01395169600005], [79.22829734200008, 13.012680259000035], [79.22873648000007, 13.012992115000031], [79.23030697700005, 13.014107398000021], [79.23266329900008, 13.014667110000062], [79.23390068000003, 13.015004194000028], [79.23531201000003, 13.01499405100003], [79.23696186000006, 13.015443479000055], [79.23825516800008, 13.015376508000031], [79.24025083600003, 13.014843176000056], [79.24251598000006, 13.015797767000038], [79.24379973600008, 13.015728490000072], [79.24447229300006, 13.013051266000048], [79.24522476100003, 13.012026322000054], [79.24542563500006, 13.011752707000028], [79.24786252800004, 13.012430591000054], [79.25054989300008, 13.012709201000064], [79.25242878200004, 13.01329172800007], [79.25445716100006, 13.01352539800007], [79.25654088200008, 13.014404484000067], [79.25711912600008, 13.014513517000069], [79.25806298500004, 13.01469148600006], [79.25963359800005, 13.014680049000049], [79.26150675900004, 13.014467676000038], [79.26317906000008, 13.014505155000052], [79.26439501800007, 13.014496276000045], [79.26617953500005, 13.017052956000043], [79.26716065100004, 13.019305441000029], [79.26929918500008, 13.020202578000067], [79.27128811600005, 13.019380316000024], [79.27267310800005, 13.018214052000076], [79.27421886600007, 13.017046600000072], [79.27577229400003, 13.016930088000038], [79.27673043100003, 13.01602968900005], [79.27784856900007, 13.01502300900006], [79.28036741800008, 13.015004464000071], [79.28112272500005, 13.015682052000045], [79.28315288500005, 13.016736348000052], [79.28256053900003, 13.015470321000066], [79.28216114000008, 13.014012311000045], [79.28155004800004, 13.010300794000045], [79.28086967400003, 13.008218936000048], [79.27959386600008, 13.006565357000056], [79.27841234000005, 13.004161108000062], [79.27804321900004, 13.003707321000036], [79.27566225700008, 13.000985810000032], [79.27537264400007, 13.000652005000063], [79.27375068400005, 12.998782549000055], [79.27268510600004, 12.99687820400004], [79.27175502300008, 12.99567015100007], [79.27155283400003, 12.994082949000074], [79.27164240400003, 12.99317975100007], [79.27175996200003, 12.991994332000047], [79.27187520000007, 12.990373650000038], [79.27189013900005, 12.988068387000055], [79.27048725600008, 12.987362210000072], [79.27026774700005, 12.98485400100003], [79.27040857900005, 12.98310592100006], [79.27078699400005, 12.980241603000024], [79.27129965800003, 12.978268849000074], [79.27141440900004, 12.977827279000053], [79.27135511400007, 12.97391191500003], [79.27223633600005, 12.970943016000035], [79.27222118700007, 12.968868697000062], [79.27215291300007, 12.967161650000037], [79.27206715000005, 12.965017313000033], [79.27163801300003, 12.961550953000028], [79.26836413000007, 12.959412018000023], [79.26794844900007, 12.96023428500007], [79.26602345400005, 12.960792930000025], [79.26469070000007, 12.961179702000038], [79.26302569600006, 12.961662895000075], [79.26272492600003, 12.961372532000041], [79.26219712100004, 12.961357199000076], [79.26181705200008, 12.961408601000073], [79.26160464400004, 12.960667744000034], [79.26139699700008, 12.95984358800007], [79.26081667300008, 12.958802366000043], [79.26029217500007, 12.958243615000072], [79.25992512500005, 12.95772065400007], [79.25954935400006, 12.956480662000047], [79.25944204300004, 12.955634786000076], [79.25904113500007, 12.954328675000056], [79.25854300300006, 12.952742244000035], [79.25833667800003, 12.952509723000048], [79.25807911100003, 12.95243522900006], [79.25748642200006, 12.952582853000024], [79.25701255500007, 12.952984528000059], [79.25670116900005, 12.953465326000071], [79.25638516300006, 12.953964988000052], [79.25606454700005, 12.954207053000061], [79.25572110400003, 12.954190137000069], [79.25561211100006, 12.95378315000005], [79.25543621800006, 12.953281570000058], [79.25536488000006, 12.95267431600007], [79.25536385100008, 12.952625763000071], [79.25418340900006, 12.95270456000003], [79.25148791000004, 12.953136613000027], [79.24886075800003, 12.954024426000046], [79.24828638600007, 12.95421852800007], [79.24656199500004, 12.954430158000036], [79.24355383900007, 12.954949769000052], [79.24062049500003, 12.956464502000074], [79.23950425100008, 12.956538934000037], [79.23832341800005, 12.957045296000047], [79.23619719400006, 12.957857170000068], [79.23485054400004, 12.957834251000065], [79.23345566500006, 12.957810511000048], [79.23223386400008, 12.957321441000033], [79.23158995400007, 12.957193307000068], [79.23053854400007, 12.95686895600005], [79.22972354300003, 12.956476524000038], [79.22894451400003, 12.956382541000039], [79.22803107100003, 12.956422279000037], [79.22610242800005, 12.956469284000036], [79.22511052600004, 12.956447776000061], [79.22495163300005, 12.956444330000068], [79.22315717000004, 12.956324403000053], [79.22023377400006, 12.956067116000042], [79.21928353100003, 12.956211092000046], [79.21699136500007, 12.956501825000032], [79.21562049500005, 12.956511586000033], [79.21494885400006, 12.956488926000077], [79.21545510200008, 12.951329866000037], [79.21488063200007, 12.948236981000036], [79.21470119200006, 12.947874773000024], [79.21447231700006, 12.947299373000021], [79.21341791700007, 12.944648566000069], [79.20946153400007, 12.94099759900007], [79.20652946300004, 12.939392475000034], [79.20455226900003, 12.938864504000037], [79.20099258100004, 12.937805728000058], [79.19680524000006, 12.937293295000075], [79.19165396000005, 12.934387417000039], [79.18823146300008, 12.929955072000041], [79.18696422900007, 12.926527007000061], [79.18616609700007, 12.925534775000074], [79.18518664800007, 12.921616695000068], [79.18479821200003, 12.921568096000044], [79.18417436800007, 12.921487996000053], [79.18368779300005, 12.921466649000024], [79.18335253000004, 12.921481690000064], [79.18292556700004, 12.921492251000075], [79.18267902800005, 12.921591594000063], [79.18249394400004, 12.921688611000036], [79.18241265100005, 12.921786960000077], [79.18232714200008, 12.921978800000034], [79.18216877200007, 12.922190529000034], [79.18202147400007, 12.922318077000057], [79.18189707800008, 12.922442901000068], [79.18188306400003, 12.92250709700005], [79.18188352800007, 12.922571967000067], [79.18186979400008, 12.922653086000025], [79.18180246300005, 12.922691804000067], [79.18174359200003, 12.922664808000036], [79.18173087900004, 12.922589999000024], [79.18170859100007, 12.922507310000071], [79.18164112300008, 12.922488635000036], [79.18145175500007, 12.92261428200004], [79.18124850100008, 12.922759137000071], [79.18110164400008, 12.92287880200007], [79.18097538500007, 12.923010396000052], [79.18085546800006, 12.923068508000028], [79.18069064700006, 12.92306700100005], [79.18054864500004, 12.923033548000035], [79.18028683400007, 12.922848004000059], [79.18004304900006, 12.922683997000036], [79.17974854600004, 12.922511662000034], [79.17956245800008, 12.922330849000048], [79.17927351200007, 12.922188865000066], [79.17910526100007, 12.922130457000037], [79.17894932800004, 12.922045936000075], [79.17878972500006, 12.92203833900004], [79.17853398500006, 12.922028932000046], [79.17825904700004, 12.921983517000058], [79.17808176000005, 12.921919918000071], [79.17763613100004, 12.921820250000053], [79.17761556500005, 12.921873551000033], [79.17761456900007, 12.92195849500007], [79.17758490500006, 12.922008706000042], [79.17749034000008, 12.922029722000048], [79.17735781600004, 12.922014560000036], [79.17729424600003, 12.921987056000034], [79.17717747700004, 12.92200493300004], [79.17694019500004, 12.921973855000033], [79.17666732400005, 12.921928740000055], [79.17665098200007, 12.92191944600006], [79.17636076300005, 12.921852189000049], [79.17610571100005, 12.92181015500006], [79.17590423600006, 12.921772933000057], [79.17577405800006, 12.921769475000076], [79.17569485000007, 12.92176107000006], [79.17565303600009, 12.921690806000072], [79.17566722100008, 12.921566872000028], [79.17565428500006, 12.921415860000025], [79.17564618200004, 12.921267449000027], [79.17560003600005, 12.921172547000026], [79.17548737900006, 12.921196784000074], [79.17542148900003, 12.921226145000048], [79.17535954600004, 12.921199916000035], [79.17531557900008, 12.921097945000042], [79.17531025500006, 12.920999060000042], [79.17531328700005, 12.920910260000028], [79.17533851100006, 12.920825723000064], [79.17536729300008, 12.92077516300003], [79.17535203900007, 12.920714676000046], [79.17527610300004, 12.920670276000067], [79.17525033700008, 12.920573319000027], [79.17525471900007, 12.920415250000076], [79.17524232300008, 12.920277221000049], [79.17517622700007, 12.920176940000033], [79.17506267300007, 12.920134680000047], [79.17494173200004, 12.92009353900005], [79.17481003400007, 12.91999278700007], [79.17476339100006, 12.919891599000039], [79.17475829800003, 12.91987733700006], [79.17465921100006, 12.91973223900004], [79.17448046800007, 12.919591506000074], [79.17432198000006, 12.91942887700003], [79.17426605400004, 12.919347335000054], [79.17415748800005, 12.919309084000076], [79.17395501300007, 12.919287337000071], [79.17384222300007, 12.919240847000026], [79.17371414900003, 12.919107300000064], [79.17353038500005, 12.918917114000067], [79.17345654800005, 12.918764246000023], [79.17338287300004, 12.918659512000033], [79.17313801200004, 12.918470168000056], [79.17300347000008, 12.918386024000029], [79.17285078200007, 12.918321370000058], [79.17256953600008, 12.91822223500003], [79.17216525600008, 12.918128299000045], [79.17180370200003, 12.918021208000027], [79.17119091400008, 12.917839538000067], [79.17084563400005, 12.917757835000032], [79.17038113200005, 12.91769092100003], [79.17007696500008, 12.917663872000048], [79.16975599800008, 12.917616285000065], [79.16838674800005, 12.91742329300007], [79.16778700800006, 12.916355663000047], [79.16625595800008, 12.915930139000068], [79.16535340600007, 12.916074408000043], [79.16260000800008, 12.915433890000031], [79.16094083600007, 12.91464351600007], [79.16124274700007, 12.913804894000066], [79.16259421800004, 12.913799227000027], [79.16500363900008, 12.914087632000076], [79.16826792000006, 12.914850915000045], [79.17126660500008, 12.915830761000052], [79.17146403400005, 12.915074463000053], [79.17125080100004, 12.913093959000037], [79.17217160900003, 12.913656192000076], [79.17319476600005, 12.91506322600003], [79.17386064400006, 12.916091206000033], [79.17491904500008, 12.916131215000064], [79.17536480800004, 12.915765074000035], [79.17537113400005, 12.91441212500007], [79.17524210800008, 12.914190736000023], [79.17515597300007, 12.913968295000075], [79.17461148700005, 12.912182016000031], [79.17452982000003, 12.912009848000025], [79.17430192500007, 12.91050098900007], [79.17478374400008, 12.909417302000065], [79.17546481100004, 12.90900890100005], [79.17628275700008, 12.910021142000062], [79.17627171400005, 12.910905057000036], [79.17658035300008, 12.911686660000044], [79.17647216900008, 12.911852973000066], [79.17634135700007, 12.912855824000076], [79.17655700800003, 12.91403826900006], [79.17759441100003, 12.914899048000052], [79.17768414300008, 12.915078127000072], [79.17830420000007, 12.916153368000039], [79.17843342600008, 12.916469], [79.18003524200003, 12.917556170000069], [79.18123188600003, 12.918558290000021], [79.18123009700008, 12.918696406000038], [79.18194450700008, 12.91805006800007], [79.18245670300007, 12.916909295000039], [79.18319644100006, 12.916218796000067], [79.18413547700004, 12.916535521000071], [79.18442315300007, 12.918039629000077], [79.18480554900003, 12.919470470000022], [79.18554507300007, 12.919686290000072], [79.18566541700005, 12.918553512000074], [79.18722382400006, 12.915105639000046], [79.18751336500003, 12.912440038000057], [79.19022995700004, 12.910152943000071], [79.19389087300004, 12.907652989000042], [79.19608478900005, 12.905781876000049], [79.19734081300004, 12.905051375000028], [79.19976582600003, 12.906168280000031], [79.20197343900008, 12.906255774000044], [79.20532761500004, 12.904994929000054], [79.20813429300006, 12.900056394000046], [79.20992133000004, 12.897386443000073], [79.20900282800005, 12.895178577000024], [79.20734547600006, 12.89489508400004], [79.20251354800007, 12.892567295000049], [79.19843616200006, 12.890529344000072], [79.19545452700004, 12.894536264000067], [79.19395180300006, 12.894842099000073], [79.19243360600007, 12.892933648000053], [79.19149466200008, 12.887773354000046], [79.18981678400007, 12.88453738000004], [79.19140391100007, 12.882274750000022], [79.19160080600005, 12.88142470200006], [79.18930504400004, 12.872173274000033], [79.18898062700003, 12.870865945000048], [79.18593709200007, 12.865121953000028], [79.18330769200008, 12.862578], [79.18315128300003, 12.858863647000021], [79.18284681800003, 12.857743048000032], [79.18221321300007, 12.85541100200004], [79.18258623300005, 12.852717893000033], [79.18857990200007, 12.84322731800006], [79.19037685000006, 12.841318061000038], [79.19295996100004, 12.841542679000042], [79.18358550300007, 12.819701102000067], [79.18528722300005, 12.81744205800004], [79.18790325900005, 12.814951866000058], [79.18913282700004, 12.810673707000035], [79.18957351000006, 12.808198781000044], [79.19059053600006, 12.80628157600006], [79.19263947800005, 12.804581811000048], [79.19398338800005, 12.800302815000066], [79.19422650700005, 12.79599070300003], [79.19584071600008, 12.794091663000074], [79.19701411400007, 12.792631337000046], [79.19967615200005, 12.792467314000021], [79.20277385000009, 12.791138544000034], [79.20445456000004, 12.79002181900006], [79.20630818000006, 12.788790207000034], [79.20763046100006, 12.787473976000058], [79.209389, 12.783998], [79.20990997700005, 12.784276340000076], [79.20983, 12.78511], [79.22206, 12.79106], [79.22796, 12.79118], [79.23605, 12.7953], [79.24185, 12.79696], [79.2432, 12.80028], [79.24483, 12.80431], [79.24581, 12.80674], [79.24622, 12.80775], [79.24849, 12.80745], [79.2487, 12.80742], [79.25077, 12.80714], [79.25193, 12.80698], [79.25203, 12.80697], [79.25316, 12.80904], [79.25505, 12.8125], [79.25478, 12.81272], [79.25287, 12.81427], [79.25231, 12.81473], [79.25106, 12.81574], [79.25199, 12.82034], [79.25205, 12.82063], [79.2522, 12.82074], [79.25256, 12.821], [79.25545, 12.82309], [79.25963, 12.82068], [79.26322, 12.81861], [79.26214, 12.81536], [79.26159, 12.81371], [79.26159, 12.81367], [79.26178, 12.80819], [79.2618, 12.80765], [79.26242, 12.80669], [79.26357, 12.8064], [79.26453, 12.80654], [79.26585, 12.80712], [79.26687, 12.8078], [79.26753, 12.8083], [79.26781, 12.80891], [79.26783, 12.80961], [79.26729, 12.81237], [79.26708, 12.81313], [79.26667, 12.81466], [79.26652, 12.8158], [79.26661, 12.81674], [79.26663, 12.817], [79.26706, 12.8189], [79.26707, 12.81908], [79.26711, 12.81992], [79.26733, 12.82055], [79.2678, 12.82069], [79.26833, 12.82046], [79.26897, 12.81975], [79.2692, 12.81949], [79.26992, 12.81904], [79.2707, 12.81872], [79.27184, 12.81839], [79.27288, 12.81798], [79.27375, 12.81707], [79.27395, 12.81611], [79.27398, 12.81553], [79.27385, 12.81496], [79.27367, 12.81464], [79.27352, 12.81439], [79.27291, 12.81356], [79.27251, 12.81236], [79.27248, 12.81183], [79.27246, 12.8115], [79.27243, 12.80999], [79.27254, 12.80841], [79.27279, 12.80639], [79.27307, 12.80586], [79.27351, 12.80546], [79.2744, 12.80501], [79.27515, 12.80472], [79.27551, 12.8041], [79.27559, 12.80359], [79.27556, 12.80345], [79.27547, 12.8031], [79.27501, 12.80258], [79.27374, 12.80202], [79.27338, 12.80136], [79.27328, 12.80081], [79.27324, 12.80012], [79.27315, 12.79881], [79.27312, 12.79768], [79.27312, 12.79745], [79.27309, 12.79618], [79.27322, 12.79484], [79.27342, 12.79421], [79.274, 12.79375], [79.27504, 12.79323], [79.2775, 12.79183], [79.27877, 12.7909], [79.27891, 12.7908], [79.28087, 12.78893], [79.28101, 12.78876], [79.2814, 12.78728], [79.28129, 12.7857], [79.28185, 12.78242], [79.28642, 12.78161], [79.28717, 12.78148], [79.28887, 12.78118], [79.28909, 12.78037], [79.29027, 12.77621], [79.28984, 12.77105], [79.28936, 12.76947], [79.28748, 12.76321], [79.28685, 12.76109], [79.28871, 12.75693], [79.2937, 12.75131], [79.29502, 12.74982], [79.29667, 12.74897], [79.29881, 12.7473], [79.30224, 12.74712], [79.30586, 12.74693], [79.30945, 12.74675], [79.31127, 12.74666], [79.31162, 12.74664], [79.31204, 12.74492], [79.31302, 12.74289], [79.31333, 12.74309], [79.31606, 12.74404], [79.31707, 12.74467], [79.31969, 12.74428], [79.32399, 12.74362], [79.32451, 12.74324], [79.32606, 12.74209], [79.3265, 12.74177], [79.33218, 12.73759], [79.33315, 12.73688], [79.33333, 12.73684], [79.33481, 12.73654], [79.33841, 12.73582], [79.33969, 12.73491], [79.34011, 12.73461], [79.34285, 12.73267], [79.34333, 12.73207], [79.34348, 12.73188], [79.34535, 12.72924], [79.34588, 12.72539], [79.34671, 12.71937], [79.34672, 12.71928], [79.34715, 12.71618], [79.34753, 12.71347], [79.34797, 12.71028], [79.34802, 12.7099], [79.34736, 12.70838], [79.34662, 12.70713], [79.34607, 12.70644], [79.34501, 12.70512], [79.34482, 12.70482], [79.34105, 12.70139], [79.34042, 12.70082], [79.34595, 12.69966], [79.34647, 12.69478], [79.3465, 12.69453], [79.34653, 12.69424], [79.34674, 12.6943], [79.34682, 12.69432], [79.35164, 12.69573], [79.35553, 12.69686], [79.35764, 12.69747], [79.35886, 12.69782], [79.3586, 12.69896], [79.35792, 12.70189], [79.36002, 12.70624], [79.35737, 12.70777], [79.35706, 12.70795], [79.3563, 12.71265], [79.35642, 12.71291], [79.3582, 12.71663], [79.35895, 12.71821], [79.3592, 12.71874], [79.3595, 12.71936], [79.36031, 12.71892], [79.36204, 12.71798], [79.36395, 12.71695], [79.36435, 12.71673], [79.3661, 12.71579], [79.36651, 12.71557], [79.36763, 12.71496], [79.36774, 12.71593], [79.36823, 12.72024], [79.36825, 12.72039], [79.37149, 12.72097], [79.37755, 12.72206], [79.38066, 12.72614], [79.38077, 12.72867], [79.3808, 12.72927], [79.38097, 12.73304], [79.381, 12.73366], [79.38651, 12.73321], [79.38697, 12.73317], [79.38737, 12.73314], [79.39161, 12.73279], [79.3915, 12.73062], [79.39146, 12.73024], [79.39134, 12.72836], [79.39644, 12.7268], [79.39716, 12.72658], [79.39589, 12.72038], [79.39506, 12.71632], [79.39445, 12.71336], [79.39036, 12.71182], [79.38928, 12.71141], [79.38319, 12.70913], [79.38277, 12.70896], [79.38277, 12.70811], [79.38278, 12.70654], [79.38278, 12.70578], [79.38278, 12.70526], [79.38301, 12.70489], [79.38789, 12.69714], [79.38834, 12.69681], [79.38846, 12.69672], [79.39085, 12.69498], [79.39311, 12.69465], [79.39453, 12.69445], [79.396, 12.69114], [79.39649, 12.69003], [79.396, 12.69007], [79.39345, 12.69028], [79.39326, 12.68843], [79.3932, 12.68781], [79.39309, 12.68667], [79.383, 12.6833], [79.37879, 12.68189], [79.37856, 12.68181], [79.37407, 12.68169], [79.37219, 12.68164], [79.37054, 12.68159], [79.36596, 12.67723], [79.36119, 12.67486], [79.35769, 12.67312], [79.35743, 12.67224], [79.35737, 12.67203], [79.35718, 12.67136], [79.35669, 12.66967], [79.35641, 12.6684], [79.36047, 12.66735], [79.36087, 12.66729], [79.3611, 12.66637], [79.36119, 12.66616], [79.36155, 12.66529], [79.3621, 12.66396], [79.36242, 12.66318], [79.36377, 12.65994], [79.36485, 12.65733], [79.36465, 12.65699], [79.36389, 12.65574], [79.36314, 12.65451], [79.36308, 12.65441], [79.36247, 12.65343], [79.36109, 12.65351], [79.35962, 12.65359], [79.35893, 12.64926], [79.3589, 12.64907], [79.35874, 12.64908], [79.35605, 12.64924], [79.35574, 12.64682], [79.3556, 12.64571], [79.36239, 12.63986], [79.36401, 12.63847], [79.36423, 12.63828], [79.36488, 12.63772], [79.36729, 12.63564], [79.36779, 12.63521], [79.36837, 12.63471], [79.36929, 12.63392], [79.3711, 12.63291], [79.3714, 12.63274], [79.37181, 12.63251], [79.37214, 12.63222], [79.37269, 12.6319], [79.3728, 12.63191], [79.37298, 12.63201], [79.37307, 12.632], [79.37316, 12.63195], [79.3733, 12.63177], [79.37339, 12.63164], [79.37513, 12.63069], [79.3764, 12.62997], [79.37661, 12.62993], [79.37874, 12.62951], [79.37894, 12.62947], [79.379, 12.62946], [79.37924, 12.62941], [79.38023, 12.62922], [79.3814, 12.62899], [79.38258, 12.62876], [79.38343, 12.62859], [79.38451, 12.62838], [79.38602, 12.62932], [79.38663, 12.62971], [79.387, 12.62994], [79.38746, 12.63027], [79.38772, 12.63045], [79.38972, 12.63164], [79.39149, 12.63275], [79.39596, 12.63753], [79.39641, 12.638], [79.39652, 12.63812], [79.39955, 12.64138], [79.40058, 12.64214], [79.40545, 12.64574], [79.40687, 12.64679], [79.40714, 12.64699], [79.4074, 12.64719], [79.40799, 12.64763], [79.40886, 12.64827], [79.40938, 12.64865], [79.4119, 12.65435], [79.41239, 12.65547], [79.41294, 12.65672], [79.41599, 12.65742], [79.41902, 12.65812], [79.4213, 12.65864], [79.4259, 12.6597], [79.42866, 12.66033], [79.42896, 12.6604], [79.43097, 12.66086], [79.43264, 12.66229], [79.43349, 12.66318], [79.43393, 12.66374], [79.43425, 12.66416], [79.43443, 12.66433], [79.43497, 12.66469], [79.43536, 12.66496], [79.4355, 12.66508], [79.43758, 12.66704], [79.43915, 12.66749], [79.44775, 12.67055], [79.45171, 12.67111], [79.45232, 12.67168], [79.45347, 12.67256], [79.45615, 12.67742], [79.45512, 12.68212], [79.45771, 12.68309], [79.45903, 12.68358], [79.46116, 12.68437], [79.46247, 12.68486], [79.46144, 12.68721], [79.46139, 12.68731], [79.46052, 12.68929], [79.4603, 12.69064], [79.46006, 12.69203], [79.45973, 12.69401], [79.45965, 12.69448], [79.45911, 12.69769], [79.46199, 12.69834], [79.46647, 12.69935], [79.46839, 12.70352], [79.46862, 12.70499], [79.46899, 12.70743], [79.46908, 12.708], [79.46965, 12.71176], [79.46952, 12.71197], [79.46724, 12.71564], [79.46943, 12.71827], [79.47206, 12.72142], [79.47625, 12.72647], [79.47788, 12.72843], [79.47768, 12.73196], [79.47417, 12.73466], [79.474, 12.73456], [79.47314, 12.73405], [79.47117, 12.73288], [79.47088, 12.7327], [79.47075, 12.73263], [79.46957, 12.73193], [79.469, 12.73233], [79.46836, 12.73277], [79.46822, 12.73287], [79.46714, 12.73363], [79.4668, 12.73386], [79.46579, 12.73457], [79.46545, 12.7348], [79.46318, 12.73639], [79.46274, 12.7367], [79.46012, 12.73706], [79.45766, 12.7374], [79.45687, 12.74247], [79.45683, 12.74275], [79.45653, 12.74464], [79.45728, 12.74545], [79.45947, 12.74782], [79.45929, 12.74845], [79.45788, 12.75344], [79.45722, 12.75577], [79.46064, 12.75477], [79.46119, 12.75461], [79.46136, 12.75462], [79.46249, 12.75465], [79.4688, 12.75482], [79.47111, 12.75634], [79.47169, 12.75673], [79.46844, 12.76398], [79.46837, 12.76414], [79.47012, 12.7676], [79.47035, 12.7681], [79.47136, 12.7703], [79.47287, 12.7721], [79.47317, 12.77247], [79.47386, 12.77329], [79.47464, 12.77422], [79.47714, 12.7772], [79.47629, 12.77788], [79.47321, 12.78036], [79.46872, 12.78398], [79.4654, 12.78665], [79.46381, 12.79423], [79.46371, 12.7947], [79.46372, 12.79544], [79.46373, 12.79635], [79.46375, 12.79821], [79.46376, 12.79926], [79.46378, 12.80122], [79.46576, 12.80028], [79.47043, 12.79808], [79.47187, 12.79849], [79.47213, 12.79856], [79.47284, 12.79876], [79.47393, 12.79908], [79.47743, 12.79828], [79.47672, 12.80214], [79.47603, 12.80595], [79.47581, 12.80714], [79.47574, 12.80751], [79.47298, 12.8081], [79.4724, 12.80823], [79.47151, 12.80842], [79.46121, 12.81065], [79.45984, 12.81095], [79.45977, 12.81096], [79.45755, 12.81117], [79.46103, 12.82057], [79.46181, 12.82416], [79.46199, 12.82496], [79.46211, 12.82553], [79.46214, 12.82564], [79.4622, 12.82591], [79.46284, 12.82882], [79.46274, 12.82944], [79.4625, 12.83097], [79.46208, 12.8337], [79.4613, 12.83449], [79.45875, 12.83704], [79.459, 12.83916], [79.45912, 12.84014], [79.45917, 12.84051], [79.45922, 12.84092], [79.45941, 12.8425], [79.45957, 12.84384], [79.45991, 12.84663], [79.46122, 12.84708], [79.46215, 12.84739], [79.46283, 12.84762], [79.46365, 12.84789], [79.46431, 12.84811], [79.46619, 12.84874], [79.46746, 12.84917], [79.4675, 12.84918], [79.46917, 12.84974], [79.46944, 12.84983], [79.46959, 12.84988], [79.47465, 12.85158], [79.47491, 12.85303], [79.47528, 12.85511], [79.47423, 12.85756], [79.47403, 12.85804], [79.47305, 12.86035], [79.47534, 12.86407], [79.47385, 12.86796], [79.47386, 12.86801], [79.47393, 12.86865], [79.47394, 12.86877], [79.47438, 12.87257], [79.47992, 12.87187], [79.4813, 12.87208], [79.48336, 12.87238], [79.48442, 12.87254], [79.48617, 12.8728], [79.48944, 12.87328], [79.49053, 12.87345], [79.49735, 12.87024], [79.49857, 12.86967], [79.49976, 12.86842], [79.50584, 12.86203], [79.50754, 12.86074], [79.50816, 12.86006], [79.50862, 12.85956], [79.50918, 12.85892], [79.50946, 12.85865], [79.50965, 12.85853], [79.51029, 12.85817], [79.51071, 12.85796], [79.51408, 12.85641], [79.51535, 12.85625], [79.51589, 12.85634], [79.51717, 12.85664], [79.5177, 12.8568], [79.51798, 12.85692], [79.5188, 12.85728], [79.51906, 12.85736], [79.52067, 12.85774], [79.52145, 12.85792], [79.52163, 12.85792], [79.52181, 12.85785], [79.52202, 12.85786], [79.52265, 12.85808], [79.52419, 12.85866], [79.52541, 12.85906], [79.52561, 12.8591], [79.52898, 12.86055], [79.53008, 12.86109], [79.53285, 12.86181], [79.53642, 12.86253], [79.53871, 12.86284], [79.53983, 12.8626], [79.54072, 12.86226], [79.54425, 12.86013], [79.5498, 12.85626], [79.55826, 12.85198], [79.56077, 12.85069], [79.56103, 12.85087], [79.56296, 12.85223], [79.56395, 12.85293], [79.56426, 12.85314], [79.56558, 12.85406], [79.56812, 12.85747], [79.56801, 12.85885], [79.56785, 12.86089], [79.56771, 12.86269], [79.56769, 12.86273], [79.56594, 12.86597], [79.56372, 12.87009], [79.56138, 12.87307], [79.56058, 12.87408], [79.56006, 12.87474], [79.56086, 12.8795], [79.56091, 12.87977], [79.5612, 12.8815], [79.56189, 12.88221], [79.56438, 12.88479], [79.56664, 12.88713], [79.56679, 12.88743], [79.56693, 12.88769], [79.56781, 12.88946], [79.5682, 12.89023], [79.56853, 12.89089], [79.56879, 12.89141], [79.56925, 12.89233], [79.56934, 12.89252], [79.57, 12.89384], [79.57101, 12.89585], [79.57151, 12.89685], [79.57157, 12.89697], [79.57226, 12.89835], [79.57242, 12.89867], [79.57252, 12.89888], [79.57281, 12.89945], [79.57336, 12.90055], [79.57938, 12.90127], [79.58084, 12.90144], [79.5809, 12.90145], [79.58371, 12.90179], [79.59213, 12.90391], [79.59217, 12.90392], [79.59311, 12.9041], [79.59444, 12.90461], [79.59733, 12.90579], [79.59827, 12.90616], [79.59893, 12.90641], [79.6033, 12.90809], [79.60345, 12.90815], [79.60373, 12.9082], [79.60537, 12.90876], [79.6067, 12.90926], [79.60802, 12.9098], [79.61003, 12.91058], [79.61152, 12.91105], [79.6135, 12.91013], [79.61955, 12.91227], [79.62108, 12.91289], [79.62187, 12.91321], [79.62216, 12.91332], [79.62526, 12.91509], [79.62716, 12.91617], [79.63126, 12.9185], [79.63198, 12.91891], [79.63284, 12.9194], [79.63447, 12.92033], [79.63967, 12.92329], [79.64579, 12.92528], [79.65013, 12.9267], [79.6532, 12.9277], [79.65407, 12.92798], [79.65465, 12.92817], [79.65759, 12.92913], [79.6619, 12.93103], [79.66238, 12.93147], [79.66229, 12.93283], [79.66183, 12.94012], [79.66172, 12.9418], [79.66159, 12.94392], [79.66151, 12.94523], [79.66127, 12.94771], [79.66122, 12.94815], [79.66117, 12.94891], [79.66125, 12.94934], [79.66164, 12.94958], [79.66211, 12.94981], [79.66248, 12.94989], [79.66538, 12.95098], [79.66843, 12.95219], [79.67405, 12.95442], [79.67422, 12.95449], [79.67566, 12.95506], [79.67664, 12.95545], [79.67705, 12.95561], [79.67745, 12.95577], [79.67823, 12.95608], [79.67923, 12.95648], [79.67975, 12.95668], [79.67989, 12.95674], [79.68071, 12.95707], [79.68097, 12.95752], [79.68123, 12.95796], [79.68149, 12.95842], [79.6817, 12.95879], [79.68189, 12.95911], [79.68305, 12.96111], [79.6856, 12.96348], [79.69102, 12.96853], [79.69118, 12.96861], [79.70244, 12.97413], [79.70411, 12.97495], [79.70674, 12.97624], [79.70844, 12.97673], [79.70933, 12.97699], [79.71407, 12.97834], [79.71878, 12.97969], [79.71945, 12.97988], [79.72023, 12.98011], [79.72424, 12.98126], [79.72673, 12.98197], [79.72797, 12.98257], [79.73275, 12.98489], [79.73313, 12.98507], [79.73418, 12.98557], [79.73522, 12.98608], [79.7403, 12.99075], [79.74167, 12.99201], [79.7417, 12.99204], [79.74292, 12.99316], [79.74348, 12.99378], [79.7455, 12.99598], [79.74553, 12.99601], [79.74612, 12.99666], [79.74626, 12.99681], [79.74703, 12.99765], [79.74884, 12.99963], [79.74955, 13.00041], [79.75046, 13.00141], [79.75763, 13.00824], [79.75966, 13.01018], [79.76104, 13.0115], [79.76248, 13.01235], [79.76319, 13.01277], [79.76431, 13.01343], [79.76446, 13.01352], [79.77049, 13.01709], [79.77854, 13.0203], [79.78368, 13.02235], [79.78466, 13.02274], [79.78571, 13.02316], [79.7859, 13.02322], [79.786, 13.02434], [79.78636, 13.02856], [79.78652, 13.03025], [79.78647, 13.03305], [79.78642, 13.03401], [79.78634, 13.03701], [79.78632, 13.03779], [79.78624, 13.04088], [79.78677, 13.04179], [79.78969, 13.04679], [79.79017, 13.04762], [79.78776, 13.05245], [79.78723, 13.05351], [79.78717, 13.05362], [79.7833, 13.05474], [79.78183, 13.05517], [79.78089, 13.05544], [79.77963, 13.05581], [79.77859, 13.05611], [79.77839, 13.05648], [79.77733, 13.05847], [79.77682, 13.05941], [79.77373, 13.05991], [79.77357, 13.05993], [79.77154, 13.06026], [79.76866, 13.05812], [79.76823, 13.0578], [79.7624, 13.05348], [79.76184, 13.05306], [79.76002, 13.05282], [79.75824, 13.05258], [79.75024, 13.05149], [79.74919, 13.05134], [79.74292, 13.05522], [79.74074, 13.05657], [79.74034, 13.05681], [79.73751, 13.05856], [79.73664, 13.0591], [79.73466, 13.06033], [79.73057, 13.05704], [79.72979, 13.05641], [79.72764, 13.05467], [79.72718, 13.0543], [79.72683, 13.05433], [79.72543, 13.05444], [79.72319, 13.05461], [79.72126, 13.05476], [79.7204, 13.05692], [79.72036, 13.05702], [79.71988, 13.05823], [79.72453, 13.06198], [79.72563, 13.06483], [79.72591, 13.06555], [79.72607, 13.06598], [79.72627, 13.0665], [79.72686, 13.06804], [79.73084, 13.06797], [79.73465, 13.06791], [79.73651, 13.06896], [79.73684, 13.06914], [79.73726, 13.06938], [79.73743, 13.06948], [79.73935, 13.07056], [79.73956, 13.07122], [79.73987, 13.07215], [79.74041, 13.0738], [79.74046, 13.07398], [79.74093, 13.07538], [79.73679, 13.08582], [79.73629, 13.08709], [79.73304, 13.09529], [79.73294, 13.09555], [79.73264, 13.09629], [79.73168, 13.09661], [79.73155, 13.09665], [79.72728, 13.09806], [79.72485, 13.09817], [79.72459, 13.09819], [79.71299, 13.09871], [79.71265, 13.09872], [79.70602, 13.10003], [79.7048, 13.10027], [79.70202, 13.10082], [79.70213, 13.10123], [79.70243, 13.1023], [79.70258, 13.10283], [79.70297, 13.10424], [79.70312, 13.10428], [79.70305, 13.10455], [79.70318, 13.10502], [79.70338, 13.10576], [79.70346, 13.10578], [79.70343, 13.10592], [79.7035, 13.10619], [79.70392, 13.1077], [79.70481, 13.1079], [79.7051, 13.10797], [79.70907, 13.10886], [79.71107, 13.10812], [79.71173, 13.10787], [79.71388, 13.10707], [79.717, 13.10591], [79.72056, 13.10725], [79.72253, 13.10799], [79.72567, 13.11411], [79.7266, 13.11593], [79.72938, 13.11642], [79.72959, 13.11646], [79.73492, 13.1174], [79.73626, 13.12167], [79.73721, 13.1247], [79.73754, 13.12577], [79.73982, 13.13665], [79.74001, 13.13757], [79.73998, 13.13892], [79.73985, 13.14541], [79.7398, 13.14796], [79.73974, 13.15097], [79.73971, 13.15233], [79.73916, 13.15437], [79.73829, 13.15761], [79.73741, 13.16089], [79.73617, 13.16551], [79.73179, 13.16531], [79.731, 13.16528], [79.72991, 13.16523], [79.72873, 13.16518], [79.72623, 13.16456], [79.7261, 13.16453], [79.72478, 13.1642], [79.72434, 13.16409], [79.72145, 13.16338], [79.71822, 13.16258], [79.71681, 13.16245], [79.7041, 13.16128], [79.70239, 13.15921], [79.70166, 13.15833], [79.70065, 13.15712], [79.69899, 13.15823], [79.69606, 13.16021], [79.69512, 13.16171], [79.69504, 13.16184], [79.69427, 13.16307], [79.69266, 13.16564], [79.69251, 13.17227], [79.69247, 13.17436], [79.69243, 13.17614], [79.69327, 13.17691], [79.69528, 13.17876], [79.69562, 13.17907], [79.6961, 13.17951], [79.69782, 13.18108], [79.70065, 13.18852], [79.6981, 13.18925], [79.6978, 13.18934], [79.69689, 13.1896], [79.69277, 13.19078], [79.69097, 13.18997], [79.68317, 13.18645], [79.67136, 13.18254], [79.67003, 13.18734], [79.66989, 13.18784], [79.67045, 13.194], [79.67064, 13.1961], [79.67078, 13.19768], [79.67115, 13.20183], [79.66988, 13.20244], [79.66918, 13.20278], [79.66855, 13.20308], [79.66824, 13.20323], [79.66629, 13.20417], [79.66532, 13.20464], [79.65981, 13.20728], [79.65863, 13.20785], [79.65829, 13.20801], [79.65785, 13.20822], [79.65542, 13.20939], [79.65409, 13.20632], [79.65387, 13.20581], [79.65326, 13.2044], [79.65296, 13.20372], [79.65279, 13.20333], [79.65163, 13.20187], [79.65157, 13.2018], [79.65119, 13.20131], [79.64827, 13.19763], [79.6482, 13.19734], [79.64778, 13.19555], [79.64711, 13.19269], [79.64613, 13.18849], [79.64593, 13.18766], [79.64585, 13.1856], [79.64583, 13.18492], [79.64575, 13.18274], [79.64571, 13.18193], [79.64569, 13.18138], [79.64566, 13.18066], [79.64561, 13.17933], [79.63616, 13.17245], [79.63459, 13.17131], [79.63405, 13.17092], [79.63388, 13.17081], [79.63274, 13.16997], [79.63254, 13.16684], [79.6325, 13.16615], [79.63246, 13.1655], [79.63225, 13.1624], [79.63361, 13.158], [79.63378, 13.15743], [79.63383, 13.15728], [79.63484, 13.15399], [79.63506, 13.15328], [79.6365, 13.14858], [79.63316, 13.1466], [79.63264, 13.14629], [79.63221, 13.14604], [79.63022, 13.14486], [79.62991, 13.14468], [79.62811, 13.14455], [79.62766, 13.14452], [79.61924, 13.14391], [79.61656, 13.14403], [79.61389, 13.14414], [79.61159, 13.14423], [79.60911, 13.14434], [79.60135, 13.14548], [79.59789, 13.14599], [79.59444, 13.14649], [79.59373, 13.14546], [79.59366, 13.14536], [79.59235, 13.14347], [79.59465, 13.14026], [79.5953, 13.13936], [79.59547, 13.13909], [79.59674, 13.137], [79.59746, 13.13522], [79.59756, 13.13499], [79.59766, 13.13474], [79.59806, 13.13377], [79.59829, 13.13319], [79.5993, 13.13072], [79.59942, 13.13042], [79.59895, 13.12955], [79.59824, 13.12826], [79.59723, 13.12641], [79.59652, 13.12512], [79.59631, 13.12474], [79.59554, 13.12334], [79.59488, 13.12327], [79.59112, 13.12286], [79.59069, 13.12281], [79.58488, 13.12217], [79.58373, 13.12221], [79.57821, 13.12241], [79.57718, 13.12245], [79.57199, 13.12263], [79.57136, 13.12427], [79.57088, 13.1255], [79.57063, 13.12615], [79.57048, 13.12655], [79.56982, 13.12824], [79.56954, 13.12897], [79.56982, 13.13158], [79.57001, 13.13333], [79.56997, 13.13505], [79.56914, 13.13525], [79.5688, 13.13532], [79.56626, 13.13581], [79.56585, 13.13588], [79.5651, 13.13603], [79.5621, 13.1366], [79.55706, 13.13757], [79.55606, 13.13776], [79.55175, 13.13482], [79.55134, 13.13453], [79.55033, 13.13465], [79.54503, 13.13529], [79.54307, 13.13553], [79.54191, 13.13567], [79.53885, 13.13604], [79.53567, 13.13643], [79.53503, 13.13651], [79.53316, 13.13673], [79.53008, 13.1371], [79.52935, 13.13719], [79.52925, 13.13726], [79.5291, 13.13736], [79.52767, 13.13837], [79.52726, 13.13865], [79.5249, 13.1403], [79.52353, 13.14126], [79.52295, 13.14167], [79.51992, 13.14283], [79.51919, 13.14311], [79.51769, 13.14369], [79.51746, 13.14378], [79.5166, 13.14339], [79.51384, 13.14201], [79.5054, 13.13781], [79.49792, 13.13784], [79.49528, 13.13785], [79.49427, 13.13785], [79.49344, 13.13785], [79.48341, 13.13907], [79.48279, 13.13915], [79.48224, 13.13186], [79.47978, 13.12787], [79.47732, 13.12751], [79.47651, 13.12739], [79.47444, 13.1271], [79.47478, 13.12561], [79.47554, 13.12221], [79.4758, 13.11763], [79.47602, 13.11394], [79.47539, 13.11208], [79.47505, 13.11107], [79.47405, 13.1081], [79.47006, 13.10844], [79.46789, 13.10863], [79.46712, 13.10869], [79.46652, 13.10874], [79.46382, 13.10554], [79.46316, 13.10162], [79.46261, 13.09832], [79.46221, 13.09791], [79.46186, 13.09756], [79.46174, 13.09744], [79.4613, 13.09699], [79.46077, 13.09644], [79.45813, 13.09527], [79.45794, 13.09518], [79.45596, 13.0943], [79.45368, 13.09329], [79.45238, 13.09529], [79.45158, 13.09654], [79.45066, 13.09798], [79.44976, 13.09939], [79.44709, 13.10353], [79.44568, 13.10573], [79.44419, 13.10806], [79.44274, 13.11032], [79.44162, 13.11075], [79.43879, 13.11182], [79.4325, 13.1142], [79.43174, 13.11882], [79.43169, 13.11914], [79.43206, 13.11915], [79.43289, 13.11917], [79.43333, 13.11918], [79.43377, 13.11919], [79.43426, 13.1192], [79.43469, 13.11921], [79.44041, 13.11932], [79.44173, 13.11935], [79.44875, 13.12058], [79.45019, 13.12084], [79.45072, 13.12093], [79.45277, 13.12129], [79.45371, 13.12145], [79.45417, 13.12153], [79.4541, 13.12193], [79.45205, 13.12668], [79.45057, 13.12656], [79.44352, 13.12507], [79.44108, 13.12553], [79.4374, 13.12622], [79.43281, 13.13315], [79.43176, 13.13474], [79.43167, 13.13488], [79.43107, 13.13578], [79.43071, 13.13633], [79.42838, 13.13985], [79.42459, 13.14556], [79.41896, 13.14957], [79.41506, 13.14173], [79.41497, 13.14155], [79.41415, 13.1399], [79.41256, 13.13671], [79.41317, 13.13156], [79.41324, 13.13085], [79.41314, 13.12909], [79.41286, 13.1212], [79.41009, 13.11808], [79.40979, 13.11774], [79.40946, 13.11737], [79.40883, 13.11666], [79.40825, 13.11601], [79.40793, 13.11551], [79.40764, 13.11504], [79.40685, 13.11376], [79.40577, 13.11203], [79.40267, 13.10704], [79.40335, 13.1066], [79.40415, 13.10609], [79.40455, 13.10583], [79.406, 13.1049], [79.4067, 13.10444], [79.40951, 13.10263], [79.41903, 13.1038], [79.41991, 13.10244], [79.42086, 13.10098], [79.42111, 13.10059], [79.42206, 13.09913], [79.42124, 13.09581], [79.42097, 13.09472], [79.42077, 13.09389], [79.42064, 13.09338], [79.42012, 13.09128], [79.41775, 13.08516], [79.41733, 13.08407], [79.41512, 13.0839], [79.41262, 13.0837], [79.40565, 13.08316], [79.40191, 13.08287], [79.39779, 13.08254], [79.39414, 13.08225], [79.39225, 13.08183], [79.39155, 13.08167], [79.38948, 13.08121], [79.38783, 13.08084], [79.38306, 13.07976], [79.38107, 13.07874], [79.37998, 13.07819], [79.37816, 13.07726], [79.37202, 13.07412], [79.37144, 13.07382], [79.37106, 13.07362], [79.36271, 13.06935], [79.35774, 13.06681], [79.35311, 13.06444], [79.35205, 13.0639], [79.35116, 13.06345], [79.34759, 13.06162], [79.34525, 13.06245], [79.34404, 13.06288], [79.34321, 13.06317], [79.33916, 13.0646], [79.33843, 13.06486], [79.33767, 13.06592], [79.33356, 13.07165], [79.332, 13.07381], [79.32907, 13.07594], [79.32712, 13.07737], [79.32498, 13.07892], [79.32299, 13.08038], [79.31985, 13.0813], [79.31629, 13.08235], [79.31536, 13.08262], [79.3152, 13.08267], [79.31462, 13.08284], [79.3131, 13.08329], [79.3119, 13.08364], [79.30744, 13.08495], [79.30675, 13.08516], [79.30177, 13.09072], [79.30018, 13.09458], [79.29874, 13.09809], [79.29692, 13.1009], [79.29504, 13.1038], [79.29466, 13.10439], [79.29202, 13.10846], [79.29184, 13.10874], [79.29157, 13.10917], [79.29095, 13.1105], [79.28617, 13.12082], [79.28617, 13.1209], [79.28623, 13.12329], [79.28634, 13.12738], [79.28642, 13.13041], [79.28651, 13.1339], [79.28534, 13.13965], [79.28531, 13.13992], [79.28486, 13.14353], [79.2844, 13.14719], [79.28392, 13.15103], [79.28002, 13.15416], [79.2792, 13.1541], [79.27728, 13.15396], [79.27554, 13.15383], [79.27381, 13.1537], [79.26909, 13.14949], [79.26614, 13.15313], [79.26526, 13.15421], [79.26494, 13.1554], [79.26395, 13.15912], [79.26278, 13.15965], [79.26213, 13.15994], [79.25981, 13.16099], [79.25816, 13.15716], [79.25682, 13.15406], [79.25677, 13.15365], [79.25593, 13.14626], [79.25421, 13.14454], [79.25386, 13.14419], [79.2512, 13.14154], [79.25063, 13.14097], [79.24931, 13.13966], [79.24601, 13.1405], [79.24578, 13.14056], [79.24563, 13.1406], [79.244, 13.14229], [79.24393, 13.14236], [79.24238, 13.14396], [79.24137, 13.14499], [79.23895, 13.14749], [79.238, 13.1476], [79.23781, 13.14762], [79.2362, 13.1478], [79.23351, 13.14811], [79.23087, 13.14841], [79.22972, 13.14593], [79.22954, 13.14554], [79.22882, 13.14398], [79.22723, 13.14052], [79.23086, 13.13332], [79.23134, 13.13281], [79.23251, 13.13158], [79.23504, 13.12892], [79.23088, 13.12321], [79.23089, 13.11684], [79.23071, 13.11651], [79.22833, 13.11229], [79.2269, 13.10975], [79.22006, 13.10434], [79.21483, 13.10318], [79.21456, 13.10316], [79.20592, 13.10256], [79.2031, 13.09931], [79.20153, 13.09749], [79.20073, 13.09428], [79.19975, 13.09038], [79.19963, 13.08992], [79.19851, 13.08861], [79.19761, 13.08756], [79.19611, 13.08579], [79.19515, 13.08378], [79.19407, 13.08152], [79.1933, 13.07991], [79.19173, 13.07298], [79.19147, 13.07279], [79.18994, 13.07166], [79.18628, 13.06897], [79.185, 13.06803], [79.18427, 13.0675], [79.1827, 13.06635], [79.18206, 13.06588], [79.18597, 13.06344], [79.18738, 13.06256], [79.18492, 13.0566], [79.18921, 13.05117], [79.18937, 13.04942], [79.18943, 13.04871], [79.18965, 13.04629], [79.18942, 13.0439], [79.18931, 13.04268], [79.18709, 13.03816], [79.18694, 13.03745], [79.18691766900008, 13.037346053000022]]]}}