{"type": "Feature", "properties": {"shapeName": "Thiruvarur", "shapeISO": "", "shapeID": "76128533B45072089356239", "shapeGroup": "IND", "shapeType": "ADM2"}, "geometry": {"type": "Polygon", "coordinates": [[[79.76376, 11.0025], [79.76344, 11.0025], [79.76305, 11.00243], [79.76266, 11.00197], [79.7624, 11.00139], [79.76201, 11.00119], [79.76162, 11.00126], [79.76129, 11.00171], [79.76123, 11.00256], [79.76116, 11.00308], [79.76051, 11.00328], [79.7596, 11.00373], [79.75888, 11.00426], [79.75823, 11.00497], [79.75732, 11.00562], [79.75679, 11.00549], [79.75575, 11.00478], [79.7548, 11.00451], [79.75327, 11.00432], [79.75203, 11.00439], [79.75034, 11.00439], [79.74969, 11.00445], [79.74864, 11.00373], [79.74861, 11.00358], [79.74851, 11.00315], [79.74891, 11.00223], [79.74892, 11.00221], [79.74908, 11.00189], [79.74944, 11.00116], [79.74956, 11.00093], [79.74975, 11.00002], [79.74995, 10.99897], [79.74979, 10.99811], [79.74839, 10.99772], [79.74239, 10.99605], [79.74183, 10.99606], [79.7416, 10.99607], [79.73953, 10.99611], [79.73622, 10.99619], [79.73504, 10.99619], [79.73493, 10.99622], [79.73465, 10.99646], [79.73287, 10.99801], [79.73267, 10.99818], [79.73256, 10.99828], [79.73141, 10.99855], [79.73026, 10.99881], [79.72755, 10.99944], [79.72652, 11.00016], [79.72622, 11.00036], [79.72605, 11.00048], [79.72533, 11.00098], [79.72445, 11.00159], [79.72343, 11.00322], [79.72331, 11.00341], [79.72318, 11.00362], [79.72264, 11.00448], [79.72254, 11.00465], [79.72147, 11.0051], [79.72097, 11.00531], [79.71568, 11.00755], [79.71461, 11.008], [79.71359, 11.00843], [79.71331, 11.00854], [79.7131, 11.00864], [79.71298, 11.00869], [79.71215, 11.00903], [79.70948, 11.01119], [79.7075, 11.0128], [79.70664, 11.01317], [79.70583, 11.01351], [79.70408, 11.01425], [79.70349, 11.0145], [79.70301, 11.0146], [79.70199, 11.01482], [79.70034, 11.01518], [79.70002, 11.01525], [79.69933, 11.0154], [79.69838, 11.0156], [79.69147, 11.01708], [79.69013, 11.01706], [79.68928, 11.01705], [79.6883, 11.01703], [79.688, 11.01702], [79.68719, 11.01701], [79.68529, 11.01698], [79.68479, 11.01697], [79.68277, 11.01693], [79.68243, 11.01693], [79.68232, 11.01693], [79.68119, 11.01691], [79.67954, 11.01688], [79.67878, 11.01677], [79.67767, 11.01662], [79.67751, 11.01659], [79.67652, 11.01647], [79.67446, 11.01619], [79.67285, 11.01597], [79.67179, 11.01582], [79.66982, 11.01557], [79.66884, 11.01543], [79.66757, 11.01525], [79.66635, 11.01508], [79.6662, 11.01506], [79.66514, 11.01491], [79.66357, 11.0147], [79.6606, 11.0143], [79.65919, 11.01411], [79.6572, 11.01408], [79.65472, 11.01349], [79.6547, 11.01349], [79.65165, 11.01414], [79.65088, 11.01429], [79.65172, 11.01376], [79.6527, 11.01313], [79.65188, 11.01276], [79.65033, 11.01207], [79.64995, 11.01191], [79.64619, 11.01023], [79.64504, 11.00972], [79.6447, 11.00957], [79.64315, 11.00888], [79.64249, 11.00799], [79.64243, 11.00791], [79.64224, 11.00765], [79.64209, 11.00745], [79.64183, 11.00711], [79.64134, 11.00645], [79.64124, 11.00371], [79.64117, 11.00168], [79.64059, 11.00147], [79.64034, 11.00138], [79.64028, 11.00133], [79.63997, 11.00109], [79.63957, 11.00077], [79.63917, 11.00046], [79.63796, 10.99996], [79.63785, 10.99972], [79.6364, 10.99827], [79.63581, 10.9978], [79.63629, 10.99657], [79.63642, 10.99623], [79.63682, 10.99519], [79.63666, 10.99511], [79.63641, 10.99497], [79.63626, 10.99489], [79.63436, 10.99384], [79.63587, 10.99265], [79.63613, 10.99245], [79.63664, 10.99176], [79.63535, 10.99131], [79.63328, 10.99087], [79.63466, 10.98931], [79.6351, 10.9888], [79.63361, 10.98776], [79.63241, 10.98692], [79.63225, 10.98681], [79.63174, 10.98646], [79.63339, 10.98086], [79.63355, 10.98028], [79.63366, 10.97992], [79.63368, 10.97987], [79.63404, 10.97864], [79.63353, 10.97855], [79.6329, 10.97843], [79.63267, 10.97839], [79.63225, 10.97831], [79.63197, 10.97826], [79.63187, 10.97824], [79.63044, 10.97798], [79.62997, 10.97789], [79.62928, 10.97777], [79.62905, 10.97772], [79.62847, 10.97762], [79.62758, 10.97745], [79.62738, 10.97781], [79.62703, 10.97842], [79.6266, 10.97899], [79.62652, 10.97923], [79.62647, 10.9794], [79.62628, 10.97973], [79.62583, 10.98055], [79.62567, 10.98083], [79.62537, 10.98134], [79.62522, 10.9816], [79.62481, 10.98233], [79.62465, 10.98261], [79.62447, 10.98293], [79.6222, 10.98267], [79.62176, 10.98236], [79.62092, 10.98176], [79.61976, 10.98163], [79.61919, 10.98156], [79.61851, 10.98226], [79.61834, 10.98224], [79.61663, 10.98204], [79.61328, 10.98166], [79.61315, 10.98165], [79.61059, 10.98136], [79.60975, 10.98126], [79.60819, 10.98109], [79.60804, 10.98097], [79.60766, 10.98069], [79.60738, 10.98048], [79.60709, 10.98026], [79.60648, 10.9798], [79.60614, 10.97955], [79.60555, 10.9791], [79.60534, 10.97858], [79.60765, 10.97659], [79.60807, 10.97556], [79.60837, 10.97482], [79.60621, 10.97344], [79.60427, 10.9719], [79.60359, 10.97132], [79.59956, 10.97177], [79.59886, 10.9721], [79.59863, 10.97211], [79.59828, 10.97216], [79.59741, 10.97231], [79.5972, 10.97234], [79.59703, 10.97355], [79.59702, 10.9736], [79.59694, 10.97417], [79.59691, 10.97438], [79.59686, 10.9747], [79.59675, 10.97547], [79.59646, 10.97755], [79.59618, 10.97748], [79.59198, 10.97738], [79.59126, 10.97944], [79.59026, 10.9823], [79.58957, 10.98229], [79.58905, 10.98228], [79.58889, 10.98228], [79.5855, 10.98224], [79.58243, 10.98221], [79.58021, 10.98219], [79.57973, 10.98218], [79.57952, 10.98218], [79.57909, 10.97959], [79.57906, 10.9794], [79.57895, 10.97873], [79.57882, 10.97797], [79.57862, 10.97678], [79.57687, 10.97647], [79.57589, 10.97629], [79.57567, 10.97626], [79.57553, 10.97623], [79.57559, 10.976], [79.57564, 10.97584], [79.57688, 10.97141], [79.57702, 10.97093], [79.57709, 10.97066], [79.57433, 10.97072], [79.57339, 10.97074], [79.57161, 10.9709], [79.57184, 10.97108], [79.57165, 10.97219], [79.56988, 10.97198], [79.56964, 10.97285], [79.56962, 10.97337], [79.56953, 10.97594], [79.56898, 10.97588], [79.56881, 10.97586], [79.56823, 10.97579], [79.56815, 10.97578], [79.55915, 10.97423], [79.55793, 10.97052], [79.55789, 10.97038], [79.55782, 10.97014], [79.55775, 10.96986], [79.55753, 10.96907], [79.55738, 10.96911], [79.55681, 10.96927], [79.55435, 10.96996], [79.55375, 10.96853], [79.55324, 10.9673], [79.55313, 10.96704], [79.5531, 10.96696], [79.55307, 10.9669], [79.55304, 10.96682], [79.55333, 10.96614], [79.55307, 10.9662], [79.55094, 10.96668], [79.54986, 10.96665], [79.54929, 10.96649], [79.54814, 10.96618], [79.54732, 10.96616], [79.54483, 10.96651], [79.54471, 10.96651], [79.54344, 10.96489], [79.53998, 10.96569], [79.53928, 10.96565], [79.53704, 10.96553], [79.53641, 10.9655], [79.53581, 10.96547], [79.53463, 10.96541], [79.53341, 10.96519], [79.53123, 10.9648], [79.53132, 10.96416], [79.53156, 10.96256], [79.53158, 10.96243], [79.53172, 10.96152], [79.53184, 10.96075], [79.53188, 10.96048], [79.52772, 10.95881], [79.52756, 10.95935], [79.52662, 10.96259], [79.52687, 10.96407], [79.52767, 10.96527], [79.52826, 10.96643], [79.52845, 10.9675], [79.52881, 10.96829], [79.5288, 10.96848], [79.52879, 10.96862], [79.52876, 10.96904], [79.5287, 10.96995], [79.52868, 10.97033], [79.52738, 10.9702], [79.52685, 10.97014], [79.52611, 10.97006], [79.52554, 10.97018], [79.52425, 10.97045], [79.52303, 10.96974], [79.52128, 10.96956], [79.52056, 10.96948], [79.5188, 10.96929], [79.51848, 10.96926], [79.5175, 10.96916], [79.51632, 10.96904], [79.51606, 10.96901], [79.51563, 10.96893], [79.51583, 10.96697], [79.51584, 10.96662], [79.51584, 10.96655], [79.5157, 10.95338], [79.5178, 10.94826], [79.51912, 10.94505], [79.51885, 10.94462], [79.51832, 10.94376], [79.51606, 10.94006], [79.50837, 10.93932], [79.50771, 10.93926], [79.50382, 10.93888], [79.50119, 10.93863], [79.49999, 10.93851], [79.49995, 10.93677], [79.49993, 10.93656], [79.49984, 10.93299], [79.49983, 10.93233], [79.49981, 10.93193], [79.49896, 10.93146], [79.49837, 10.93106], [79.49805, 10.9308], [79.49762, 10.93039], [79.49719, 10.93], [79.49685, 10.9296], [79.49659, 10.92938], [79.49539, 10.92858], [79.49504, 10.92827], [79.49469, 10.92786], [79.49074, 10.92476], [79.48992, 10.92411], [79.48948, 10.92365], [79.48916, 10.92342], [79.48877, 10.92309], [79.48843, 10.92263], [79.48812, 10.92229], [79.48695, 10.92084], [79.48614, 10.91929], [79.48712, 10.91906], [79.49096, 10.9186], [79.49134, 10.91855], [79.49248, 10.91538], [79.49371, 10.91195], [79.49387, 10.91163], [79.49408, 10.91101], [79.4947, 10.9092], [79.49458, 10.90789], [79.49482, 10.90478], [79.49519, 10.9045], [79.49685, 10.90466], [79.50134, 10.90507], [79.50427, 10.90398], [79.50613, 10.90328], [79.50838, 10.90244], [79.50837, 10.89981], [79.50837, 10.89853], [79.50837, 10.89808], [79.50836, 10.89665], [79.50812, 10.89649], [79.50777, 10.89628], [79.50256, 10.89303], [79.50246, 10.89297], [79.5022, 10.89279], [79.5016, 10.89236], [79.50145, 10.89225], [79.50141, 10.89223], [79.5012, 10.89212], [79.49957, 10.89111], [79.4988, 10.89063], [79.49843, 10.8904], [79.49734, 10.88972], [79.49624, 10.88942], [79.4961, 10.88938], [79.49457, 10.88896], [79.49421, 10.88886], [79.49369, 10.88872], [79.4925, 10.88839], [79.49233, 10.88834], [79.4922, 10.8882], [79.48936, 10.88446], [79.48905, 10.88406], [79.48901, 10.884], [79.48892, 10.88389], [79.48822, 10.88289], [79.48462, 10.87776], [79.48518, 10.87653], [79.48718, 10.87211], [79.48705, 10.87203], [79.48675, 10.87187], [79.48614, 10.87153], [79.48275, 10.86966], [79.482, 10.86925], [79.48171, 10.86909], [79.48132, 10.86887], [79.48017, 10.86913], [79.47909, 10.86936], [79.4746, 10.87028], [79.47337, 10.87098], [79.47229, 10.87159], [79.47145, 10.87195], [79.46922, 10.8683], [79.46882, 10.86765], [79.46809, 10.86535], [79.46797, 10.86497], [79.46789, 10.8647], [79.46776, 10.86429], [79.46764, 10.86392], [79.4674, 10.86315], [79.46516, 10.86396], [79.46306, 10.86472], [79.46183, 10.86539], [79.45989, 10.86588], [79.45936, 10.86607], [79.45796, 10.86448], [79.45677, 10.86313], [79.45645, 10.86276], [79.45636, 10.86265], [79.45481, 10.86089], [79.4547, 10.86076], [79.45456, 10.86088], [79.45419, 10.86122], [79.45382, 10.86179], [79.45352, 10.86231], [79.45309, 10.86281], [79.45244, 10.86358], [79.45195, 10.8641], [79.45162, 10.86459], [79.45124, 10.86513], [79.45087, 10.86548], [79.45062, 10.86569], [79.45055, 10.86575], [79.45002, 10.8662], [79.44959, 10.86645], [79.44896, 10.86689], [79.44803, 10.86753], [79.44723, 10.86821], [79.44657, 10.86866], [79.44651, 10.8687], [79.44584, 10.86915], [79.44524, 10.8694], [79.44461, 10.86962], [79.4445, 10.86962], [79.44407, 10.86983], [79.44369, 10.86976], [79.44331, 10.86955], [79.44304, 10.86948], [79.44273, 10.86948], [79.44229, 10.86952], [79.44185, 10.86952], [79.44162, 10.86946], [79.44118, 10.86945], [79.44082, 10.86953], [79.4404, 10.86957], [79.44013, 10.86956], [79.43977, 10.86942], [79.43948, 10.86927], [79.43926, 10.86924], [79.439, 10.86929], [79.43866, 10.86946], [79.43811, 10.86986], [79.4376, 10.87015], [79.43682, 10.87052], [79.43641, 10.87075], [79.43622, 10.8709], [79.43611, 10.87111], [79.43613, 10.87127], [79.43609, 10.87164], [79.43593, 10.87198], [79.43569, 10.87242], [79.43522, 10.87281], [79.4347, 10.87322], [79.43426, 10.87356], [79.43423, 10.87358], [79.43361, 10.87394], [79.43302, 10.87426], [79.43257, 10.87441], [79.43221, 10.87461], [79.43165, 10.87498], [79.4311, 10.87524], [79.43084, 10.87535], [79.4301, 10.87561], [79.42929, 10.87578], [79.42881, 10.87595], [79.4284, 10.87613], [79.42786, 10.87645], [79.42724, 10.87675], [79.42656, 10.87708], [79.42592, 10.87751], [79.42504, 10.87795], [79.42402, 10.87836], [79.42301, 10.87863], [79.42269, 10.87873], [79.42173, 10.87903], [79.42079, 10.8794], [79.4204, 10.87957], [79.42006, 10.87991], [79.41987, 10.88019], [79.41966, 10.88029], [79.41937, 10.88027], [79.419, 10.88021], [79.41867, 10.88017], [79.4183, 10.88025], [79.41789, 10.88048], [79.4175, 10.88074], [79.41699, 10.88104], [79.41687, 10.88111], [79.41603, 10.88156], [79.41542, 10.88195], [79.41471, 10.88242], [79.41387, 10.88284], [79.41297, 10.8834], [79.4123, 10.88374], [79.41165, 10.88407], [79.41139, 10.88432], [79.41127, 10.88453], [79.41117, 10.88471], [79.4111, 10.88495], [79.41092, 10.88515], [79.41067, 10.88538], [79.41034, 10.88565], [79.40988, 10.88591], [79.40948, 10.88619], [79.40911, 10.88646], [79.40866, 10.88673], [79.40847, 10.88694], [79.40836, 10.88707], [79.40818, 10.88735], [79.40804, 10.88772], [79.40795, 10.88819], [79.40785, 10.88859], [79.40772, 10.88875], [79.40739, 10.88893], [79.40695, 10.88904], [79.40638, 10.88918], [79.4058, 10.88933], [79.40526, 10.88948], [79.40461, 10.8897], [79.40435, 10.88982], [79.40412, 10.88985], [79.40393, 10.88979], [79.40384, 10.88968], [79.40379, 10.88965], [79.40364, 10.88958], [79.40346, 10.88959], [79.40336, 10.8896], [79.40296, 10.88986], [79.40281, 10.88996], [79.40246, 10.89014], [79.40204, 10.8903], [79.40132, 10.89051], [79.40042, 10.89066], [79.39981, 10.89083], [79.39946, 10.89101], [79.39916, 10.89149], [79.39892, 10.89179], [79.39866, 10.89219], [79.39837, 10.89237], [79.39829, 10.89242], [79.39775, 10.89268], [79.39722, 10.89279], [79.39656, 10.89291], [79.39621, 10.893], [79.39578, 10.8931], [79.39564, 10.89334], [79.39555, 10.89347], [79.39538, 10.89388], [79.39552, 10.89426], [79.3957, 10.89438], [79.39526, 10.89455], [79.39488, 10.89463], [79.39479, 10.89467], [79.39444, 10.89471], [79.39418, 10.89464], [79.39414, 10.89458], [79.39405, 10.89441], [79.39409, 10.89427], [79.39406, 10.89419], [79.3938, 10.89378], [79.3937, 10.89348], [79.39359, 10.89324], [79.39344, 10.8931], [79.39307, 10.8931], [79.39269, 10.89313], [79.392, 10.89323], [79.39158, 10.8933], [79.3911, 10.89338], [79.39079, 10.89339], [79.39044, 10.89337], [79.39039, 10.89337], [79.3899, 10.89327], [79.38964, 10.89319], [79.3895, 10.89314], [79.38888, 10.89304], [79.38814, 10.89293], [79.38769, 10.89297], [79.38728, 10.89307], [79.38679, 10.89331], [79.38641, 10.89347], [79.38603, 10.89359], [79.38572, 10.89362], [79.38532, 10.89362], [79.38494, 10.89349], [79.3846, 10.89327], [79.38448, 10.89319], [79.38432, 10.89309], [79.38408, 10.89281], [79.38392, 10.89253], [79.3838, 10.89225], [79.38365, 10.89201], [79.38347, 10.89191], [79.38325, 10.89182], [79.38316, 10.89179], [79.383, 10.89162], [79.38288, 10.89141], [79.38274, 10.89122], [79.38254, 10.89105], [79.38233, 10.89099], [79.38216, 10.89105], [79.38197, 10.89132], [79.38186, 10.89144], [79.38183, 10.89147], [79.38166, 10.89161], [79.38136, 10.89174], [79.3809, 10.8919], [79.38047, 10.89201], [79.37995, 10.89212], [79.37958, 10.89215], [79.37942, 10.89212], [79.37928, 10.89209], [79.37902, 10.89196], [79.37871, 10.89172], [79.3784, 10.89147], [79.37811, 10.89126], [79.37801, 10.89119], [79.3779, 10.89111], [79.37764, 10.89096], [79.37719, 10.89085], [79.37693, 10.89088], [79.3766, 10.89102], [79.37641, 10.89124], [79.37628, 10.89141], [79.37616, 10.89156], [79.37597, 10.89167], [79.37581, 10.89169], [79.37571, 10.8917], [79.37545, 10.89169], [79.37512, 10.89165], [79.3744, 10.89152], [79.37412, 10.89144], [79.37381, 10.89145], [79.37343, 10.89154], [79.37312, 10.89171], [79.37273, 10.8919], [79.37242, 10.89216], [79.37233, 10.8924], [79.37235, 10.89263], [79.3724, 10.89288], [79.37242, 10.8932], [79.3724, 10.89354], [79.37225, 10.89385], [79.3721, 10.89403], [79.37209, 10.89406], [79.37201, 10.89427], [79.37194, 10.89455], [79.37184, 10.89481], [79.37174, 10.89494], [79.37151, 10.89503], [79.37116, 10.89505], [79.37078, 10.89519], [79.37064, 10.89553], [79.37059, 10.896], [79.37061, 10.89646], [79.37061, 10.89649], [79.37062, 10.89708], [79.37062, 10.89717], [79.37061, 10.89742], [79.37056, 10.89769], [79.37046, 10.89781], [79.37027, 10.89792], [79.36976, 10.89797], [79.36924, 10.8981], [79.36853, 10.89818], [79.36773, 10.89831], [79.36764, 10.89833], [79.36676, 10.89846], [79.36621, 10.89842], [79.36612, 10.8984], [79.36568, 10.8983], [79.3653, 10.89813], [79.36496, 10.89777], [79.36472, 10.89753], [79.36449, 10.89732], [79.3644, 10.89731], [79.36427, 10.8973], [79.36391, 10.89761], [79.36326, 10.89828], [79.36261, 10.89896], [79.36221, 10.89936], [79.36193, 10.89946], [79.36111, 10.9001], [79.36039, 10.90085], [79.3595, 10.90156], [79.35871, 10.9023], [79.35836, 10.90263], [79.35833, 10.90266], [79.35783, 10.90313], [79.35709, 10.90382], [79.35694, 10.90406], [79.35689, 10.90441], [79.35688, 10.90475], [79.35686, 10.90504], [79.35633, 10.90563], [79.35561, 10.9062], [79.35513, 10.90674], [79.35476, 10.90711], [79.35435, 10.90737], [79.35404, 10.90752], [79.35366, 10.9076], [79.35325, 10.90773], [79.35301, 10.90795], [79.35293, 10.90825], [79.35295, 10.90864], [79.35317, 10.90889], [79.35339, 10.90915], [79.35354, 10.90941], [79.35348, 10.90961], [79.35312, 10.90982], [79.35261, 10.91006], [79.35202, 10.91024], [79.3512, 10.91077], [79.35039, 10.91131], [79.34998, 10.91156], [79.34951, 10.91171], [79.34927, 10.91169], [79.34908, 10.91151], [79.34889, 10.91145], [79.3487, 10.91142], [79.34845, 10.91142], [79.34798, 10.91147], [79.34754, 10.91158], [79.34722, 10.91159], [79.34684, 10.91152], [79.3465, 10.91143], [79.34615, 10.91135], [79.34593, 10.91128], [79.34554, 10.91126], [79.34525, 10.91123], [79.34516, 10.9112], [79.34499, 10.91113], [79.34465, 10.91105], [79.3441, 10.9111], [79.34374, 10.9112], [79.34367, 10.91122], [79.34349, 10.91129], [79.34313, 10.91143], [79.34286, 10.91165], [79.34276, 10.9118], [79.34237, 10.91242], [79.34179, 10.913], [79.34133, 10.91345], [79.34099, 10.91374], [79.34077, 10.91396], [79.34048, 10.91404], [79.3402, 10.91397], [79.34002, 10.91382], [79.33984, 10.91359], [79.33964, 10.91331], [79.33931, 10.91307], [79.33891, 10.91283], [79.33869, 10.91271], [79.33832, 10.91265], [79.33816, 10.91265], [79.33801, 10.91267], [79.33789, 10.91285], [79.33781, 10.91325], [79.33778, 10.91364], [79.33762, 10.91397], [79.33733, 10.9143], [79.33711, 10.91453], [79.33662, 10.91492], [79.33628, 10.91513], [79.33585, 10.91537], [79.33532, 10.91574], [79.33469, 10.91628], [79.33435, 10.91655], [79.33394, 10.91692], [79.33382, 10.91707], [79.33373, 10.9173], [79.33377, 10.91757], [79.33387, 10.91787], [79.33386, 10.91805], [79.33379, 10.91821], [79.33364, 10.91845], [79.3336, 10.91865], [79.33371, 10.91898], [79.33384, 10.91921], [79.33402, 10.91937], [79.33429, 10.91961], [79.33453, 10.91982], [79.33474, 10.91997], [79.33479, 10.92001], [79.33509, 10.92027], [79.33537, 10.9205], [79.33588, 10.92101], [79.33609, 10.92125], [79.33628, 10.92152], [79.33631, 10.92171], [79.33617, 10.92186], [79.33578, 10.92192], [79.33514, 10.92217], [79.33449, 10.92242], [79.33406, 10.92268], [79.33395, 10.92275], [79.33349, 10.92317], [79.33332, 10.92332], [79.33272, 10.92386], [79.33237, 10.92437], [79.33205, 10.9248], [79.33201, 10.92527], [79.332, 10.92575], [79.33193, 10.92606], [79.33179, 10.92622], [79.33152, 10.92633], [79.33138, 10.92638], [79.33101, 10.92646], [79.3303, 10.92645], [79.3299, 10.92645], [79.32944, 10.92642], [79.3289, 10.92638], [79.3288, 10.92637], [79.32834, 10.92634], [79.32777, 10.92636], [79.32716, 10.92644], [79.32672, 10.92661], [79.32667, 10.92663], [79.32618, 10.92684], [79.32567, 10.92701], [79.32492, 10.92741], [79.32463, 10.92761], [79.32431, 10.9278], [79.32404, 10.92793], [79.32375, 10.92797], [79.32327, 10.92796], [79.32293, 10.92797], [79.32236, 10.928], [79.322, 10.92804], [79.32147, 10.92821], [79.32116, 10.92833], [79.32054, 10.92852], [79.32023, 10.92862], [79.32003, 10.92868], [79.31955, 10.92878], [79.31902, 10.92886], [79.31853, 10.92902], [79.31782, 10.92932], [79.31745, 10.92961], [79.31715, 10.92992], [79.31692, 10.93012], [79.3167, 10.93022], [79.31647, 10.93022], [79.31604, 10.93005], [79.31591, 10.92988], [79.31587, 10.92982], [79.31582, 10.92971], [79.31573, 10.92954], [79.31564, 10.92931], [79.31559, 10.92927], [79.31547, 10.92915], [79.3151, 10.92901], [79.31477, 10.92888], [79.31452, 10.92861], [79.3144, 10.92844], [79.31428, 10.92883], [79.31413, 10.92929], [79.31376, 10.92969], [79.31342, 10.93014], [79.31303, 10.93038], [79.31259, 10.93054], [79.31221, 10.93058], [79.31199, 10.93059], [79.31158, 10.93057], [79.31121, 10.9306], [79.31094, 10.93077], [79.31068, 10.93108], [79.31062, 10.93116], [79.31036, 10.93148], [79.31006, 10.93177], [79.30996, 10.93188], [79.30969, 10.93218], [79.30925, 10.93247], [79.30701, 10.93326], [79.30596, 10.9342], [79.30531, 10.93472], [79.30494, 10.93508], [79.3044, 10.93544], [79.30408, 10.9356], [79.30374, 10.93574], [79.30336, 10.93578], [79.30298, 10.93608], [79.30259, 10.93594], [79.30231, 10.93578], [79.30226, 10.93575], [79.30189, 10.9356], [79.30158, 10.93553], [79.30122, 10.93552], [79.30089, 10.93562], [79.3007, 10.93573], [79.3006, 10.9358], [79.30028, 10.93608], [79.30004, 10.93637], [79.29964, 10.93681], [79.29915, 10.93729], [79.29887, 10.93762], [79.29875, 10.93776], [79.29833, 10.9382], [79.29801, 10.93835], [79.29768, 10.93836], [79.2975, 10.9382], [79.29739, 10.9379], [79.29729, 10.93759], [79.29703, 10.93751], [79.29669, 10.93746], [79.29627, 10.93745], [79.29544, 10.93747], [79.29506, 10.93752], [79.29485, 10.93755], [79.29417, 10.93762], [79.29378, 10.93757], [79.29347, 10.93734], [79.29316, 10.93721], [79.29283, 10.93718], [79.29245, 10.9372], [79.29223, 10.93723], [79.29248, 10.93692], [79.29256, 10.93674], [79.2926, 10.93665], [79.29256, 10.93624], [79.29251, 10.93593], [79.2923, 10.93566], [79.29204, 10.93526], [79.29157, 10.9349], [79.29127, 10.93468], [79.29091, 10.93427], [79.2908, 10.93415], [79.29038, 10.93358], [79.29003, 10.93311], [79.28985, 10.93287], [79.2898, 10.93281], [79.28931, 10.93215], [79.28875, 10.93151], [79.28802, 10.93067], [79.28765, 10.9302], [79.28721, 10.92965], [79.28691, 10.92928], [79.28628, 10.92871], [79.28596, 10.92842], [79.28536, 10.92788], [79.28486, 10.92766], [79.28476, 10.92762], [79.28426, 10.92758], [79.28318, 10.92762], [79.28279, 10.92766], [79.28208, 10.92772], [79.28094, 10.92774], [79.28026, 10.9277], [79.2795, 10.92752], [79.27865, 10.9273], [79.27823, 10.92694], [79.27805, 10.92662], [79.27788, 10.92594], [79.27787, 10.92565], [79.27787, 10.92539], [79.2779, 10.92479], [79.27811, 10.92438], [79.27818, 10.92349], [79.27926, 10.92309], [79.2793, 10.92308], [79.28027, 10.92268], [79.2804, 10.92262], [79.28179, 10.92215], [79.28258, 10.92173], [79.28292, 10.92153], [79.28341, 10.92128], [79.28401, 10.92092], [79.28489, 10.92037], [79.28562, 10.91954], [79.28604, 10.91906], [79.28723, 10.91775], [79.28751, 10.91745], [79.28852, 10.91633], [79.28902, 10.91578], [79.28915, 10.91564], [79.28967, 10.91507], [79.29022, 10.91432], [79.29036, 10.91361], [79.29039, 10.91347], [79.29037, 10.91216], [79.2904, 10.91121], [79.29046, 10.90901], [79.29059, 10.90826], [79.29082, 10.90776], [79.29094, 10.90762], [79.29114, 10.9074], [79.29179, 10.9074], [79.29358, 10.90739], [79.29484, 10.90743], [79.29588, 10.90763], [79.29685, 10.90782], [79.29748, 10.90787], [79.29794, 10.90766], [79.29817, 10.90706], [79.29821, 10.90631], [79.29824, 10.90566], [79.29821, 10.90489], [79.29833, 10.90394], [79.29851, 10.90339], [79.29881, 10.90253], [79.29882, 10.90249], [79.29872, 10.90251], [79.29685, 10.9028], [79.2959, 10.90284], [79.29422, 10.90291], [79.29268, 10.90301], [79.29103, 10.90289], [79.29071, 10.90287], [79.28921, 10.90272], [79.28741, 10.90277], [79.28719, 10.90278], [79.28617, 10.90281], [79.28509, 10.90283], [79.28374, 10.90293], [79.28253, 10.90318], [79.2818, 10.90363], [79.28088, 10.90444], [79.2801, 10.90544], [79.27928, 10.90635], [79.27864, 10.90675], [79.27832, 10.90675], [79.27761, 10.90675], [79.27664, 10.9067], [79.27552, 10.90659], [79.27482, 10.90654], [79.27407, 10.90675], [79.27403, 10.90656], [79.2739, 10.90637], [79.27352, 10.90637], [79.27319, 10.90646], [79.27256, 10.90674], [79.27189, 10.90724], [79.27092, 10.90774], [79.26989, 10.90808], [79.26975, 10.90814], [79.26963, 10.9068], [79.26962, 10.9067], [79.26975, 10.90581], [79.26985, 10.90568], [79.27015, 10.90526], [79.27096, 10.90476], [79.27167, 10.90449], [79.27212, 10.90388], [79.27231, 10.90332], [79.27228, 10.90232], [79.27216, 10.90181], [79.27225, 10.90159], [79.27235, 10.90132], [79.27286, 10.90093], [79.27336, 10.90032], [79.27339, 10.89965], [79.27305, 10.89904], [79.27252, 10.89881], [79.27246, 10.89859], [79.2726, 10.89798], [79.27316, 10.89754], [79.27334, 10.89676], [79.2733, 10.8957], [79.27323, 10.89527], [79.27316, 10.89487], [79.27292, 10.89413], [79.27281, 10.89381], [79.27241, 10.89309], [79.27164, 10.8923], [79.27068, 10.89196], [79.27009, 10.89176], [79.26966, 10.89162], [79.26886, 10.89145], [79.26818, 10.891], [79.26886, 10.89052], [79.27004, 10.88959], [79.27042, 10.88913], [79.27105, 10.88837], [79.27169, 10.88721], [79.27254, 10.886], [79.27301, 10.8845], [79.27376, 10.88351], [79.27438, 10.8829], [79.27488, 10.88218], [79.27472, 10.88181], [79.2747, 10.88134], [79.27468, 10.88062], [79.27479, 10.88009], [79.27498, 10.87955], [79.2752, 10.87901], [79.27539, 10.87858], [79.27554, 10.87819], [79.27563, 10.8778], [79.27575, 10.87733], [79.27576, 10.87669], [79.27578, 10.87612], [79.27599, 10.87547], [79.27607, 10.8753], [79.27625, 10.87494], [79.27656, 10.8747], [79.27681, 10.87451], [79.27765, 10.87402], [79.27881, 10.87367], [79.28003, 10.87329], [79.2809, 10.8729], [79.28143, 10.87251], [79.28184, 10.87235], [79.2822, 10.8722], [79.28291, 10.87199], [79.28342, 10.87181], [79.28358, 10.87175], [79.28477, 10.87158], [79.28626, 10.87138], [79.28767, 10.87124], [79.28823, 10.87119], [79.28951, 10.87086], [79.28961, 10.87084], [79.29022, 10.8706], [79.29043, 10.87047], [79.29061, 10.87036], [79.29101, 10.87011], [79.29201, 10.86955], [79.29254, 10.86905], [79.29276, 10.86848], [79.29283, 10.86734], [79.29293, 10.86623], [79.29315, 10.86559], [79.2935, 10.86481], [79.29368, 10.86458], [79.29393, 10.86428], [79.29461, 10.86379], [79.29485, 10.86365], [79.29528, 10.8634], [79.29578, 10.86312], [79.29614, 10.86277], [79.29623, 10.86234], [79.29613, 10.86127], [79.2961, 10.86037], [79.29598, 10.85977], [79.29593, 10.85905], [79.29576, 10.85794], [79.29564, 10.85737], [79.29546, 10.85694], [79.29524, 10.85654], [79.29506, 10.85614], [79.2949, 10.85546], [79.29499, 10.85477], [79.29495, 10.85357], [79.29493, 10.85339], [79.2949, 10.85306], [79.29506, 10.85224], [79.29528, 10.85157], [79.29563, 10.85097], [79.29619, 10.85026], [79.29645, 10.84985], [79.29665, 10.84959], [79.2968, 10.84898], [79.29681, 10.84823], [79.29677, 10.84676], [79.2966, 10.84572], [79.29627, 10.84393], [79.29604, 10.84281], [79.2957, 10.84189], [79.29537, 10.84095], [79.29517, 10.84054], [79.29489, 10.84017], [79.29461, 10.8401], [79.29424, 10.84013], [79.29407, 10.8402], [79.29369, 10.84019], [79.29339, 10.84019], [79.29311, 10.83989], [79.29306, 10.83939], [79.29314, 10.83875], [79.29313, 10.83835], [79.29289, 10.83724], [79.29255, 10.83609], [79.29253, 10.83602], [79.29233, 10.83529], [79.29207, 10.83466], [79.292, 10.8345], [79.29171, 10.83385], [79.29131, 10.83324], [79.2914, 10.83263], [79.29174, 10.83252], [79.29252, 10.8325], [79.29385, 10.83244], [79.29422, 10.83242], [79.29527, 10.83237], [79.29591, 10.83209], [79.29642, 10.83172], [79.29668, 10.83153], [79.29747, 10.83076], [79.29835, 10.82999], [79.29862, 10.82954], [79.29884, 10.82917], [79.299, 10.8286], [79.29902, 10.82853], [79.29918, 10.82776], [79.29926, 10.82739], [79.29935, 10.82686], [79.3005, 10.82699], [79.30103, 10.82717], [79.30151, 10.82727], [79.30179, 10.82727], [79.30203, 10.82728], [79.30223, 10.82708], [79.3025, 10.82666], [79.30262, 10.82658], [79.30286, 10.82659], [79.30334, 10.82656], [79.30372, 10.82652], [79.30394, 10.82649], [79.30458, 10.82655], [79.30478, 10.82658], [79.30503, 10.82661], [79.30568, 10.82651], [79.30574, 10.8265], [79.30606, 10.82639], [79.30686, 10.8262], [79.30769, 10.82585], [79.30823, 10.82532], [79.3085, 10.82482], [79.30868, 10.82415], [79.30907, 10.82374], [79.30938, 10.82354], [79.31025, 10.82328], [79.31084, 10.82296], [79.31143, 10.82281], [79.31191, 10.82279], [79.31226, 10.82259], [79.31262, 10.82239], [79.31301, 10.82219], [79.3134, 10.82208], [79.31388, 10.82197], [79.31419, 10.8219], [79.3146, 10.82193], [79.31491, 10.82196], [79.31579, 10.82212], [79.31619, 10.82222], [79.31659, 10.8224], [79.31726, 10.82233], [79.31809, 10.82194], [79.31868, 10.82158], [79.31891, 10.82138], [79.31911, 10.82135], [79.31931, 10.82135], [79.31934, 10.82041], [79.31945, 10.8204], [79.31957, 10.82035], [79.31965, 10.82028], [79.31992, 10.81999], [79.32048, 10.81957], [79.32109, 10.81939], [79.32162, 10.81932], [79.32211, 10.81941], [79.32253, 10.81965], [79.3227, 10.81976], [79.32294, 10.81977], [79.32328, 10.81962], [79.32402, 10.81929], [79.32562, 10.81933], [79.32583, 10.8193], [79.32639, 10.81921], [79.32647, 10.81911], [79.3265, 10.8189], [79.32644, 10.8187], [79.32641, 10.81859], [79.3264, 10.81826], [79.32646, 10.81798], [79.32656, 10.8178], [79.32684, 10.81758], [79.32735, 10.8175], [79.32746, 10.81748], [79.32823, 10.81738], [79.32918, 10.81705], [79.33009, 10.81646], [79.33052, 10.81616], [79.33089, 10.81594], [79.33097, 10.81581], [79.33101, 10.8156], [79.33098, 10.81528], [79.33087, 10.81509], [79.3305, 10.81468], [79.33024, 10.81433], [79.33022, 10.81424], [79.33009, 10.81369], [79.32999, 10.81244], [79.32999, 10.81122], [79.33003, 10.8111], [79.33021, 10.81051], [79.33032, 10.81032], [79.33063, 10.80981], [79.3311, 10.81052], [79.33156, 10.81122], [79.33164, 10.81134], [79.33235, 10.81203], [79.33311, 10.81272], [79.33395, 10.8133], [79.33484, 10.8138], [79.33593, 10.81431], [79.33607, 10.81434], [79.33668, 10.81449], [79.33745, 10.81454], [79.33768, 10.81444], [79.33798, 10.81392], [79.33825, 10.81346], [79.33876, 10.81309], [79.33945, 10.81269], [79.34044, 10.81238], [79.3416, 10.81236], [79.34266, 10.8125], [79.34399, 10.81267], [79.34543, 10.81276], [79.34697, 10.81301], [79.34736, 10.81305], [79.34765, 10.81308], [79.34826, 10.81315], [79.35063, 10.81341], [79.35164, 10.81358], [79.35198, 10.81364], [79.35231, 10.81357], [79.35246, 10.81342], [79.35256, 10.8133], [79.35271, 10.81325], [79.35294, 10.81325], [79.35309, 10.81331], [79.35328, 10.81345], [79.35412, 10.81263], [79.35516, 10.81183], [79.35591, 10.81127], [79.35597, 10.81122], [79.35638, 10.81092], [79.35687, 10.81056], [79.35789, 10.80971], [79.35866, 10.80925], [79.35896, 10.80914], [79.35981, 10.80881], [79.36024, 10.80874], [79.36057, 10.8087], [79.36142, 10.80807], [79.36185, 10.80775], [79.36302, 10.80751], [79.36339, 10.80742], [79.36462, 10.80714], [79.36606, 10.80735], [79.36725, 10.80756], [79.36802, 10.80742], [79.36872, 10.80728], [79.36935, 10.80704], [79.36969, 10.80678], [79.36982, 10.80596], [79.36982, 10.80514], [79.36997, 10.80442], [79.3701, 10.80382], [79.37057, 10.80276], [79.37164, 10.80059], [79.37126, 10.79857], [79.37121, 10.79842], [79.37094, 10.79809], [79.37087, 10.79802], [79.37075, 10.79789], [79.36934, 10.79624], [79.36766, 10.79559], [79.36376, 10.79407], [79.36323, 10.79386], [79.35928, 10.79375], [79.35889, 10.79374], [79.35696, 10.79368], [79.35329, 10.79357], [79.35266, 10.79163], [79.35202, 10.78968], [79.35105, 10.7867], [79.3506, 10.78533], [79.34745, 10.78331], [79.34655, 10.78273], [79.34515, 10.78182], [79.34516, 10.78095], [79.34516, 10.78085], [79.34516, 10.78073], [79.3452, 10.77839], [79.34521, 10.77772], [79.34524, 10.77654], [79.34536, 10.77244], [79.34547, 10.76844], [79.34754, 10.76791], [79.35741, 10.76537], [79.35974, 10.76433], [79.35981, 10.7643], [79.36033, 10.76407], [79.36107, 10.76374], [79.36178, 10.76343], [79.36264, 10.76305], [79.36047, 10.7562], [79.35915, 10.75354], [79.35875, 10.75275], [79.35869, 10.75262], [79.35833, 10.7519], [79.35791, 10.75104], [79.35749, 10.75019], [79.35726, 10.74974], [79.35663, 10.74977], [79.35656, 10.74977], [79.35397, 10.74988], [79.35055, 10.75002], [79.35032, 10.74759], [79.35008, 10.74507], [79.35002, 10.7444], [79.34693, 10.74278], [79.34514, 10.74184], [79.34492, 10.74173], [79.34459, 10.74155], [79.34289, 10.74066], [79.34053, 10.74021], [79.34022, 10.74015], [79.3402, 10.74015], [79.33656, 10.73946], [79.33599, 10.73944], [79.33457, 10.73948], [79.3292, 10.73955], [79.32598, 10.73959], [79.32453, 10.7396], [79.31981, 10.7399], [79.31891, 10.73995], [79.31756, 10.74003], [79.31699, 10.74007], [79.31253, 10.74035], [79.30984, 10.74597], [79.30956, 10.74655], [79.3062, 10.74598], [79.30505, 10.74579], [79.30308, 10.7434], [79.30215, 10.74228], [79.30187, 10.74193], [79.30111, 10.73941], [79.30105, 10.73918], [79.30034, 10.73685], [79.30018, 10.73632], [79.30119, 10.73515], [79.30442, 10.73553], [79.30565, 10.73101], [79.30596, 10.72982], [79.30656, 10.72799], [79.30669, 10.72757], [79.30679, 10.72712], [79.30692, 10.72647], [79.30702, 10.72595], [79.3074, 10.7241], [79.30751, 10.72344], [79.30724, 10.72267], [79.30762, 10.72045], [79.30809, 10.7177], [79.30787, 10.71648], [79.30666, 10.70959], [79.30941, 10.70461], [79.31068, 10.70231], [79.31387, 10.69651], [79.31404, 10.69622], [79.31608, 10.69252], [79.31814, 10.68878], [79.31878, 10.68762], [79.31882, 10.68683], [79.31853, 10.68239], [79.31863, 10.68214], [79.31873, 10.68186], [79.31867, 10.68092], [79.31871, 10.67964], [79.31791, 10.67711], [79.3173, 10.67519], [79.31728, 10.67512], [79.31723, 10.67377], [79.31718, 10.67225], [79.31713, 10.67064], [79.31703, 10.66751], [79.31781, 10.66135], [79.32935, 10.65941], [79.32954, 10.65938], [79.33118, 10.65911], [79.33903, 10.65861], [79.34103, 10.65848], [79.34224, 10.65745], [79.34283, 10.65695], [79.34507, 10.65506], [79.3479, 10.65266], [79.34799, 10.65251], [79.34985, 10.64943], [79.35017, 10.6489], [79.35065, 10.6481], [79.35094, 10.64762], [79.35119, 10.6472], [79.35697, 10.6481], [79.3571, 10.64812], [79.35705, 10.64788], [79.35558, 10.64123], [79.35532, 10.64007], [79.3552, 10.63953], [79.35484, 10.63787], [79.35468, 10.63714], [79.35429, 10.63533], [79.35397, 10.63383], [79.35335, 10.63099], [79.35301, 10.62944], [79.35275, 10.6293], [79.3517, 10.62873], [79.34928, 10.62741], [79.34821, 10.62683], [79.34657, 10.62594], [79.34577, 10.62551], [79.34515, 10.62517], [79.34676, 10.62312], [79.34887, 10.62043], [79.34896, 10.62011], [79.34914, 10.61945], [79.35017, 10.61567], [79.35141, 10.61282], [79.35151, 10.6126], [79.35193, 10.61163], [79.35223, 10.61093], [79.35239, 10.61056], [79.35115, 10.60952], [79.34967, 10.60829], [79.34915, 10.60786], [79.34895, 10.60769], [79.34812, 10.60699], [79.34787, 10.60678], [79.34898, 10.59699], [79.34866, 10.59587], [79.34775, 10.59268], [79.34727, 10.59098], [79.34735, 10.59085], [79.34833, 10.58922], [79.35011, 10.58627], [79.35358, 10.58437], [79.35493, 10.58363], [79.36304, 10.5792], [79.36906, 10.57923], [79.37012, 10.57923], [79.37366, 10.57934], [79.37678, 10.57944], [79.37793, 10.57993], [79.38244, 10.58187], [79.38352, 10.58233], [79.38941, 10.58335], [79.39105, 10.58275], [79.39616, 10.58087], [79.39895, 10.57923], [79.39908, 10.57916], [79.39966, 10.57882], [79.40164, 10.57766], [79.40299, 10.57687], [79.39993, 10.5729], [79.39955, 10.56924], [79.39934, 10.56722], [79.39886, 10.5625], [79.39929, 10.55975], [79.39954, 10.55818], [79.39956, 10.55805], [79.39969, 10.5572], [79.39978, 10.55666], [79.40075, 10.55602], [79.40085, 10.55596], [79.40395, 10.55394], [79.40819, 10.55116], [79.41244, 10.55162], [79.41413, 10.5518], [79.4154, 10.55193], [79.42084, 10.54951], [79.42093, 10.54947], [79.42097, 10.54953], [79.42208, 10.55111], [79.42565, 10.55619], [79.42622, 10.55766], [79.42646, 10.55828], [79.42745, 10.56082], [79.43346, 10.55754], [79.43436, 10.55705], [79.4356, 10.55765], [79.43946, 10.55951], [79.4402, 10.55966], [79.44034, 10.55963], [79.44236, 10.55881], [79.44423, 10.55805], [79.44601, 10.55733], [79.44655, 10.55711], [79.45122, 10.55746], [79.45378, 10.55067], [79.44846, 10.55027], [79.4473, 10.54975], [79.44269, 10.54766], [79.44251, 10.54758], [79.44215, 10.5474], [79.44087, 10.54677], [79.44003, 10.54635], [79.43839, 10.54554], [79.43808, 10.54542], [79.43783, 10.5454], [79.43717, 10.54535], [79.43663, 10.54531], [79.4335, 10.54511], [79.43308, 10.54494], [79.42979, 10.54361], [79.42818, 10.54297], [79.42806, 10.54292], [79.42717, 10.54256], [79.42579, 10.53872], [79.42529, 10.53734], [79.42472, 10.53576], [79.42517, 10.53564], [79.42776, 10.53496], [79.43076, 10.53418], [79.43232, 10.53377], [79.43431, 10.53325], [79.43499, 10.53307], [79.43516, 10.53288], [79.43606, 10.53189], [79.43633, 10.5316], [79.43822, 10.52951], [79.43921, 10.52841], [79.44072, 10.52582], [79.44108, 10.52521], [79.44114, 10.52511], [79.44249, 10.52279], [79.44467, 10.52218], [79.4478, 10.5213], [79.4531, 10.5218], [79.45326, 10.52181], [79.45456, 10.52116], [79.45597, 10.52045], [79.45727, 10.51979], [79.45731, 10.51977], [79.45747, 10.51934], [79.45763, 10.51891], [79.45815, 10.51749], [79.45866, 10.5161], [79.45906, 10.51501], [79.45925, 10.51448], [79.45938, 10.51461], [79.45961, 10.51442], [79.46401, 10.51389], [79.46608, 10.5127], [79.46818, 10.51149], [79.46934, 10.5108], [79.46402, 10.5063], [79.46267, 10.50517], [79.46205, 10.50464], [79.46185, 10.50434], [79.46074, 10.50265], [79.46032, 10.502], [79.46017, 10.50178], [79.45987, 10.50131], [79.45715, 10.49717], [79.45645, 10.4961], [79.45621, 10.49573], [79.45538, 10.49447], [79.45749, 10.49284], [79.461, 10.49012], [79.46274, 10.48876], [79.46459, 10.48958], [79.46709, 10.4907], [79.46932, 10.4917], [79.47181, 10.49281], [79.47883, 10.4926], [79.47978, 10.49257], [79.48025, 10.49215], [79.48345, 10.48929], [79.48375, 10.48902], [79.48408, 10.48872], [79.48398, 10.48754], [79.48408, 10.48701], [79.48426, 10.48656], [79.48409, 10.48227], [79.4841, 10.4792], [79.48289, 10.47651], [79.48273, 10.47614], [79.48254, 10.4759], [79.48237, 10.47568], [79.48181, 10.47521], [79.48161, 10.47289], [79.48127, 10.47203], [79.48088, 10.47105], [79.48079, 10.47081], [79.47827, 10.46466], [79.47691, 10.46364], [79.47658, 10.46339], [79.47389, 10.46138], [79.47083, 10.45909], [79.47171, 10.4572], [79.4725, 10.4555], [79.47315, 10.4541], [79.47406, 10.45213], [79.47461, 10.44878], [79.47474, 10.44799], [79.4748, 10.44763], [79.47525, 10.44494], [79.47548, 10.44485], [79.477, 10.44426], [79.48059, 10.44287], [79.47891, 10.4418], [79.47417, 10.4388], [79.47411, 10.43876], [79.47233, 10.43762], [79.47212, 10.43749], [79.47184, 10.4374], [79.46928, 10.43656], [79.4678, 10.43608], [79.46072, 10.43427], [79.45861, 10.43457], [79.45316, 10.43535], [79.45346, 10.43486], [79.45418, 10.43373], [79.45532, 10.43192], [79.45718, 10.42898], [79.45926, 10.42231], [79.45929, 10.42222], [79.45951, 10.42151], [79.4598, 10.42059], [79.46011, 10.41957], [79.46042, 10.41951], [79.46655, 10.41841], [79.46646, 10.417], [79.46641, 10.41625], [79.46634, 10.41519], [79.46633, 10.41499], [79.46626, 10.41404], [79.46622, 10.41342], [79.46815, 10.41238], [79.46858, 10.41215], [79.47294, 10.40981], [79.47357, 10.40947], [79.47367, 10.40942], [79.47505, 10.40867], [79.47638, 10.40634], [79.47753, 10.40433], [79.47778, 10.4039], [79.47912, 10.40156], [79.48031, 10.3995], [79.4784, 10.39917], [79.47786, 10.39908], [79.47741, 10.399], [79.47669, 10.39888], [79.47645, 10.39884], [79.47622, 10.39879], [79.47517, 10.39856], [79.47382, 10.39827], [79.47302, 10.39799], [79.47263, 10.39789], [79.47225, 10.39779], [79.47196, 10.39771], [79.47167, 10.39767], [79.47148, 10.39771], [79.47114, 10.39783], [79.47101, 10.39799], [79.4709, 10.39819], [79.47067, 10.39863], [79.4706, 10.39876], [79.47036, 10.39893], [79.47008, 10.39903], [79.47001, 10.39905], [79.46957, 10.39915], [79.46889, 10.39936], [79.46835, 10.39955], [79.4677, 10.39984], [79.46733, 10.39998], [79.46692, 10.40011], [79.4665, 10.40011], [79.4664, 10.40007], [79.46605, 10.39992], [79.46551, 10.3997], [79.46511, 10.39947], [79.46451, 10.39929], [79.46436, 10.39923], [79.46388, 10.39909], [79.46363, 10.39885], [79.46333, 10.39855], [79.46315, 10.39812], [79.46311, 10.39803], [79.46297, 10.3977], [79.4628, 10.39724], [79.46267, 10.3967], [79.46262, 10.39612], [79.46261, 10.39574], [79.46268, 10.39547], [79.4634, 10.39504], [79.46361, 10.39494], [79.46403, 10.39482], [79.46432, 10.3947], [79.46461, 10.39465], [79.46481, 10.39467], [79.46495, 10.39481], [79.46514, 10.39503], [79.46536, 10.39523], [79.46562, 10.3953], [79.46584, 10.39525], [79.46599, 10.39511], [79.46615, 10.39484], [79.46633, 10.39446], [79.46649, 10.39419], [79.46683, 10.39391], [79.46697, 10.39352], [79.46785, 10.39238], [79.46816, 10.39188], [79.46836, 10.39152], [79.46863, 10.39157], [79.46906, 10.39164], [79.46998, 10.38982], [79.47129, 10.38722], [79.46834, 10.38349], [79.46825, 10.38338], [79.4679, 10.38294], [79.46535, 10.37973], [79.46221, 10.37578], [79.46394, 10.37557], [79.47209, 10.37457], [79.47272, 10.37446], [79.47705, 10.37374], [79.47783, 10.37361], [79.47889, 10.37461], [79.47959, 10.3753], [79.48012, 10.37582], [79.48162, 10.37729], [79.4821, 10.37776], [79.48441, 10.38003], [79.48449, 10.38011], [79.48519, 10.38081], [79.48535, 10.38097], [79.48538, 10.381], [79.48587, 10.38147], [79.48629, 10.38188], [79.48755, 10.38013], [79.48869, 10.37855], [79.48877, 10.37844], [79.48982, 10.37698], [79.49164, 10.37446], [79.49373, 10.37344], [79.4977, 10.37149], [79.50421, 10.37026], [79.50423, 10.37026], [79.50538, 10.37004], [79.50544, 10.36993], [79.50559, 10.36966], [79.50611, 10.36858], [79.50836, 10.36392], [79.50841, 10.36195], [79.50853, 10.35593], [79.50855, 10.35505], [79.50856, 10.35471], [79.50804, 10.35499], [79.50713, 10.35563], [79.50637, 10.35617], [79.5054, 10.35615], [79.50523, 10.35599], [79.50445, 10.35525], [79.5044, 10.3551], [79.50415, 10.35437], [79.50419, 10.35336], [79.50421, 10.3529], [79.50423, 10.35226], [79.50552, 10.35143], [79.50561, 10.35092], [79.5077, 10.34936], [79.50828, 10.34905], [79.51134, 10.34756], [79.52796, 10.34041], [79.53349, 10.33755], [79.5349, 10.33656], [79.535, 10.33648], [79.53598, 10.33573], [79.53626, 10.33673], [79.53784, 10.33725], [79.54153, 10.33725], [79.544, 10.33903], [79.54559, 10.34058], [79.54561, 10.34246], [79.54486, 10.34389], [79.54328, 10.34544], [79.54327, 10.34689], [79.54433, 10.34751], [79.54855, 10.34803], [79.55205, 10.34711], [79.56575, 10.34246], [79.57931, 10.34074], [79.58469, 10.34111], [79.58696, 10.34213], [79.58889, 10.34167], [79.59007, 10.34115], [79.59041, 10.33944], [79.58975, 10.33474], [79.58786, 10.32913], [79.58627, 10.32757], [79.58364, 10.32705], [79.57203, 10.33023], [79.56428, 10.33183], [79.5595, 10.33235], [79.55517, 10.33022], [79.55253, 10.32659], [79.55111, 10.31943], [79.54959, 10.31756], [79.54787, 10.31625], [79.54135, 10.31316], [79.53829, 10.31287], [79.53649, 10.31399], [79.53414, 10.31552], [79.53171, 10.31665], [79.52887, 10.31693], [79.52614, 10.31531], [79.52468, 10.31407], [79.52362, 10.31148], [79.52402, 10.30816], [79.52617, 10.3064], [79.54242, 10.30244], [79.57374, 10.29833], [79.60707, 10.29281], [79.61462, 10.29139], [79.62386, 10.28847], [79.67838, 10.28054], [79.74158, 10.27335], [79.76899, 10.27249], [79.77645, 10.27265], [79.77675, 10.27325], [79.77694, 10.27403], [79.77699, 10.275], [79.77674, 10.27639], [79.77649, 10.2779], [79.77579, 10.27907], [79.77533, 10.27929], [79.77486, 10.28111], [79.77301, 10.28241], [79.77299, 10.28334], [79.77066, 10.28512], [79.76954, 10.28533], [79.76878, 10.28594], [79.76862, 10.28607], [79.76595, 10.28783], [79.76296, 10.28913], [79.76065, 10.28998], [79.75769, 10.28993], [79.75408, 10.28898], [79.75161, 10.29003], [79.7514, 10.29134], [79.75139, 10.2918], [79.75129, 10.29233], [79.75061, 10.29278], [79.74872, 10.30063], [79.7478, 10.30131], [79.74276, 10.3004], [79.73843, 10.29913], [79.73507, 10.29636], [79.73284, 10.29291], [79.72808, 10.29034], [79.72739, 10.2901], [79.7232, 10.29064], [79.70516, 10.29498], [79.70032, 10.29649], [79.69317, 10.30083], [79.69215, 10.30139], [79.68139, 10.30864], [79.67334, 10.31215], [79.66302, 10.31313], [79.64878, 10.31742], [79.64514, 10.31667], [79.63188, 10.31702], [79.61378, 10.31957], [79.61195, 10.32047], [79.6118, 10.32205], [79.61258, 10.32296], [79.61667, 10.32529], [79.62298, 10.32708], [79.62349, 10.32722], [79.62485, 10.32814], [79.62729, 10.33206], [79.62875, 10.33321], [79.63315, 10.33667], [79.63507, 10.33734], [79.63633, 10.33826], [79.63826, 10.33936], [79.64083, 10.33855], [79.64804, 10.33615], [79.65497, 10.33386], [79.65436, 10.3354], [79.65338, 10.33779], [79.64851, 10.34966], [79.64733, 10.35256], [79.6454, 10.35732], [79.64413, 10.36045], [79.64411, 10.36468], [79.64407, 10.37024], [79.64405, 10.37403], [79.64403, 10.37703], [79.64403, 10.37729], [79.64401, 10.38166], [79.64399, 10.3883], [79.64399, 10.3886], [79.64398, 10.39007], [79.64396, 10.3952], [79.64395, 10.39823], [79.64394, 10.40242], [79.64394, 10.40271], [79.64394, 10.40341], [79.64392, 10.4069], [79.64392, 10.40727], [79.64392, 10.40804], [79.64392, 10.40991], [79.64425, 10.41208], [79.64464, 10.4147], [79.64478, 10.41567], [79.64482, 10.41591], [79.64487, 10.41627], [79.64495, 10.41681], [79.64504, 10.41738], [79.64531, 10.41915], [79.64532, 10.41925], [79.64534, 10.41937], [79.64536, 10.41951], [79.64543, 10.41998], [79.64592, 10.42329], [79.64606, 10.4242], [79.6467, 10.42843], [79.64678, 10.42895], [79.64737, 10.43287], [79.6477, 10.43508], [79.64772, 10.43521], [79.6479, 10.43645], [79.64836, 10.43951], [79.64863, 10.44129], [79.64907, 10.44467], [79.64914, 10.44519], [79.6501, 10.45195], [79.65015, 10.4523], [79.65085, 10.45736], [79.65098, 10.45834], [79.65122, 10.45838], [79.65162, 10.45844], [79.65448, 10.45892], [79.65481, 10.45898], [79.65852, 10.4596], [79.65947, 10.45976], [79.65967, 10.45979], [79.65981, 10.45981], [79.66014, 10.45987], [79.66615, 10.46088], [79.67335, 10.46208], [79.67615, 10.46382], [79.67623, 10.46387], [79.67659, 10.4641], [79.67697, 10.46434], [79.67895, 10.46556], [79.6795, 10.46591], [79.681, 10.46684], [79.6812, 10.46696], [79.68141, 10.46709], [79.68253, 10.46779], [79.68264, 10.46786], [79.68296, 10.46806], [79.69037, 10.47266], [79.69027, 10.47339], [79.68998, 10.47561], [79.68979, 10.47677], [79.68965, 10.47778], [79.68957, 10.47834], [79.68949, 10.47894], [79.68944, 10.47924], [79.68942, 10.47942], [79.68939, 10.47956], [79.68935, 10.47991], [79.68854, 10.48564], [79.68835, 10.48702], [79.68829, 10.48742], [79.68948, 10.48809], [79.69032, 10.48856], [79.69105, 10.48897], [79.69207, 10.48954], [79.69416, 10.49072], [79.69547, 10.49145], [79.69929, 10.4936], [79.69903, 10.4942], [79.69784, 10.49699], [79.69489, 10.50385], [79.69438, 10.50505], [79.69418, 10.50536], [79.69406, 10.50571], [79.69304, 10.50817], [79.69304, 10.50945], [79.69304, 10.51009], [79.69304, 10.5107], [79.69303, 10.5141], [79.69303, 10.51432], [79.69302, 10.51639], [79.69302, 10.51824], [79.69302, 10.51867], [79.69302, 10.52035], [79.69301, 10.5217], [79.69301, 10.52267], [79.69301, 10.52417], [79.69329, 10.52461], [79.6949, 10.52714], [79.69787, 10.53181], [79.69965, 10.53455], [79.70065, 10.53621], [79.70136, 10.53733], [79.7054, 10.54371], [79.70572, 10.54702], [79.70625, 10.55245], [79.70636, 10.55355], [79.7038, 10.55368], [79.70348, 10.5537], [79.70124, 10.55381], [79.69936, 10.55391], [79.6985, 10.55395], [79.69813, 10.55397], [79.69687, 10.55403], [79.69674, 10.55404], [79.69431, 10.55416], [79.69142, 10.55431], [79.68895, 10.55443], [79.68872, 10.55445], [79.68791, 10.55449], [79.68756, 10.5545], [79.68707, 10.55453], [79.68551, 10.55461], [79.68457, 10.55466], [79.68344, 10.55471], [79.6831, 10.55473], [79.68113, 10.55483], [79.67975, 10.5549], [79.67896, 10.55494], [79.67857, 10.55496], [79.67834, 10.55497], [79.67408, 10.55519], [79.67165, 10.55531], [79.67131, 10.55533], [79.66924, 10.55543], [79.66766, 10.55551], [79.66614, 10.55559], [79.66469, 10.55566], [79.66219, 10.55801], [79.66195, 10.55823], [79.6609, 10.55922], [79.66059, 10.55952], [79.66115, 10.56122], [79.66124, 10.5615], [79.66145, 10.56212], [79.66164, 10.56271], [79.66168, 10.56283], [79.66255, 10.56548], [79.66258, 10.56558], [79.66289, 10.5665], [79.66473, 10.57209], [79.66505, 10.57308], [79.66548, 10.57443], [79.66558, 10.57471], [79.66561, 10.5748], [79.66642, 10.57726], [79.66662, 10.57786], [79.66684, 10.57852], [79.66776, 10.58132], [79.66839, 10.58325], [79.66889, 10.58477], [79.66932, 10.58609], [79.66958, 10.5892], [79.66979, 10.59165], [79.66991, 10.59306], [79.67002, 10.59435], [79.67012, 10.59634], [79.67014, 10.59673], [79.67016, 10.59707], [79.67035, 10.60095], [79.67, 10.60175], [79.6699, 10.60197], [79.66947, 10.60293], [79.66929, 10.60331], [79.66899, 10.604], [79.66892, 10.60415], [79.66723, 10.60792], [79.66707, 10.60828], [79.66602, 10.61063], [79.66573, 10.61128], [79.66446, 10.61412], [79.66588, 10.61481], [79.66666, 10.61519], [79.66754, 10.61562], [79.6677, 10.6157], [79.66794, 10.61581], [79.66891, 10.61628], [79.67698, 10.62021], [79.67824, 10.62082], [79.67968, 10.62151], [79.68506, 10.62407], [79.68561, 10.62433], [79.68727, 10.62513], [79.68772, 10.62534], [79.68882, 10.62736], [79.6893, 10.62825], [79.69002, 10.62958], [79.69442, 10.63768], [79.6963, 10.6411], [79.69458, 10.64163], [79.69411, 10.64177], [79.69316, 10.64206], [79.69286, 10.64215], [79.69028, 10.64295], [79.6887, 10.64346], [79.68767, 10.64376], [79.6852, 10.64452], [79.68501, 10.64457], [79.68308, 10.64517], [79.68294, 10.64521], [79.68172, 10.64559], [79.6784, 10.64661], [79.6783, 10.64664], [79.67647, 10.64721], [79.67569, 10.648], [79.67557, 10.64811], [79.67549, 10.6482], [79.67525, 10.64844], [79.67486, 10.64884], [79.67416, 10.64956], [79.67398, 10.64973], [79.67386, 10.64986], [79.67248, 10.65126], [79.6716, 10.65215], [79.67101, 10.65275], [79.66946, 10.65432], [79.66885, 10.65494], [79.66837, 10.65543], [79.6683, 10.65549], [79.668, 10.6558], [79.66953, 10.65707], [79.66967, 10.65719], [79.66975, 10.65725], [79.6701, 10.65754], [79.67051, 10.65788], [79.67086, 10.65817], [79.67106, 10.65834], [79.67167, 10.65884], [79.67238, 10.65943], [79.67266, 10.65966], [79.67222, 10.66109], [79.67431, 10.66653], [79.67508, 10.66708], [79.67723, 10.66862], [79.67855, 10.67109], [79.6802, 10.67417], [79.68058, 10.67489], [79.68033, 10.67759], [79.67944, 10.68734], [79.67932, 10.68868], [79.67514, 10.69286], [79.67159, 10.69505], [79.66093, 10.70164], [79.66024, 10.70602], [79.65999, 10.70788], [79.6599, 10.70829], [79.65982, 10.70866], [79.65967, 10.70959], [79.65989, 10.7096], [79.66636, 10.71], [79.67246, 10.71195], [79.6726, 10.71197], [79.67275, 10.71197], [79.67291, 10.71202], [79.67338, 10.71218], [79.67588, 10.71305], [79.67682, 10.71335], [79.67724, 10.71352], [79.67869, 10.7141], [79.67992, 10.71459], [79.68182, 10.71535], [79.68575, 10.71692], [79.68936, 10.71837], [79.68969, 10.72054], [79.69006, 10.72293], [79.69019, 10.7238], [79.68643, 10.73216], [79.68884, 10.73525], [79.69183, 10.73907], [79.6926, 10.74007], [79.69276, 10.7405], [79.69291, 10.74092], [79.69317, 10.74136], [79.69586, 10.74424], [79.69688, 10.74554], [79.69965, 10.75503], [79.69981, 10.75557], [79.69991, 10.75618], [79.69993, 10.75629], [79.70038, 10.75914], [79.70064, 10.76074], [79.70085, 10.76204], [79.70102, 10.76373], [79.70148, 10.76602], [79.70732, 10.77853], [79.70896, 10.78201], [79.70929, 10.78196], [79.70998, 10.78436], [79.71053, 10.78628], [79.71062, 10.78661], [79.71066, 10.78675], [79.71089, 10.78755], [79.71444, 10.79056], [79.71632, 10.79215], [79.71803, 10.79245], [79.72061, 10.79291], [79.72177, 10.7933], [79.72265, 10.79336], [79.72343, 10.79341], [79.72573, 10.79479], [79.73129, 10.79812], [79.73179, 10.79842], [79.73184, 10.79855], [79.73215, 10.79932], [79.73405, 10.80408], [79.73597, 10.80887], [79.73529, 10.81768], [79.73527, 10.81797], [79.73513, 10.81974], [79.73505, 10.81985], [79.73337, 10.82203], [79.72889, 10.82785], [79.72594, 10.82685], [79.72308, 10.82667], [79.72203, 10.8266], [79.70587, 10.82559], [79.70562, 10.82569], [79.69945, 10.82809], [79.69835, 10.82852], [79.69595, 10.82795], [79.69534, 10.8278], [79.68957, 10.82643], [79.68748, 10.82267], [79.68606, 10.81701], [79.68566, 10.81622], [79.68178, 10.81598], [79.67729, 10.81598], [79.67493, 10.81598], [79.67009, 10.81535], [79.66539, 10.81475], [79.66526, 10.81473], [79.66514, 10.81061], [79.66586, 10.80899], [79.6668, 10.80688], [79.66698, 10.80648], [79.66707, 10.80627], [79.66713, 10.80614], [79.6681, 10.80396], [79.66864, 10.80277], [79.66886, 10.80226], [79.66988, 10.79997], [79.67238, 10.79811], [79.67275, 10.79784], [79.67324, 10.79758], [79.67357, 10.79732], [79.67435, 10.79671], [79.67483, 10.79636], [79.67577, 10.79567], [79.67663, 10.79504], [79.67715, 10.79466], [79.67784, 10.79415], [79.67813, 10.79394], [79.67821, 10.79389], [79.67838, 10.79376], [79.67882, 10.79344], [79.67971, 10.79279], [79.68105, 10.79181], [79.68153, 10.79145], [79.68163, 10.78986], [79.68171, 10.78864], [79.68204, 10.78761], [79.68197, 10.78716], [79.68114, 10.78607], [79.6805, 10.78595], [79.67855, 10.78633], [79.67702, 10.78866], [79.67683, 10.78981], [79.67589, 10.7917], [79.67477, 10.79292], [79.67412, 10.79296], [79.67394, 10.79297], [79.67358, 10.793], [79.67321, 10.79303], [79.67077, 10.79322], [79.6693, 10.79333], [79.66652, 10.79418], [79.6662, 10.79295], [79.66599, 10.79227], [79.66585, 10.79194], [79.66576, 10.79174], [79.66535, 10.79119], [79.66482, 10.79067], [79.66444, 10.79027], [79.66379, 10.78999], [79.66264, 10.78966], [79.66232, 10.78955], [79.66209, 10.78951], [79.66153, 10.7895], [79.66109, 10.7895], [79.66074, 10.78951], [79.6605, 10.78966], [79.6604, 10.78988], [79.66031, 10.79038], [79.66006, 10.79076], [79.65972, 10.79092], [79.65977, 10.7912], [79.66225, 10.80395], [79.66239, 10.80469], [79.66202, 10.80566], [79.66196, 10.80582], [79.66188, 10.80593], [79.66166, 10.80642], [79.66114, 10.80761], [79.66102, 10.8079], [79.66081, 10.80837], [79.66077, 10.80847], [79.66051, 10.80908], [79.65928, 10.80947], [79.65566, 10.81062], [79.64817, 10.813], [79.64612, 10.81332], [79.64562, 10.8134], [79.64527, 10.81345], [79.64337, 10.81452], [79.64322, 10.81471], [79.64337, 10.81493], [79.64435, 10.81632], [79.64499, 10.81722], [79.64601, 10.81912], [79.64614, 10.81928], [79.64635, 10.81949], [79.64856, 10.82317], [79.64964, 10.82497], [79.65018, 10.8258], [79.65456, 10.83251], [79.65485, 10.83296], [79.65551, 10.83396], [79.65572, 10.83428], [79.65675, 10.83584], [79.65431, 10.85023], [79.6533, 10.85616], [79.65326, 10.85641], [79.65299, 10.85799], [79.65361, 10.86335], [79.65385, 10.86542], [79.65442, 10.87023], [79.65548, 10.88028], [79.65551, 10.88061], [79.65563, 10.88103], [79.65591, 10.88349], [79.65658, 10.88482], [79.65868, 10.88899], [79.66047, 10.89259], [79.66553, 10.90272], [79.66685, 10.90428], [79.66704, 10.90451], [79.66737, 10.90478], [79.66814, 10.90565], [79.67196, 10.90995], [79.67206, 10.91006], [79.67222, 10.91024], [79.6724, 10.91044], [79.67401, 10.91226], [79.67487, 10.91323], [79.67828, 10.91707], [79.67916, 10.91806], [79.68225, 10.92154], [79.6823, 10.92155], [79.68654, 10.9224], [79.69518, 10.92413], [79.70106, 10.9253], [79.70662, 10.92329], [79.71611, 10.91986], [79.71946, 10.92321], [79.72209, 10.92557], [79.72273, 10.92614], [79.72661, 10.92961], [79.72734, 10.9301], [79.72815, 10.93043], [79.72824, 10.93046], [79.72942, 10.93096], [79.72983, 10.9311], [79.73047, 10.93133], [79.73126, 10.9316], [79.73156, 10.93169], [79.73242, 10.93201], [79.73347, 10.93242], [79.73442, 10.93305], [79.73519, 10.93337], [79.73628, 10.93414], [79.73678, 10.93482], [79.73726, 10.93544], [79.73682, 10.93607], [79.73679, 10.93612], [79.73669, 10.93686], [79.73674, 10.93752], [79.73697, 10.93841], [79.73717, 10.93893], [79.73737, 10.93916], [79.73767, 10.9394], [79.73808, 10.93951], [79.73867, 10.93949], [79.7394, 10.93945], [79.7397, 10.93949], [79.7399, 10.93967], [79.74001, 10.93986], [79.74007, 10.9401], [79.74005, 10.94043], [79.73992, 10.94071], [79.73976, 10.94086], [79.73944, 10.94093], [79.73906, 10.94095], [79.73873, 10.94096], [79.73819, 10.94094], [79.73765, 10.94091], [79.73667, 10.94084], [79.73622, 10.94089], [79.73612, 10.94095], [79.73598, 10.94104], [79.73588, 10.94128], [79.73585, 10.94135], [79.73586, 10.94179], [79.73597, 10.94211], [79.73627, 10.94226], [79.7367, 10.94243], [79.73727, 10.94263], [79.73771, 10.94277], [79.73776, 10.94301], [79.73772, 10.94332], [79.73748, 10.94369], [79.73711, 10.94409], [79.7368, 10.94449], [79.73651, 10.94502], [79.7363, 10.94539], [79.7361, 10.94606], [79.73593, 10.9467], [79.73589, 10.94733], [79.73592, 10.94779], [79.73609, 10.94814], [79.73615, 10.94819], [79.73638, 10.9484], [79.73642, 10.94843], [79.73697, 10.94857], [79.7373, 10.94864], [79.73759, 10.9487], [79.73818, 10.94873], [79.73846, 10.94874], [79.73927, 10.94879], [79.73998, 10.94883], [79.74003, 10.94883], [79.74087, 10.94887], [79.74179, 10.94891], [79.74263, 10.94901], [79.74293, 10.94916], [79.74304, 10.94942], [79.7431, 10.94994], [79.74322, 10.95062], [79.74331, 10.95106], [79.74352, 10.95139], [79.74362, 10.95154], [79.74389, 10.95182], [79.74439, 10.95216], [79.74488, 10.95243], [79.74531, 10.9526], [79.74575, 10.95275], [79.74637, 10.95288], [79.74689, 10.95302], [79.74714, 10.95325], [79.74728, 10.95357], [79.74751, 10.95397], [79.74773, 10.95445], [79.74776, 10.95449], [79.74795, 10.95472], [79.74815, 10.95498], [79.74829, 10.95538], [79.74835, 10.95582], [79.74834, 10.9564], [79.74828, 10.95731], [79.74827, 10.95734], [79.74824, 10.95755], [79.74818, 10.95791], [79.74812, 10.95869], [79.748, 10.95946], [79.7479, 10.96007], [79.74772, 10.96033], [79.74724, 10.96052], [79.74667, 10.96054], [79.74632, 10.96045], [79.74599, 10.96025], [79.74579, 10.95993], [79.74565, 10.95942], [79.74559, 10.95906], [79.74531, 10.9579], [79.74508, 10.95739], [79.74483, 10.95705], [79.74455, 10.95681], [79.74412, 10.95661], [79.74368, 10.9565], [79.74317, 10.95644], [79.74241, 10.95648], [79.74203, 10.95653], [79.74106, 10.95666], [79.7405, 10.95682], [79.73999, 10.95704], [79.73937, 10.95723], [79.7386, 10.95746], [79.73853, 10.95747], [79.73814, 10.95754], [79.73754, 10.95749], [79.7373, 10.95739], [79.73708, 10.95718], [79.73688, 10.95699], [79.73658, 10.95687], [79.73628, 10.9568], [79.73577, 10.95683], [79.73534, 10.95687], [79.7348, 10.95704], [79.73432, 10.95717], [79.73408, 10.95723], [79.73314, 10.95769], [79.73258, 10.95802], [79.73208, 10.9584], [79.73176, 10.95874], [79.73174, 10.9588], [79.73166, 10.95905], [79.73166, 10.9591], [79.73166, 10.95917], [79.73168, 10.95946], [79.73179, 10.9597], [79.73218, 10.95995], [79.73256, 10.96024], [79.73268, 10.9607], [79.73242, 10.96137], [79.73217, 10.96185], [79.73171, 10.96225], [79.73137, 10.96273], [79.73125, 10.96304], [79.73128, 10.96345], [79.73153, 10.96374], [79.73211, 10.96407], [79.73254, 10.96427], [79.73271, 10.96459], [79.73273, 10.96525], [79.73258, 10.96583], [79.73237, 10.96675], [79.73222, 10.96719], [79.73223, 10.96785], [79.73238, 10.96859], [79.73266, 10.96893], [79.73269, 10.96902], [79.73275, 10.96923], [79.73271, 10.96992], [79.73253, 10.97058], [79.73233, 10.97119], [79.73216, 10.97181], [79.7322, 10.97364], [79.73242, 10.97399], [79.73256, 10.97406], [79.73272, 10.97414], [79.73326, 10.97417], [79.73402, 10.97419], [79.7348, 10.97429], [79.73569, 10.97439], [79.7374, 10.97456], [79.73841, 10.97467], [79.73911, 10.97467], [79.74011, 10.97469], [79.74027, 10.97469], [79.74149, 10.97463], [79.74216, 10.97457], [79.74275, 10.97452], [79.74284, 10.97451], [79.74351, 10.97442], [79.74429, 10.97427], [79.74504, 10.97404], [79.74534, 10.97391], [79.74573, 10.97373], [79.7462, 10.9735], [79.74645, 10.97337], [79.74733, 10.97294], [79.74803, 10.97255], [79.7488, 10.97215], [79.74941, 10.97157], [79.75033, 10.97053], [79.75103, 10.96997], [79.75162, 10.96977], [79.75214, 10.96975], [79.75267, 10.96972], [79.75343, 10.96959], [79.7542, 10.9693], [79.75595, 10.96871], [79.75626, 10.96842], [79.75647, 10.96813], [79.75662, 10.96757], [79.75661, 10.96703], [79.75667, 10.96576], [79.75666, 10.96519], [79.75661, 10.96423], [79.75652, 10.96352], [79.75634, 10.96276], [79.75627, 10.96205], [79.75639, 10.96122], [79.75668, 10.96074], [79.75699, 10.96047], [79.75748, 10.96045], [79.75813, 10.96049], [79.75818, 10.9605], [79.75905, 10.96072], [79.75973, 10.96086], [79.76059, 10.96095], [79.76135, 10.96093], [79.7621, 10.96089], [79.76341, 10.96103], [79.76363, 10.96105], [79.76468, 10.96114], [79.76544, 10.96106], [79.76608, 10.96089], [79.76675, 10.9606], [79.7675, 10.96047], [79.76839, 10.96044], [79.76912, 10.9605], [79.76985, 10.96064], [79.77023, 10.96095], [79.77083, 10.96116], [79.77161, 10.96113], [79.77266, 10.96101], [79.77295, 10.96094], [79.77354, 10.96081], [79.77423, 10.96059], [79.77432, 10.96056], [79.77475, 10.96038], [79.77494, 10.9603], [79.77555, 10.96007], [79.77619, 10.95978], [79.7768, 10.95976], [79.77704, 10.95996], [79.77708, 10.96045], [79.77695, 10.96096], [79.77661, 10.96147], [79.77646, 10.96179], [79.77628, 10.96216], [79.77604, 10.9625], [79.77572, 10.96293], [79.77544, 10.96345], [79.77526, 10.96404], [79.77536, 10.96491], [79.77542, 10.96562], [79.77551, 10.96619], [79.7755, 10.96668], [79.77539, 10.96702], [79.775, 10.96762], [79.77454, 10.96815], [79.77422, 10.96858], [79.77399, 10.96903], [79.77377, 10.97009], [79.7737, 10.9707], [79.77349, 10.97132], [79.77315, 10.97175], [79.77175, 10.97271], [79.77164, 10.97279], [79.77102, 10.97327], [79.77057, 10.9736], [79.77036, 10.97375], [79.76988, 10.97417], [79.76985, 10.9742], [79.76945, 10.97459], [79.76917, 10.97487], [79.76867, 10.97545], [79.76846, 10.97596], [79.76843, 10.97605], [79.76809, 10.97683], [79.76788, 10.97715], [79.76775, 10.97754], [79.76773, 10.97793], [79.76785, 10.97825], [79.76807, 10.97854], [79.76837, 10.97856], [79.76878, 10.97857], [79.7689, 10.9786], [79.76971, 10.97866], [79.77047, 10.97879], [79.77133, 10.97879], [79.77216, 10.97901], [79.77245, 10.97897], [79.77273, 10.97894], [79.77321, 10.97905], [79.77354, 10.97927], [79.77371, 10.97953], [79.77385, 10.98002], [79.77399, 10.98067], [79.77409, 10.98126], [79.77407, 10.98195], [79.77392, 10.98226], [79.77338, 10.98257], [79.77272, 10.98281], [79.77191, 10.98287], [79.77102, 10.98298], [79.77054, 10.98304], [79.77014, 10.98309], [79.7698, 10.98329], [79.76953, 10.98344], [79.76868, 10.98418], [79.76823, 10.98473], [79.76815, 10.98486], [79.76793, 10.98524], [79.76752, 10.98626], [79.76726, 10.98688], [79.76695, 10.98717], [79.7666, 10.98746], [79.76644, 10.98759], [79.76637, 10.98763], [79.76623, 10.98771], [79.76591, 10.98791], [79.76578, 10.98799], [79.76518, 10.98836], [79.76424, 10.98882], [79.76354, 10.98922], [79.76346, 10.9893], [79.76328, 10.98951], [79.76326, 10.99009], [79.76327, 10.99013], [79.76338, 10.99058], [79.76343, 10.99092], [79.76345, 10.99109], [79.76346, 10.9917], [79.76331, 10.99236], [79.76305, 10.99312], [79.76303, 10.99375], [79.76312, 10.99462], [79.76333, 10.99535], [79.76339, 10.99606], [79.76343, 10.99661], [79.76342, 10.9968], [79.76338, 10.99747], [79.76337, 10.9976], [79.76338, 10.99801], [79.76376, 11.00244], [79.76376, 11.0025]]]}}