{"type": "Feature", "properties": {"shapeName": "Tirupathur", "shapeISO": "", "shapeID": "76128533B11403491783632", "shapeGroup": "IND", "shapeType": "ADM2"}, "geometry": {"type": "Polygon", "coordinates": [[[78.40967, 12.62528], [78.40843, 12.61972], [78.40856, 12.61922], [78.40967, 12.61483], [78.41038, 12.61205], [78.41037, 12.61142], [78.41034, 12.60844], [78.4094, 12.60548], [78.40838, 12.60225], [78.41007, 12.60047], [78.41092, 12.59957], [78.411, 12.59721], [78.41102, 12.59649], [78.41129, 12.58837], [78.41281, 12.58565], [78.4136, 12.58376], [78.41837, 12.57423], [78.42099, 12.56899], [78.42066, 12.56675], [78.41972, 12.56028], [78.41928, 12.5573], [78.41857, 12.55244], [78.41849, 12.55184], [78.41838, 12.55114], [78.41828, 12.55041], [78.41789, 12.54185], [78.41788, 12.54171], [78.41777, 12.53927], [78.41533, 12.52723], [78.41827, 12.52537], [78.41822, 12.52504], [78.41631, 12.51693], [78.41719, 12.51626], [78.41898, 12.51489], [78.41986, 12.51368], [78.42048, 12.51282], [78.42104, 12.51205], [78.42092, 12.51148], [78.42054, 12.50964], [78.41852, 12.49976], [78.41848, 12.49956], [78.41798, 12.49716], [78.41778, 12.4962], [78.41766, 12.49559], [78.4178, 12.49364], [78.41812, 12.49159], [78.41845, 12.48967], [78.41852, 12.4882], [78.41896, 12.4868], [78.41998, 12.48427], [78.42073, 12.48341], [78.42105, 12.48296], [78.42139, 12.48254], [78.42097, 12.48157], [78.42089, 12.47992], [78.42097, 12.47819], [78.42119, 12.47687], [78.42141, 12.47616], [78.42153, 12.47533], [78.42447, 12.47412], [78.42459, 12.47407], [78.42633, 12.47398], [78.42688, 12.47407], [78.42742, 12.47405], [78.42778, 12.47369], [78.42803, 12.47316], [78.42806, 12.4727], [78.43, 12.46961], [78.43241, 12.46577], [78.43294, 12.46492], [78.43343, 12.46414], [78.43431, 12.46273], [78.43675, 12.46106], [78.43878, 12.45947], [78.44137, 12.45744], [78.44259, 12.45649], [78.44567, 12.45407], [78.44681, 12.45318], [78.44968, 12.45154], [78.4501, 12.45134], [78.4509, 12.45091], [78.45144, 12.45061], [78.44942, 12.44127], [78.45081, 12.43866], [78.45293, 12.43467], [78.45381, 12.43301], [78.45535, 12.43011], [78.45505, 12.42932], [78.45341, 12.42497], [78.45334, 12.42478], [78.45137, 12.41955], [78.45123, 12.41918], [78.45097, 12.41888], [78.45067, 12.41854], [78.45058, 12.41837], [78.4476, 12.41461], [78.44411, 12.41021], [78.44211, 12.40769], [78.44163, 12.40401], [78.44153, 12.40326], [78.44142, 12.40246], [78.44136, 12.40197], [78.44127, 12.40132], [78.44104, 12.40111], [78.44038, 12.40049], [78.43938, 12.39956], [78.43701, 12.39736], [78.43697, 12.39632], [78.4369, 12.39419], [78.43805, 12.39298], [78.43854, 12.39246], [78.44031, 12.39059], [78.44411, 12.39076], [78.44819, 12.38934], [78.45288, 12.38771], [78.45352, 12.38749], [78.45769, 12.38604], [78.46025, 12.38515], [78.46297, 12.38724], [78.46495, 12.39102], [78.46567, 12.39121], [78.46718, 12.39162], [78.46749, 12.39159], [78.46822, 12.39154], [78.47671, 12.39099], [78.47878, 12.39086], [78.48189, 12.39054], [78.48367, 12.39054], [78.48887, 12.38844], [78.4906, 12.38774], [78.49143, 12.39277], [78.49148, 12.39309], [78.49151, 12.39331], [78.49212, 12.39702], [78.49254, 12.39957], [78.49315, 12.40328], [78.49341, 12.4049], [78.49366, 12.40521], [78.49481, 12.40669], [78.49513, 12.40711], [78.49718, 12.40974], [78.4977, 12.41041], [78.49957, 12.40948], [78.50179, 12.40837], [78.50186, 12.40833], [78.50244, 12.40805], [78.50298, 12.40778], [78.50304, 12.40775], [78.50494, 12.40453], [78.50505, 12.40434], [78.5052, 12.40409], [78.50542, 12.40371], [78.50554, 12.40351], [78.50589, 12.40292], [78.50751, 12.40017], [78.5092, 12.4004], [78.51277, 12.40111], [78.51319, 12.40135], [78.51648, 12.40557], [78.52067, 12.4043], [78.52337, 12.4029], [78.52568, 12.4017], [78.52818, 12.4004], [78.52905, 12.39994], [78.53634, 12.39795], [78.5388, 12.39749], [78.54095, 12.39709], [78.54384, 12.39745], [78.54551, 12.39766], [78.55007, 12.39505], [78.55584, 12.39174], [78.5561, 12.39159], [78.55754, 12.39077], [78.56315, 12.38926], [78.56633, 12.38841], [78.56792, 12.38799], [78.56935, 12.38723], [78.5707, 12.38651], [78.57113, 12.38373], [78.5714, 12.38196], [78.5715, 12.38176], [78.57217, 12.38039], [78.57296, 12.37876], [78.57328, 12.3781], [78.57441, 12.37598], [78.5751, 12.37433], [78.57595, 12.3733], [78.57871, 12.36998], [78.57993, 12.36852], [78.58065, 12.36765], [78.5835, 12.36422], [78.58704, 12.36186], [78.58989, 12.35997], [78.5902, 12.35977], [78.59124, 12.35908], [78.59177, 12.35873], [78.59278, 12.35806], [78.59557, 12.35727], [78.59766, 12.35668], [78.59834, 12.35648], [78.59997, 12.35602], [78.60185, 12.35549], [78.60256, 12.35529], [78.61365, 12.35214], [78.61461, 12.35116], [78.61582, 12.34994], [78.61666, 12.3491], [78.61749, 12.34826], [78.61861, 12.34713], [78.61733, 12.34322], [78.61709, 12.3425], [78.61732, 12.34104], [78.61773, 12.33846], [78.61593, 12.33542], [78.61586, 12.33529], [78.6143, 12.33264], [78.61326, 12.33087], [78.61294, 12.33033], [78.61269, 12.32991], [78.61055, 12.3311], [78.60811, 12.33245], [78.60559, 12.33011], [78.60413, 12.32876], [78.60167, 12.3243], [78.60149, 12.32397], [78.60086, 12.32384], [78.59841, 12.32334], [78.59769, 12.32319], [78.59732, 12.32312], [78.59592, 12.32284], [78.59576, 12.32232], [78.59439, 12.3178], [78.59424, 12.31764], [78.59366, 12.31698], [78.59269, 12.31591], [78.59022, 12.31314], [78.59121, 12.31198], [78.59235, 12.31064], [78.59367, 12.31014], [78.59421, 12.30993], [78.5953, 12.30951], [78.59561, 12.30939], [78.59678, 12.31058], [78.60004, 12.31388], [78.60066, 12.3145], [78.60095, 12.31445], [78.60256, 12.31419], [78.60289, 12.31413], [78.6031, 12.3141], [78.60352, 12.31403], [78.60377, 12.31399], [78.60568, 12.31368], [78.60986, 12.31234], [78.60999, 12.3123], [78.61055, 12.3112], [78.61176, 12.30883], [78.61281, 12.30508], [78.6125, 12.30113], [78.61232, 12.29882], [78.61361, 12.29761], [78.61491, 12.29638], [78.61518, 12.29504], [78.61451, 12.29336], [78.61299, 12.28956], [78.61294, 12.28944], [78.61234, 12.28852], [78.61178, 12.28765], [78.61139, 12.28705], [78.61113, 12.28666], [78.61046, 12.28563], [78.60935, 12.28392], [78.60928, 12.28371], [78.60898, 12.2829], [78.6087, 12.28216], [78.60768, 12.27937], [78.60642, 12.27597], [78.60566, 12.27389], [78.6051, 12.27237], [78.60538, 12.26741], [78.6075, 12.26399], [78.61011, 12.26318], [78.61053, 12.26305], [78.61134, 12.26279], [78.61533, 12.26389], [78.61851, 12.26736], [78.6186, 12.26746], [78.62039, 12.26939], [78.6222, 12.26819], [78.62237, 12.26807], [78.62421, 12.26685], [78.62482, 12.26644], [78.62664, 12.26523], [78.62799, 12.26662], [78.62936, 12.26803], [78.63187, 12.27062], [78.63311, 12.2719], [78.63457, 12.27341], [78.64273, 12.28182], [78.64275, 12.28184], [78.64331, 12.28241], [78.64389, 12.28258], [78.64395, 12.28245], [78.64517, 12.28056], [78.6448, 12.27886], [78.6443, 12.27654], [78.64206, 12.27192], [78.64202, 12.27162], [78.64196, 12.27123], [78.6413, 12.26676], [78.63838, 12.2639], [78.63835, 12.26388], [78.6372, 12.26273], [78.64539, 12.26071], [78.64943, 12.25974], [78.65232, 12.25905], [78.65272, 12.2589], [78.6535, 12.25971], [78.65508, 12.26134], [78.656, 12.26229], [78.658, 12.26319], [78.66083, 12.26445], [78.66493, 12.26633], [78.66661, 12.26709], [78.67607, 12.27247], [78.67744, 12.27324], [78.67776, 12.27342], [78.68565, 12.28148], [78.68677, 12.28262], [78.68804, 12.28391], [78.6889, 12.28404], [78.69235, 12.28458], [78.69333, 12.28761], [78.69394, 12.28948], [78.69441, 12.29093], [78.69521, 12.29337], [78.69739, 12.29563], [78.69794, 12.2962], [78.69899, 12.29657], [78.70319, 12.29807], [78.70372, 12.29826], [78.70715, 12.29949], [78.70856, 12.3], [78.71056, 12.302], [78.71074, 12.30218], [78.71247, 12.30566], [78.71255, 12.30581], [78.71279, 12.30826], [78.71292, 12.3095], [78.71305, 12.31088], [78.71644, 12.32352], [78.7175, 12.32747], [78.7188, 12.33094], [78.72688, 12.35245], [78.72709, 12.35302], [78.73116, 12.36074], [78.73195, 12.36511], [78.73198, 12.37123], [78.73397, 12.37522], [78.73642, 12.37777], [78.73644, 12.37777], [78.739, 12.37727], [78.74084, 12.37691], [78.74387, 12.37739], [78.74596, 12.37904], [78.75094, 12.38299], [78.75309, 12.3847], [78.75337, 12.38526], [78.75784, 12.39452], [78.75913, 12.39718], [78.7606, 12.40021], [78.76175, 12.4026], [78.76442, 12.40811], [78.76591, 12.4112], [78.76708, 12.41631], [78.76714, 12.41656], [78.7672, 12.41682], [78.76725, 12.41707], [78.76739, 12.41767], [78.76739, 12.41785], [78.76786, 12.41979], [78.76798, 12.42027], [78.76821, 12.42125], [78.76855, 12.42166], [78.7691, 12.42233], [78.76925, 12.4225], [78.77121, 12.42489], [78.77105, 12.43025], [78.77083, 12.43718], [78.77032, 12.43854], [78.76951, 12.44069], [78.76905, 12.44092], [78.7677, 12.44159], [78.76671, 12.44208], [78.76609, 12.44238], [78.76574, 12.44361], [78.76476, 12.44707], [78.76806, 12.45175], [78.76878, 12.45278], [78.77136, 12.45645], [78.77187, 12.45717], [78.7737, 12.45976], [78.7743, 12.46062], [78.77528, 12.46057], [78.7764, 12.46051], [78.7782, 12.4604], [78.77844, 12.46039], [78.77907, 12.46161], [78.7799, 12.46323], [78.78028, 12.46399], [78.78046, 12.46434], [78.78056, 12.46453], [78.78077, 12.46494], [78.78215, 12.46765], [78.7803, 12.46928], [78.779, 12.47042], [78.77893, 12.47089], [78.77837, 12.47476], [78.77815, 12.47626], [78.77802, 12.4772], [78.77855, 12.48006], [78.77908, 12.48292], [78.77923, 12.48377], [78.77934, 12.48435], [78.78088, 12.4868], [78.78292, 12.48744], [78.78592, 12.48838], [78.78848, 12.49148], [78.78934, 12.49252], [78.78957, 12.4928], [78.79007, 12.49341], [78.7904, 12.49422], [78.79236, 12.49901], [78.79441, 12.49827], [78.79812, 12.49691], [78.79818, 12.49689], [78.80118, 12.50015], [78.80744, 12.5085], [78.80841, 12.51064], [78.81088, 12.5166], [78.81099, 12.51678], [78.81711, 12.52741], [78.81932, 12.53124], [78.8224, 12.53839], [78.82421, 12.54259], [78.82634, 12.54754], [78.82781, 12.55093], [78.83, 12.55989], [78.83146, 12.56588], [78.83334, 12.56998], [78.83511, 12.57384], [78.83544, 12.57455], [78.8386, 12.58141], [78.84204, 12.58989], [78.84447, 12.59584], [78.84546, 12.59781], [78.84717, 12.6012], [78.84908, 12.605], [78.85252, 12.61396], [78.85562, 12.62119], [78.85726, 12.62409], [78.85930189800007, 12.627714574000038], [78.860451, 12.634073], [78.85735354700006, 12.635215524000046], [78.85370004800006, 12.638143073000037], [78.85003726400004, 12.639442992000056], [78.84762531500007, 12.640851912000073], [78.84316838800004, 12.641301698000063], [78.84277344800006, 12.641198200000076], [78.83956655600008, 12.640357798000025], [78.83253095600008, 12.638471563000053], [78.82730484600006, 12.63841831700006], [78.82665158200007, 12.638411661000077], [78.82620930400003, 12.638253958000064], [78.82355559600006, 12.637307727000064], [78.82078120600005, 12.637526844000035], [78.81637494900008, 12.634108032000029], [78.80946909700003, 12.638524027000074], [78.80766896000006, 12.639675749000048], [78.803792, 12.64215613500005], [78.79652640400008, 12.647821973000077], [78.79389983300007, 12.64933254500005], [78.79220479700007, 12.651570303000028], [78.78912666500008, 12.656151521000027], [78.78414444100008, 12.662968226000032], [78.78033184500003, 12.667849241000056], [78.77669991500005, 12.673109604000047], [78.77539848800006, 12.677358881000032], [78.77323506700003, 12.681030798000052], [78.77530383500005, 12.685883517000036], [78.77668261800005, 12.692055253000035], [78.77817448100006, 12.697050090000062], [78.77976490900005, 12.701434274000064], [78.78251083600009, 12.700160161000042], [78.78689391700004, 12.69905624100005], [78.79190806200006, 12.697345767000058], [78.79307022700004, 12.698124043000064], [78.79445604700004, 12.698385291000022], [78.79683970200006, 12.699686231000044], [78.80040120800004, 12.701570634000063], [78.80127709600004, 12.701887602000056], [78.80278010500007, 12.701986542000043], [78.80283049100007, 12.701562031000037], [78.80291070000004, 12.70088626200004], [78.80263081500004, 12.699654167000062], [78.80226562400003, 12.697805722000055], [78.80066132000007, 12.695033255000055], [78.79958891100006, 12.692043742000067], [78.80000477000004, 12.689391614000044], [78.79910874200004, 12.685890380000046], [78.79921057800004, 12.682871343000045], [78.80027350600005, 12.68263326300007], [78.80115811900004, 12.682222025000044], [78.80215970800003, 12.681577944000026], [78.80369686600005, 12.68156940700004], [78.80488436600007, 12.682491569000035], [78.80654262800005, 12.68300477200006], [78.80772824000007, 12.683578646000058], [78.80844183400006, 12.684329289000061], [78.80915575000006, 12.685137977000068], [78.81081913100007, 12.68657988800004], [78.81206993400008, 12.687269075000074], [78.81384363500007, 12.688246371000048], [78.81710531200008, 12.690027586000042], [78.81700336500006, 12.692988594000042], [78.81776043900004, 12.695507428000042], [78.81805658200005, 12.696492700000022], [78.81939180900008, 12.698024605000057], [78.81983741300007, 12.698535840000034], [78.82220268000003, 12.704445054000075], [78.82390010700004, 12.705935873000044], [78.82703620400008, 12.705760267000073], [78.83105708400007, 12.705579621000027], [78.83242096500004, 12.704940167000075], [78.83392487200007, 12.706463559000042], [78.83428152700003, 12.706824832000052], [78.83556937600008, 12.70697546100007], [78.83710855000004, 12.706120912000074], [78.84192131500004, 12.705771256000048], [78.84389271700007, 12.706082288000061], [78.84357168200006, 12.707373218000043], [78.84258687800008, 12.707378834000053], [78.84171270000007, 12.707598665000035], [78.84107180000007, 12.710395358000028], [78.84053610000007, 12.712439476000043], [78.84132312000008, 12.71619485900004], [78.84202642900004, 12.720425646000024], [78.84275823000007, 12.722541699000033], [78.84406678200008, 12.724795811000035], [78.84450667000004, 12.726206785000045], [78.84321466900008, 12.726962639000021], [78.84206678500004, 12.727634172000023], [78.83991722000007, 12.729483927000047], [78.83981515900007, 12.729731109000056], [78.83892270800004, 12.731892495000068], [78.84063828400008, 12.735693060000074], [78.84243300700007, 12.736853061000033], [78.84413275900005, 12.736258271000054], [78.84457350700006, 12.73893053300003], [78.84425069400004, 12.742108666000036], [78.84425323800008, 12.742562839000072], [78.84425584500008, 12.743028090000053], [78.84757918400004, 12.743427062000023], [78.84894117400006, 12.743335692000073], [78.84919414800004, 12.742750990000047], [78.84962786100004, 12.754250181000032], [78.85001126600008, 12.758921858000065], [78.85004965900004, 12.75938966900003], [78.85088300600006, 12.761904257000026], [78.85199357600004, 12.765255282000055], [78.85204815500003, 12.765419965000035], [78.85482097800008, 12.76938905000003], [78.86254778700004, 12.775868761000027], [78.86231713100005, 12.775951103000068], [78.86373753600003, 12.777104639000072], [78.86464526400005, 12.777373054000066], [78.86614869200008, 12.777817618000029], [78.86985492600007, 12.77834135300003], [78.87262449800005, 12.776962367000067], [78.87577942300004, 12.778216113000042], [78.87724765300004, 12.779164655000045], [78.87856719000007, 12.780017134000047], [78.87948881100004, 12.779284866000069], [78.88225938600004, 12.778087494000033], [78.88494625000004, 12.778435239000032], [78.88713356600005, 12.779704279000043], [78.89194975200007, 12.778853140000024], [78.89456743800008, 12.778426301000025], [78.89881761400005, 12.778746369000032], [78.90201900200003, 12.778191409000044], [78.90780612100008, 12.777254065000022], [78.91350631400007, 12.774761511000065], [78.91420491500008, 12.774433801000043], [78.91455168300007, 12.77564022000007], [78.91484850600006, 12.780978952000055], [78.91684385900004, 12.78174857700003], [78.91937700800008, 12.783687276000023], [78.92072110000004, 12.786544868000021], [78.92012855400003, 12.790163239000037], [78.91881629700003, 12.79080037400007], [78.91274299300005, 12.791669915000057], [78.90775082500005, 12.79083679300004], [78.90343976700007, 12.790313272000049], [78.90027988000008, 12.791954486000066], [78.89965316100006, 12.792880524000054], [78.89704871500004, 12.796728748000021], [78.89514848700009, 12.798036199000023], [78.89446480200007, 12.798648843000024], [78.89440057500008, 12.798767359000067], [78.89412984000006, 12.799266944000067], [78.89438942500004, 12.799624540000025], [78.89669626700004, 12.79863160800005], [78.89982991800008, 12.798926830000028], [78.90011882700009, 12.800859813000045], [78.89987632300006, 12.806910549000065], [78.89869102700004, 12.80956070600007], [78.89630391700007, 12.810765805000074], [78.89585294700004, 12.811984665000068], [78.89719990900005, 12.814021209000032], [78.89681557800003, 12.814450501000067], [78.89492489700007, 12.821686], [78.89281688300008, 12.825746825000067], [78.89039131200008, 12.827459038000029], [78.88752142400006, 12.82992848200007], [78.88568270600007, 12.833398083000077], [78.88279688200004, 12.836989716000062], [78.88636969700008, 12.834733247000031], [78.89134370900007, 12.83435537300005], [78.89430629600008, 12.83445424000007], [78.89751257600005, 12.835714176000067], [78.89786423500004, 12.837097119000077], [78.89794110400004, 12.840052104000051], [78.89782184100005, 12.840299524000045], [78.89635946500005, 12.843333310000048], [78.89531586400005, 12.847396597000056], [78.89494370200003, 12.85224118900004], [78.89505281100008, 12.855941354000038], [78.89762486600006, 12.863828142000045], [78.89825796300005, 12.86383445000007], [78.90117650800005, 12.862393403000056], [78.90509672400003, 12.86362680700006], [78.90931449200008, 12.863301131000071], [78.91002850400008, 12.85779536800004], [78.91032794900008, 12.856052602000034], [78.91453195000008, 12.85701302900003], [78.913382, 12.861386698000047], [78.91258024500007, 12.86443605200003], [78.91346985000007, 12.86789439000006], [78.91326337700008, 12.869223955000052], [78.91145501800008, 12.869580892000045], [78.90955426900007, 12.86978119500003], [78.90978141600004, 12.872111063000034], [78.91005278600005, 12.87302588800003], [78.91139329600009, 12.87754482400004], [78.91137189600005, 12.879560533000074], [78.91353896700008, 12.881093934000035], [78.91583849000006, 12.882250642000031], [78.91743438300006, 12.88397169600006], [78.91914005500007, 12.885811137000076], [78.91986257800005, 12.890354097000056], [78.91856366300004, 12.891727212000035], [78.91803128100008, 12.89348588100006], [78.91468420100006, 12.894208750000075], [78.91832015200004, 12.89878026200006], [78.92181192500004, 12.900536489000046], [78.92262577200006, 12.90281344400006], [78.92197001700004, 12.908860611000023], [78.92395317900008, 12.913192356000025], [78.92573955300008, 12.916072100000065], [78.92389107900004, 12.915721599000051], [78.92037416600004, 12.915156808000063], [78.91917683900004, 12.91496452000007], [78.91455927500004, 12.914860044000022], [78.91117390100004, 12.914783446000058], [78.90969743400007, 12.914715986000033], [78.90011831700008, 12.91065756200004], [78.89785931300008, 12.909604004000073], [78.89794305900006, 12.909534729000029], [78.89800711800007, 12.909481739000057], [78.89925100900007, 12.908452789000023], [78.89904839500008, 12.908248490000062], [78.89846744700003, 12.907662706000053], [78.89729747900003, 12.906483002000073], [78.88987469300008, 12.899058640000021], [78.88875214400008, 12.898281784000062], [78.88823684100004, 12.897925170000065], [78.88086108600004, 12.896574217000023], [78.87734991200006, 12.895931028000064], [78.87291049900006, 12.893180922000056], [78.86958745700008, 12.89112238100006], [78.86869685700003, 12.890570675000049], [78.86447639300007, 12.888651654000057], [78.85545744500007, 12.884550465000075], [78.85216631500003, 12.883449234000068], [78.84538334800004, 12.881179614000075], [78.84522625300008, 12.880942115000039], [78.84136601400007, 12.875106008000046], [78.83433388600008, 12.870835671000066], [78.83250101800007, 12.869722528000068], [78.82271121900004, 12.863776955000048], [78.81445779600006, 12.861464832000024], [78.81287321700006, 12.861020926000037], [78.81216078600005, 12.860821329000032], [78.80182390300007, 12.858708200000024], [78.79884256600008, 12.856217223000044], [78.79817950700004, 12.855908433000025], [78.79661106100008, 12.855177997000055], [78.79178447700008, 12.854579426000043], [78.78786653100008, 12.854093472000045], [78.78414776500006, 12.852415184000051], [78.78058360300008, 12.848794818000044], [78.77967149200003, 12.846036709000032], [78.77815388600004, 12.84144765600007], [78.77624547500005, 12.839112388000046], [78.77202525500007, 12.83760201900003], [78.77112480100004, 12.837279745000046], [78.76501204600004, 12.83488615300007], [78.76438083900007, 12.834357473000068], [78.75795987300006, 12.828979254000046], [78.75615292500004, 12.827465671000027], [78.75474537900004, 12.826286645000039], [78.75375623400004, 12.82629191600006], [78.75185279400006, 12.824846164000064], [78.75207659300008, 12.823530283000025], [78.75177410300006, 12.820601434000025], [78.75056579100004, 12.818513580000058], [78.74700975800005, 12.818217409000056], [78.74156603000006, 12.818363302000023], [78.74016873300008, 12.818334716000038], [78.73586323300003, 12.818246584000065], [78.73155554700008, 12.822381886000073], [78.72788742900008, 12.825830389000032], [78.72640432600008, 12.825766715000043], [78.72297822500008, 12.827520750000076], [78.72092265200007, 12.826424608000025], [78.71737697300006, 12.827608276000035], [78.71740817200003, 12.827118423000059], [78.71356207200006, 12.823403320000068], [78.71309755700008, 12.823309531000064], [78.71606429900004, 12.821722555000065], [78.71733678100009, 12.816368072000046], [78.71870365800004, 12.812628542000027], [78.72084113400007, 12.813159003000067], [78.72303379800007, 12.814406301000076], [78.72624220400007, 12.814393409000047], [78.72520091600006, 12.812340543000062], [78.72364821000008, 12.810548912000058], [78.72006224100005, 12.807732306000048], [78.71645790000008, 12.806536226000048], [78.71371600700007, 12.805580837000036], [78.71286679000008, 12.804182547000039], [78.71289054200008, 12.802098956000066], [78.71307596600008, 12.799631193000039], [78.71320209400005, 12.79546484900004], [78.71291071100006, 12.795017666000035], [78.71352561900005, 12.794453067000063], [78.71369432400007, 12.794298165000043], [78.71330250100004, 12.787547536000034], [78.70852263800003, 12.781976689000032], [78.70373947700006, 12.776712384000064], [78.70054021200008, 12.773954338000067], [78.70055837700005, 12.772361079000063], [78.69862289600007, 12.769262995000076], [78.69650181900005, 12.767304832000036], [78.69640665600008, 12.767216975000053], [78.69519691900007, 12.763335338000047], [78.69409843900007, 12.76201194600003], [78.69122055700007, 12.758544739000058], [78.68770026800007, 12.75305559900005], [78.68645682300007, 12.752212721000035], [78.68653941200006, 12.751263713000071], [78.68520101900003, 12.749169109000036], [78.68385520200007, 12.747062846000063], [78.68241657600004, 12.74352891500007], [78.67855358000008, 12.741113292000023], [78.67333571700004, 12.737650814000062], [78.67269306300005, 12.736760483000069], [78.66950626800008, 12.732345391000024], [78.66875792900004, 12.731824663000054], [78.67271401100004, 12.727735389000031], [78.67297163200004, 12.727095733000056], [78.66641770600006, 12.729250112000045], [78.66633766700005, 12.72602475900004], [78.66250663200003, 12.722528415000056], [78.65702682400007, 12.719589901000063], [78.65131121000007, 12.716763867000054], [78.64894555100005, 12.719630770000038], [78.64590341400003, 12.718464417000064], [78.64186390100008, 12.718420301000037], [78.64194969900007, 12.718738518000066], [78.64299736600003, 12.722205486000064], [78.64424948800007, 12.724606614000038], [78.64251498700008, 12.725153114000022], [78.63894998500007, 12.72471050400003], [78.63912108700004, 12.728454759000044], [78.63715249300003, 12.73354415600005], [78.63690773700006, 12.734176905000027], [78.63435441200005, 12.735585521000075], [78.63179769600004, 12.737281392000057], [78.62543158100004, 12.73931846000005], [78.61523791500008, 12.743228594000072], [78.61183880400006, 12.74630840900005], [78.61229071600008, 12.750224212000035], [78.61716308900003, 12.750962402000027], [78.62263309900004, 12.751707083000042], [78.62259681300003, 12.751928217000057], [78.62156012800006, 12.75824588300003], [78.61799807500006, 12.764659454000025], [78.61887382900005, 12.766428978000022], [78.62545363500004, 12.766012610000075], [78.62751212300003, 12.768870595000067], [78.62768246600007, 12.771902244000046], [78.62322693600004, 12.774500112000055], [78.62319596900005, 12.77713521100003], [78.59488326200005, 12.786931948000074], [78.59452688400006, 12.784906678000027], [78.59414, 12.7827], [78.59227, 12.77916], [78.59014, 12.77794], [78.58965, 12.77765], [78.58611, 12.77562], [78.58483, 12.77488], [78.57792, 12.77091], [78.57905, 12.76406], [78.57379, 12.76448], [78.57031, 12.76354], [78.56967, 12.76266], [78.56626, 12.75796], [78.56555, 12.75644], [78.56463, 12.75486], [78.56388, 12.75357], [78.5628, 12.75186], [78.56252, 12.75066], [78.56192, 12.74935], [78.56081, 12.74691], [78.55787, 12.7405], [78.56018, 12.73945], [78.56086, 12.73915], [78.56311, 12.73813], [78.56615, 12.73798], [78.56449, 12.73231], [78.56049, 12.7269], [78.55914, 12.72315], [78.559, 12.72275], [78.55775, 12.71929], [78.55844, 12.7181], [78.56159, 12.71264], [78.5641, 12.70955], [78.56452, 12.70904], [78.56435, 12.70726], [78.56425, 12.70628], [78.56324, 12.70654], [78.56038, 12.70684], [78.55997, 12.70688], [78.5585, 12.70539], [78.55769, 12.70452], [78.56002, 12.70105], [78.56001, 12.70019], [78.56001, 12.69998], [78.56001, 12.69983], [78.55997, 12.69755], [78.55844, 12.69695], [78.55765, 12.69664], [78.55697, 12.69638], [78.55416, 12.69685], [78.55363, 12.69694], [78.54817, 12.69419], [78.54369, 12.69267], [78.54055, 12.69117], [78.54002, 12.69091], [78.53664, 12.69159], [78.53608, 12.69256], [78.53537, 12.69378], [78.534, 12.69612], [78.53387, 12.69635], [78.53332, 12.6973], [78.5324, 12.69889], [78.53204, 12.70008], [78.53077, 12.70426], [78.53202, 12.70687], [78.53306, 12.70905], [78.53784, 12.70664], [78.53969, 12.70919], [78.53939, 12.71028], [78.53912, 12.71129], [78.53911, 12.71133], [78.53863, 12.71311], [78.53636, 12.7136], [78.535, 12.7139], [78.53322, 12.71429], [78.52864, 12.71528], [78.52817, 12.71538], [78.52821, 12.71585], [78.52822, 12.71602], [78.52839, 12.71825], [78.52766, 12.71855], [78.52449, 12.71985], [78.52431, 12.72159], [78.52408, 12.7238], [78.52391, 12.72547], [78.52372, 12.72741], [78.52322, 12.73229], [78.52312, 12.73324], [78.52309, 12.73354], [78.52264, 12.73298], [78.52154, 12.73162], [78.52101, 12.7245], [78.51763, 12.72506], [78.51572, 12.72519], [78.51531, 12.72992], [78.51475, 12.73131], [78.51394, 12.73332], [78.50924, 12.73591], [78.50645, 12.74215], [78.50527, 12.74249], [78.50207, 12.74235], [78.49643, 12.74653], [78.49448, 12.74455], [78.49341, 12.74346], [78.49174, 12.74177], [78.49189, 12.74156], [78.49651, 12.73482], [78.50062, 12.72724], [78.50473, 12.7226], [78.50735, 12.71979], [78.51663, 12.71859], [78.51849, 12.71784], [78.52014, 12.71717], [78.52079, 12.71691], [78.52122, 12.71674], [78.52133, 12.7165], [78.5227, 12.71362], [78.52201, 12.71063], [78.52109, 12.71049], [78.52059, 12.71042], [78.5203, 12.71038], [78.51874, 12.71014], [78.51678, 12.70984], [78.51583, 12.70985], [78.51458, 12.70981], [78.51176, 12.70887], [78.51006, 12.71033], [78.50756, 12.71472], [78.50708, 12.71554], [78.50556, 12.71527], [78.50298, 12.71432], [78.50129, 12.70963], [78.49972, 12.70443], [78.49969, 12.70438], [78.49869, 12.70269], [78.49847, 12.70232], [78.50175, 12.69843], [78.5024, 12.69829], [78.50578, 12.69758], [78.50571, 12.6956], [78.50571, 12.69558], [78.50562, 12.69334], [78.5056, 12.69287], [78.50962, 12.69109], [78.50937, 12.6886], [78.50934, 12.68833], [78.50769, 12.68737], [78.5065, 12.68667], [78.50627, 12.68654], [78.50584, 12.68281], [78.50568, 12.68143], [78.50525, 12.68093], [78.50474, 12.68044], [78.50447, 12.68013], [78.50301, 12.67803], [78.50264, 12.67755], [78.50078, 12.67518], [78.49467, 12.67342], [78.48627, 12.671], [78.48343, 12.67152], [78.48107, 12.67195], [78.47855, 12.67242], [78.46984, 12.67403], [78.47054, 12.66458], [78.47088, 12.65998], [78.47157, 12.65057], [78.47516, 12.64718], [78.47412, 12.6441], [78.47271, 12.64371], [78.47131, 12.64333], [78.47154, 12.64088], [78.4721, 12.63478], [78.47233, 12.63228], [78.47187, 12.62924], [78.46721, 12.62403], [78.46705, 12.62385], [78.46561, 12.62542], [78.46411, 12.62706], [78.46365, 12.62756], [78.46272, 12.62774], [78.45968, 12.62831], [78.45633, 12.62847], [78.45188, 12.62869], [78.45164, 12.6287], [78.45109, 12.62862], [78.43898, 12.62691], [78.4371, 12.62665], [78.43523, 12.62827], [78.43452, 12.62889], [78.43209, 12.631], [78.43051, 12.63237], [78.42879, 12.6317], [78.42735, 12.63114], [78.4245, 12.63003], [78.41928, 12.62923], [78.41196, 12.62502], [78.40967, 12.62528]]]}}