{"type": "Feature", "properties": {"shapeName": "Tiruppur", "shapeISO": "", "shapeID": "76128533B57036825942975", "shapeGroup": "IND", "shapeType": "ADM2"}, "geometry": {"type": "Polygon", "coordinates": [[[77.28959, 10.23101], [77.29128, 10.23545], [77.29146, 10.23594], [77.29289, 10.23971], [77.29577, 10.24731], [77.29762, 10.25221], [77.29887, 10.25223], [77.29935, 10.25224], [77.30024, 10.25126], [77.30081, 10.25063], [77.30186, 10.24948], [77.30281, 10.24845], [77.30399, 10.24614], [77.30432, 10.2455], [77.3042, 10.24443], [77.30411, 10.24366], [77.3048, 10.24386], [77.30969, 10.24523], [77.31374, 10.24971], [77.31692, 10.25322], [77.32512, 10.2623], [77.32629, 10.26359], [77.32577, 10.26721], [77.32617, 10.27317], [77.33526, 10.26664], [77.33574, 10.26637], [77.34132, 10.26318], [77.34368, 10.26185], [77.34446, 10.26296], [77.34528, 10.26412], [77.34846, 10.26389], [77.34971, 10.27008], [77.34993, 10.27121], [77.35005, 10.27178], [77.35112, 10.27709], [77.34893, 10.28132], [77.34744, 10.2907], [77.34579, 10.29421], [77.34565, 10.29451], [77.3443, 10.29454], [77.34398, 10.29454], [77.34293, 10.29456], [77.34225, 10.29864], [77.34229, 10.29884], [77.34237, 10.29919], [77.3427, 10.3007], [77.33992, 10.30454], [77.3324, 10.30908], [77.33003, 10.31051], [77.32989, 10.31365], [77.32988, 10.31397], [77.32982, 10.31532], [77.32847, 10.31763], [77.32805, 10.31835], [77.32684, 10.32043], [77.32732, 10.32291], [77.32738, 10.32322], [77.32776, 10.32514], [77.32793, 10.32603], [77.3321, 10.33062], [77.3346, 10.33337], [77.33105, 10.33556], [77.33052, 10.34153], [77.33523, 10.34791], [77.33593, 10.35099], [77.33671, 10.35462], [77.33577, 10.35469], [77.32371, 10.35562], [77.32365, 10.35564], [77.31558, 10.35646], [77.31551, 10.35687], [77.31436, 10.36332], [77.31459, 10.36787], [77.31477, 10.37141], [77.31505, 10.37706], [77.3154, 10.38414], [77.31571, 10.39049], [77.31785, 10.39793], [77.31806, 10.39865], [77.31802, 10.39922], [77.31779, 10.40258], [77.3177, 10.40388], [77.31814, 10.40601], [77.31901, 10.41018], [77.32005, 10.41521], [77.32031, 10.41644], [77.32045, 10.41714], [77.3206, 10.41784], [77.32075, 10.41858], [77.32086, 10.41911], [77.32156, 10.42245], [77.32259, 10.42491], [77.32354, 10.42716], [77.32368, 10.4275], [77.32385, 10.42792], [77.32198, 10.43384], [77.3215, 10.43536], [77.3246, 10.43511], [77.32619, 10.43498], [77.3278, 10.43509], [77.32778, 10.43703], [77.32766, 10.43708], [77.3256, 10.43781], [77.32684, 10.43991], [77.32697, 10.44014], [77.32647, 10.44051], [77.32514, 10.44149], [77.32551, 10.44208], [77.32587, 10.44264], [77.32723, 10.44478], [77.32477, 10.44701], [77.32531, 10.4509], [77.32849, 10.45377], [77.33421, 10.45648], [77.34065, 10.45492], [77.34136, 10.45475], [77.34312, 10.45514], [77.3442, 10.45539], [77.34699, 10.45109], [77.34792, 10.44964], [77.35052, 10.4484], [77.35174, 10.44782], [77.35366, 10.4469], [77.36032, 10.44719], [77.36523, 10.44812], [77.36625, 10.44831], [77.36918, 10.44887], [77.37613, 10.45018], [77.38563, 10.45053], [77.38433, 10.46226], [77.38519, 10.46276], [77.38618, 10.46375], [77.38662, 10.46402], [77.38635, 10.46838], [77.38603, 10.47178], [77.38579, 10.47425], [77.38578, 10.47438], [77.38575, 10.47468], [77.38569, 10.47537], [77.38528, 10.47962], [77.3841, 10.48395], [77.38143, 10.48697], [77.3804, 10.48814], [77.38053, 10.48903], [77.38071, 10.49024], [77.38097, 10.49197], [77.381, 10.4922], [77.38384, 10.49577], [77.39064, 10.4972], [77.39315, 10.49565], [77.39333, 10.49554], [77.39491, 10.49748], [77.3973, 10.5004], [77.40128, 10.49953], [77.40202, 10.5024], [77.40352, 10.50827], [77.40394, 10.5099], [77.40446, 10.51192], [77.40571, 10.52337], [77.4056, 10.52338], [77.39523, 10.5248], [77.38973, 10.52555], [77.38873, 10.52568], [77.38858, 10.52567], [77.38762, 10.52571], [77.38742, 10.52572], [77.37872, 10.52608], [77.37843, 10.52684], [77.37695, 10.53071], [77.37581, 10.53136], [77.37242, 10.53331], [77.3721, 10.53376], [77.37162, 10.53444], [77.37025, 10.53639], [77.36981, 10.53738], [77.36958, 10.53788], [77.36942, 10.53877], [77.3684, 10.54456], [77.3686, 10.5452], [77.36981, 10.54901], [77.37296, 10.55169], [77.37366, 10.55229], [77.374, 10.55259], [77.37432, 10.55286], [77.37472, 10.5532], [77.37484, 10.5533], [77.37523, 10.55362], [77.37566, 10.55514], [77.37752, 10.56161], [77.37761, 10.56198], [77.37813, 10.56383], [77.37919, 10.56755], [77.38047, 10.57481], [77.38194, 10.57874], [77.38362, 10.5807], [77.38489, 10.58219], [77.38488, 10.58242], [77.38484, 10.58362], [77.38481, 10.58453], [77.38475, 10.58644], [77.3847, 10.58782], [77.38565, 10.59187], [77.38827, 10.59636], [77.38984, 10.59717], [77.39069, 10.59762], [77.39166, 10.59813], [77.3923, 10.59818], [77.39555, 10.59841], [77.39618, 10.60098], [77.39566, 10.60245], [77.39509, 10.60404], [77.39491, 10.60456], [77.397, 10.60676], [77.39775, 10.60755], [77.39801, 10.60782], [77.39807, 10.60789], [77.39857, 10.60842], [77.39933, 10.60921], [77.40136, 10.61135], [77.40241, 10.61246], [77.4042, 10.61364], [77.40462, 10.61392], [77.40587, 10.61475], [77.4089, 10.61511], [77.41051, 10.6153], [77.41415, 10.61759], [77.4162, 10.62213], [77.41651, 10.62281], [77.41679, 10.62344], [77.41773, 10.62551], [77.41798, 10.62605], [77.41813, 10.62641], [77.41921, 10.62669], [77.42015, 10.62682], [77.42051, 10.6269], [77.42151, 10.62734], [77.42195, 10.62746], [77.42336, 10.62787], [77.42378, 10.62791], [77.42442, 10.62793], [77.42813, 10.62882], [77.42831, 10.62887], [77.4302, 10.63025], [77.43178, 10.6314], [77.4333, 10.63251], [77.43337, 10.63256], [77.43347, 10.63253], [77.43484, 10.63194], [77.43899, 10.63016], [77.44135, 10.62915], [77.44229, 10.62924], [77.44439, 10.62947], [77.44528, 10.62957], [77.44785, 10.62984], [77.44902, 10.63213], [77.45128, 10.63655], [77.4515, 10.63677], [77.4554, 10.6408], [77.45582, 10.64123], [77.45678, 10.6415], [77.45734, 10.64166], [77.45782, 10.6418], [77.45803, 10.64185], [77.45943, 10.64225], [77.4627, 10.64317], [77.47005, 10.64339], [77.47547, 10.64501], [77.47814, 10.64911], [77.47827, 10.64932], [77.47925, 10.64954], [77.47974, 10.64965], [77.48229, 10.65022], [77.48257, 10.65001], [77.48623, 10.64728], [77.48727, 10.64731], [77.4908, 10.64743], [77.49208, 10.64697], [77.49297, 10.64665], [77.494, 10.64628], [77.49541, 10.64578], [77.49675, 10.6453], [77.49959, 10.64428], [77.50108, 10.64375], [77.50208, 10.64339], [77.50252, 10.64251], [77.50361, 10.64029], [77.50364, 10.63889], [77.50435, 10.63434], [77.50521, 10.63299], [77.50614, 10.63174], [77.50655, 10.63118], [77.50712, 10.63086], [77.50877, 10.62808], [77.51085, 10.62596], [77.5108, 10.62576], [77.51065, 10.62519], [77.51043, 10.62433], [77.50955, 10.621], [77.51221, 10.61926], [77.51244, 10.6191], [77.51396, 10.61811], [77.51535, 10.61643], [77.5156, 10.61623], [77.51605, 10.61549], [77.51683, 10.61334], [77.51691, 10.61311], [77.51697, 10.61296], [77.51727, 10.61214], [77.51698, 10.61222], [77.51638, 10.61238], [77.51323, 10.61319], [77.51197, 10.61306], [77.50876, 10.61275], [77.50836, 10.61006], [77.50811, 10.6084], [77.50895, 10.60775], [77.51033, 10.6067], [77.51799, 10.6066], [77.51877, 10.60659], [77.52097, 10.60656], [77.52307, 10.60653], [77.52764, 10.60903], [77.53164, 10.60717], [77.53355, 10.60628], [77.53592, 10.60689], [77.536, 10.60691], [77.53805, 10.60742], [77.54013, 10.60796], [77.54055, 10.60807], [77.54068, 10.60825], [77.54077, 10.60837], [77.54428, 10.61315], [77.54544, 10.61993], [77.54611, 10.62381], [77.54622, 10.62447], [77.54654, 10.62472], [77.54717, 10.6252], [77.54843, 10.62787], [77.5488, 10.63172], [77.54916, 10.63554], [77.55077, 10.6371], [77.5512, 10.63752], [77.55141, 10.63772], [77.55615, 10.6423], [77.55954, 10.64558], [77.56818, 10.65393], [77.56989, 10.65558], [77.57015, 10.65584], [77.57078, 10.65645], [77.57293, 10.65852], [77.57325, 10.6594], [77.57568, 10.6661], [77.578, 10.66947], [77.5799, 10.67222], [77.58207, 10.67453], [77.58235, 10.67483], [77.58386, 10.67645], [77.58156, 10.67779], [77.58083, 10.67822], [77.58161, 10.67904], [77.58367, 10.68119], [77.5858, 10.68341], [77.58689, 10.68302], [77.58988, 10.68195], [77.59317, 10.67817], [77.59454, 10.67741], [77.59704, 10.67603], [77.59724, 10.67592], [77.60055, 10.67556], [77.60435, 10.67514], [77.60527, 10.67503], [77.60557, 10.675], [77.61317, 10.67406], [77.61472, 10.67371], [77.6165, 10.67328], [77.61684, 10.67319], [77.62425, 10.67139], [77.62899, 10.67023], [77.63102, 10.66974], [77.63632, 10.66923], [77.63639, 10.66922], [77.64061, 10.66882], [77.64369, 10.66998], [77.64856, 10.67182], [77.65425, 10.67397], [77.65654, 10.67483], [77.65876, 10.68436], [77.66037, 10.69123], [77.66095, 10.69373], [77.66185, 10.69757], [77.66207, 10.69852], [77.66215, 10.69889], [77.66315, 10.70313], [77.66307, 10.70735], [77.66305, 10.70837], [77.66304, 10.70907], [77.66402, 10.71225], [77.66515, 10.71592], [77.66695, 10.71658], [77.66907, 10.71766], [77.66956, 10.71784], [77.66988, 10.71848], [77.67016, 10.71893], [77.6715, 10.72108], [77.67315, 10.72208], [77.6755, 10.7235], [77.67573, 10.72364], [77.67828, 10.72518], [77.68135, 10.72704], [77.68397, 10.72827], [77.68796, 10.73016], [77.68858, 10.73045], [77.68931, 10.73079], [77.68974, 10.73283], [77.69014, 10.73468], [77.6951, 10.73417], [77.69705, 10.73397], [77.69724, 10.73395], [77.69836, 10.73364], [77.69858, 10.73351], [77.69953, 10.73315], [77.70018, 10.73276], [77.70207, 10.73161], [77.7027, 10.73123], [77.70498, 10.72583], [77.70543, 10.72389], [77.70569, 10.7232], [77.70715, 10.71927], [77.70754, 10.71727], [77.70856, 10.712], [77.70921, 10.70862], [77.70874, 10.70751], [77.70858, 10.70714], [77.70775, 10.70516], [77.70737, 10.70427], [77.70642, 10.70202], [77.70657, 10.69859], [77.70662, 10.69731], [77.70693, 10.69568], [77.70709, 10.69486], [77.70735, 10.6935], [77.70737, 10.69338], [77.70751, 10.69265], [77.70977, 10.68912], [77.71023, 10.6884], [77.71033, 10.68824], [77.71015, 10.68738], [77.70943, 10.68395], [77.70907, 10.68339], [77.70878, 10.68295], [77.70855, 10.68261], [77.70719, 10.68051], [77.70707, 10.68033], [77.70687, 10.68002], [77.70665, 10.67969], [77.70526, 10.67755], [77.70228, 10.67663], [77.70225, 10.6765], [77.7021, 10.67574], [77.70151, 10.67292], [77.70206, 10.66853], [77.70208, 10.66838], [77.69988, 10.66618], [77.69998, 10.66586], [77.70037, 10.66463], [77.70116, 10.66218], [77.70196, 10.65971], [77.70232, 10.65932], [77.7024, 10.65924], [77.70764, 10.65364], [77.70852, 10.65232], [77.71124, 10.64826], [77.71386, 10.64434], [77.71486, 10.64286], [77.7153, 10.6422], [77.7179, 10.64227], [77.71807, 10.64227], [77.72289, 10.64239], [77.72329, 10.6424], [77.7232, 10.64227], [77.72266, 10.6415], [77.7214, 10.63972], [77.72011, 10.6379], [77.71937, 10.63685], [77.71989, 10.63472], [77.72028, 10.6331], [77.72042, 10.63304], [77.72299, 10.63189], [77.72443, 10.63125], [77.72574, 10.63123], [77.72675, 10.63121], [77.72888, 10.63117], [77.73038, 10.63114], [77.74017, 10.63633], [77.7407, 10.63662], [77.74395, 10.63834], [77.74504, 10.63972], [77.74571, 10.64057], [77.74699, 10.64219], [77.74916, 10.64422], [77.75028, 10.64527], [77.75537, 10.65003], [77.75643, 10.65102], [77.75545, 10.65499], [77.75404, 10.66068], [77.7534, 10.66326], [77.75331, 10.66362], [77.75304, 10.66473], [77.75312, 10.66527], [77.75321, 10.66588], [77.75336, 10.6669], [77.75364, 10.66868], [77.75468, 10.66989], [77.75554, 10.67089], [77.75574, 10.67113], [77.75592, 10.67133], [77.75607, 10.6715], [77.75891, 10.67197], [77.75908, 10.67194], [77.76097, 10.67162], [77.76279, 10.67132], [77.76467, 10.67347], [77.76602, 10.675], [77.76671, 10.67579], [77.76764, 10.67685], [77.76845, 10.67987], [77.77184, 10.68078], [77.77377, 10.68129], [77.77424, 10.68142], [77.77771, 10.68234], [77.78102, 10.68401], [77.78274, 10.68488], [77.78382, 10.68499], [77.78639, 10.68526], [77.78965, 10.68561], [77.79182, 10.68503], [77.79267, 10.68481], [77.79696, 10.68367], [77.79801, 10.6834], [77.79949, 10.68302], [77.80068, 10.68267], [77.80344, 10.68193], [77.80848, 10.68059], [77.80976, 10.68025], [77.80962, 10.68247], [77.80951, 10.68428], [77.80927, 10.68816], [77.80909, 10.69108], [77.80884, 10.69501], [77.81107, 10.69872], [77.81297, 10.70187], [77.81338, 10.70255], [77.81602, 10.70461], [77.81769, 10.70592], [77.81927, 10.70714], [77.81973, 10.70773], [77.82009, 10.70819], [77.82336, 10.7124], [77.82483, 10.7161], [77.82454, 10.7175], [77.82341, 10.7228], [77.8233, 10.72332], [77.82299, 10.72478], [77.82277, 10.72582], [77.82148, 10.73189], [77.82128, 10.7328], [77.82405, 10.74312], [77.82484, 10.74604], [77.82512, 10.75155], [77.82345, 10.7526], [77.82248, 10.75322], [77.82099, 10.75417], [77.81739, 10.75645], [77.81261, 10.75798], [77.80952, 10.75745], [77.80923, 10.75741], [77.80709, 10.75705], [77.80224, 10.75513], [77.80025, 10.75358], [77.79771, 10.7516], [77.79702, 10.75269], [77.79659, 10.75336], [77.79628, 10.75385], [77.7962, 10.75398], [77.79522, 10.75551], [77.79456, 10.75654], [77.7905, 10.75703], [77.78537, 10.75765], [77.78516, 10.75766], [77.78501, 10.75785], [77.78308, 10.75876], [77.78201, 10.76229], [77.78178, 10.76305], [77.78161, 10.76362], [77.78084, 10.76614], [77.7724, 10.76659], [77.77186, 10.76662], [77.77137, 10.76665], [77.7692, 10.76677], [77.76926, 10.76698], [77.76966, 10.76836], [77.76969, 10.76845], [77.76973, 10.76861], [77.77272, 10.77891], [77.7729, 10.77953], [77.77479, 10.78604], [77.77498, 10.78642], [77.77575, 10.78794], [77.77691, 10.79025], [77.77902, 10.7902], [77.77945, 10.79019], [77.78999, 10.78992], [77.79365, 10.78982], [77.79376, 10.79032], [77.7946, 10.79428], [77.79559, 10.79629], [77.79737, 10.79989], [77.79963, 10.80446], [77.79985, 10.80491], [77.80014, 10.80512], [77.80149, 10.80608], [77.81201, 10.80439], [77.81154, 10.8009], [77.81144, 10.80014], [77.81134, 10.79936], [77.8139, 10.79645], [77.81411, 10.79621], [77.81637, 10.79574], [77.81746, 10.79551], [77.81913, 10.7957], [77.81979, 10.79578], [77.82043, 10.79586], [77.82366, 10.79623], [77.8246, 10.79634], [77.826, 10.7965], [77.82628, 10.79572], [77.82756, 10.79225], [77.82759, 10.79217], [77.8277, 10.79214], [77.83091, 10.79145], [77.83106, 10.79142], [77.83137, 10.7912], [77.83334, 10.78982], [77.83401, 10.78692], [77.83409, 10.78688], [77.83662, 10.78569], [77.83933, 10.78527], [77.8402, 10.78514], [77.84852, 10.78386], [77.85802, 10.78018], [77.85826, 10.77994], [77.86071, 10.7775], [77.86291, 10.77532], [77.86318, 10.77518], [77.86507, 10.77419], [77.86821, 10.77254], [77.86916, 10.77205], [77.86963, 10.77323], [77.87087, 10.77632], [77.87442, 10.77567], [77.87686, 10.77523], [77.87766, 10.77508], [77.8846, 10.77382], [77.88543, 10.7739], [77.88781, 10.77413], [77.89111, 10.77444], [77.89132, 10.77705], [77.89162, 10.7808], [77.8918, 10.78303], [77.89118, 10.78976], [77.89055, 10.79078], [77.89018, 10.79139], [77.8895, 10.79249], [77.88716, 10.79062], [77.88508, 10.78896], [77.88501, 10.78895], [77.88363, 10.78872], [77.88102, 10.78829], [77.87592, 10.78873], [77.87396, 10.79052], [77.87128, 10.79299], [77.87106, 10.79319], [77.87062, 10.79359], [77.87012, 10.7945], [77.86953, 10.79557], [77.86901, 10.79652], [77.86836, 10.7977], [77.86772, 10.79887], [77.86949, 10.80376], [77.86977, 10.804], [77.86994, 10.80414], [77.8708, 10.80484], [77.871, 10.80501], [77.87446, 10.80785], [77.87509, 10.80836], [77.87506, 10.80877], [77.87491, 10.81122], [77.87483, 10.81248], [77.87464, 10.81551], [77.87416, 10.82301], [77.87365, 10.82301], [77.87271, 10.82301], [77.87135, 10.82302], [77.87096, 10.82303], [77.86929, 10.82304], [77.8689, 10.8264], [77.8686, 10.82896], [77.86869, 10.82926], [77.86949, 10.83183], [77.86982, 10.8329], [77.87151, 10.83326], [77.87162, 10.83329], [77.87237, 10.83346], [77.8732, 10.83363], [77.87193, 10.8359], [77.8717, 10.83653], [77.87146, 10.83709], [77.87071, 10.83836], [77.87021, 10.8392], [77.86948, 10.84022], [77.86869, 10.84114], [77.868, 10.8418], [77.86718, 10.84228], [77.86642, 10.84305], [77.864, 10.84502], [77.86372, 10.84573], [77.86311, 10.8462], [77.86114, 10.84725], [77.85981, 10.84812], [77.85949, 10.84798], [77.85718, 10.84696], [77.85518, 10.84533], [77.85252, 10.84316], [77.84798, 10.83945], [77.84695, 10.83862], [77.8467, 10.83842], [77.84623, 10.83804], [77.84478, 10.83667], [77.84407, 10.83626], [77.84268, 10.83558], [77.84074, 10.83438], [77.83953, 10.83364], [77.83564, 10.83377], [77.83526, 10.83378], [77.83496, 10.83379], [77.83047, 10.83571], [77.83007, 10.83618], [77.82991, 10.83637], [77.8264, 10.84054], [77.82294, 10.84497], [77.82233, 10.84701], [77.82203, 10.84801], [77.82187, 10.84853], [77.8218, 10.84875], [77.82178, 10.84882], [77.82176, 10.84889], [77.8211, 10.85108], [77.82059, 10.85172], [77.81888, 10.85387], [77.81708, 10.85615], [77.8156, 10.85615], [77.80735, 10.85616], [77.80716, 10.85616], [77.80713, 10.85631], [77.80695, 10.85719], [77.80665, 10.85865], [77.80652, 10.85927], [77.80643, 10.85976], [77.80594, 10.86001], [77.80572, 10.86015], [77.80544, 10.86039], [77.80514, 10.86057], [77.80384, 10.86129], [77.80296, 10.86179], [77.80055, 10.86309], [77.79897, 10.86395], [77.79668, 10.86812], [77.79504, 10.87179], [77.79471, 10.87286], [77.79406, 10.87536], [77.7934, 10.8772], [77.79324, 10.87766], [77.79294, 10.87851], [77.7903, 10.88239], [77.79017, 10.88258], [77.78809, 10.88274], [77.78633, 10.87903], [77.78562, 10.87497], [77.7834, 10.87152], [77.78313, 10.87109], [77.78304, 10.87095], [77.78061, 10.86876], [77.77986, 10.86809], [77.77935, 10.86802], [77.77916, 10.868], [77.77745, 10.86779], [77.7758, 10.86759], [77.77492, 10.86883], [77.77481, 10.86898], [77.77388, 10.87029], [77.77361, 10.87066], [77.77347, 10.87086], [77.77286, 10.87172], [77.77272, 10.87515], [77.77251, 10.88048], [77.77247, 10.88159], [77.77239, 10.88417], [77.77226, 10.88808], [77.77221, 10.88962], [77.77127, 10.89087], [77.76843, 10.89463], [77.7639, 10.89712], [77.76207, 10.89932], [77.7609, 10.90073], [77.76088, 10.90091], [77.76086, 10.90114], [77.76089, 10.90121], [77.76092, 10.90128], [77.76099, 10.90144], [77.76102, 10.90151], [77.76104, 10.90157], [77.76105, 10.90169], [77.76103, 10.90179], [77.76099, 10.90194], [77.7609, 10.90225], [77.76082, 10.90262], [77.76074, 10.90297], [77.76069, 10.90316], [77.76065, 10.90327], [77.76063, 10.90329], [77.7606, 10.9036], [77.76044, 10.9051], [77.76016, 10.90775], [77.76057, 10.91348], [77.76087, 10.91762], [77.76127, 10.92327], [77.76166, 10.92405], [77.76315, 10.927], [77.76489, 10.93048], [77.76492, 10.93057], [77.76509, 10.93096], [77.76658, 10.93772], [77.76694, 10.93935], [77.7672, 10.94051], [77.76726, 10.94079], [77.76763, 10.9425], [77.76889, 10.94824], [77.7691, 10.9502], [77.76935, 10.95166], [77.76946, 10.95355], [77.76974, 10.95621], [77.76921, 10.95783], [77.76908, 10.95824], [77.76722, 10.96399], [77.76455, 10.96387], [77.76421, 10.96385], [77.76289, 10.96379], [77.7602, 10.96366], [77.75659, 10.96397], [77.75325, 10.96426], [77.75292, 10.96527], [77.75128, 10.97021], [77.75125, 10.9703], [77.75122, 10.97037], [77.75104, 10.97156], [77.75049, 10.97527], [77.7504, 10.97584], [77.75049, 10.9759], [77.75059, 10.97596], [77.75063, 10.97684], [77.75096, 10.97835], [77.75101, 10.97859], [77.75143, 10.98046], [77.75468, 10.97965], [77.75737, 10.97898], [77.75864, 10.97866], [77.7591, 10.97855], [77.75921, 10.9788], [77.76005, 10.98066], [77.76017, 10.98092], [77.76087, 10.98246], [77.76201, 10.98497], [77.76479, 10.98661], [77.76864, 10.98888], [77.7698, 10.98957], [77.77423, 10.99218], [77.77983, 10.99548], [77.78021, 10.99681], [77.78052, 10.99791], [77.78086, 10.9991], [77.78156, 11.00153], [77.78182, 11.00153], [77.78356, 11.00592], [77.78358, 11.00597], [77.78377, 11.00644], [77.78424, 11.00764], [77.78531, 11.01034], [77.78535, 11.01043], [77.78545, 11.01067], [77.78554, 11.0109], [77.78563, 11.01113], [77.78566, 11.01123], [77.78586, 11.01175], [77.78585, 11.01197], [77.78584, 11.01209], [77.78587, 11.01215], [77.78598, 11.01225], [77.7861, 11.01235], [77.78711, 11.01489], [77.78966, 11.02431], [77.78974, 11.02462], [77.78975, 11.02464], [77.78991, 11.02522], [77.79099, 11.02924], [77.7913, 11.03041], [77.79157, 11.03139], [77.79066, 11.03204], [77.78933, 11.03299], [77.78632, 11.03515], [77.78293, 11.03758], [77.78182, 11.03837], [77.78124, 11.03878], [77.78119, 11.03936], [77.78086, 11.04283], [77.78074, 11.04419], [77.78069, 11.04473], [77.78041, 11.04776], [77.78033, 11.04861], [77.78014, 11.05071], [77.78012, 11.05092], [77.77947, 11.05185], [77.77696, 11.05542], [77.77689, 11.05552], [77.7767, 11.05573], [77.77549, 11.05711], [77.77523, 11.05748], [77.77411, 11.05799], [77.77282, 11.05858], [77.77172, 11.06127], [77.77123, 11.06254], [77.76973, 11.06366], [77.7665, 11.06607], [77.76579, 11.06659], [77.76573, 11.06662], [77.7648, 11.067], [77.76272, 11.06786], [77.76222, 11.06841], [77.75933, 11.07161], [77.75891, 11.07222], [77.75773, 11.0739], [77.75725, 11.07434], [77.75588, 11.07562], [77.75141, 11.07876], [77.7499, 11.07982], [77.74687, 11.08195], [77.74533, 11.0827], [77.74518, 11.08312], [77.74512, 11.08329], [77.74489, 11.08396], [77.74468, 11.08457], [77.74461, 11.08475], [77.74417, 11.08519], [77.74386, 11.08551], [77.74138, 11.08625], [77.73997, 11.08635], [77.73887, 11.08614], [77.73859, 11.08579], [77.73843, 11.08555], [77.73781, 11.08458], [77.73692, 11.08385], [77.73659, 11.08377], [77.73629, 11.08369], [77.73596, 11.08328], [77.73606, 11.0824], [77.73608, 11.08221], [77.73618, 11.08063], [77.73624, 11.08004], [77.73635, 11.07892], [77.73605, 11.07702], [77.73572, 11.07697], [77.7336, 11.07663], [77.7324, 11.07645], [77.731, 11.07625], [77.72985, 11.07639], [77.72952, 11.07631], [77.72852, 11.07635], [77.72763, 11.07652], [77.72674, 11.07646], [77.72193, 11.07662], [77.7203, 11.07673], [77.71993, 11.07712], [77.71959, 11.07761], [77.71837, 11.07905], [77.71745, 11.0852], [77.7174, 11.08554], [77.71724, 11.08598], [77.71663, 11.08771], [77.71639, 11.08799], [77.71611, 11.08831], [77.71403, 11.0907], [77.71276, 11.0916], [77.71251, 11.09178], [77.7116, 11.09231], [77.71115, 11.09258], [77.7106, 11.09266], [77.70944, 11.09283], [77.70904, 11.09321], [77.70719, 11.09495], [77.7059, 11.09531], [77.70219, 11.09633], [77.69979, 11.09649], [77.69882, 11.09628], [77.69683, 11.0969], [77.69431, 11.09768], [77.69067, 11.09856], [77.68703, 11.09934], [77.68437, 11.09955], [77.68355, 11.09961], [77.68163, 11.09951], [77.68042, 11.09932], [77.68023, 11.09922], [77.67955, 11.09877], [77.6783, 11.09885], [77.67692, 11.09939], [77.67619, 11.09968], [77.67531, 11.10002], [77.67237, 11.10118], [77.67068, 11.10171], [77.66932, 11.10204], [77.66838, 11.10227], [77.66521, 11.10436], [77.6647, 11.10578], [77.66464, 11.10594], [77.66416, 11.10602], [77.66362, 11.1061], [77.66255, 11.10664], [77.66192, 11.10726], [77.6613, 11.10834], [77.66101, 11.10884], [77.66059, 11.10928], [77.65988, 11.11003], [77.65951, 11.11029], [77.65906, 11.11061], [77.65836, 11.11071], [77.65622, 11.1104], [77.65567, 11.11033], [77.65533, 11.11028], [77.65397, 11.11049], [77.65276, 11.11086], [77.6522, 11.11146], [77.65201, 11.11166], [77.65101, 11.11255], [77.65088, 11.11267], [77.6496, 11.1148], [77.64932, 11.11526], [77.64907, 11.11562], [77.64898, 11.1159], [77.64755, 11.11768], [77.64691, 11.11788], [77.64633, 11.11807], [77.64289, 11.11873], [77.6424, 11.11876], [77.6377, 11.11958], [77.62978, 11.12097], [77.62798, 11.12128], [77.62708, 11.12144], [77.62369, 11.12009], [77.62064, 11.11642], [77.6204, 11.11592], [77.62014, 11.11537], [77.61886, 11.11269], [77.61583, 11.10979], [77.6123, 11.10935], [77.61162, 11.10926], [77.60944, 11.1067], [77.60691, 11.10645], [77.6058, 11.10731], [77.60366, 11.10899], [77.60088, 11.11116], [77.59983, 11.11198], [77.59859, 11.1127], [77.59658, 11.1136], [77.59501, 11.11435], [77.59455, 11.11434], [77.594, 11.11404], [77.59035, 11.11357], [77.58581, 11.11282], [77.58448, 11.1126], [77.58239, 11.11403], [77.58181, 11.11443], [77.58098, 11.11462], [77.57999, 11.11474], [77.57894, 11.11494], [77.57838, 11.1148], [77.57794, 11.1145], [77.57758, 11.11409], [77.57715, 11.11354], [77.57697, 11.11331], [77.57604, 11.11189], [77.57486, 11.11025], [77.5738, 11.10872], [77.57329, 11.10793], [77.57282, 11.10726], [77.57259, 11.10686], [77.57244, 11.10653], [77.57245, 11.1057], [77.57225, 11.10454], [77.57223, 11.10373], [77.57211, 11.10259], [77.57201, 11.10223], [77.57184, 11.10205], [77.57164, 11.10182], [77.57129, 11.10165], [77.57104, 11.10163], [77.56994, 11.10176], [77.56958, 11.1018], [77.56785, 11.10202], [77.56769, 11.10208], [77.56748, 11.1022], [77.56724, 11.10238], [77.56696, 11.10279], [77.56627, 11.10399], [77.56573, 11.10487], [77.56527, 11.10558], [77.56487, 11.10621], [77.5646, 11.10649], [77.56448, 11.10658], [77.56425, 11.10676], [77.564, 11.10681], [77.56359, 11.10683], [77.56338, 11.10678], [77.56321, 11.10673], [77.56228, 11.10626], [77.56173, 11.10595], [77.56146, 11.10586], [77.56107, 11.1058], [77.56072, 11.10585], [77.56037, 11.10599], [77.56016, 11.10609], [77.55984, 11.10617], [77.55958, 11.1062], [77.55928, 11.10618], [77.55904, 11.10609], [77.55877, 11.10598], [77.55814, 11.10563], [77.55675, 11.10484], [77.55647, 11.10461], [77.55621, 11.10427], [77.556, 11.10367], [77.55592, 11.10346], [77.55589, 11.10339], [77.55573, 11.10312], [77.55559, 11.10292], [77.55539, 11.1026], [77.5552, 11.10243], [77.55487, 11.10225], [77.55457, 11.10219], [77.55432, 11.10217], [77.55406, 11.10219], [77.55369, 11.10235], [77.5531, 11.10267], [77.55114, 11.10379], [77.5508, 11.10419], [77.55056, 11.10467], [77.55028, 11.10749], [77.54943, 11.10772], [77.54736, 11.10759], [77.54664, 11.10754], [77.54517, 11.10722], [77.54371, 11.10626], [77.54117, 11.10638], [77.54013, 11.10642], [77.52827, 11.10698], [77.51826, 11.10778], [77.51157, 11.10903], [77.5108, 11.10918], [77.51054, 11.10932], [77.50972, 11.10976], [77.50911, 11.11009], [77.50808, 11.11065], [77.50788, 11.11076], [77.50636, 11.11158], [77.50361, 11.11307], [77.50401, 11.11411], [77.50413, 11.11455], [77.50436, 11.11537], [77.50471, 11.11655], [77.50526, 11.1175], [77.50551, 11.11856], [77.50544, 11.11974], [77.50564, 11.1204], [77.50605, 11.12099], [77.50637, 11.12145], [77.50652, 11.12188], [77.50645, 11.12248], [77.50639, 11.1232], [77.50645, 11.12383], [77.50704, 11.12457], [77.50741, 11.12503], [77.50745, 11.12511], [77.5076, 11.12542], [77.50761, 11.12594], [77.50741, 11.12646], [77.50712, 11.12695], [77.50688, 11.12744], [77.50681, 11.12804], [77.5067, 11.12864], [77.50663, 11.12932], [77.50652, 11.13001], [77.50652, 11.13004], [77.50634, 11.13076], [77.5057, 11.13156], [77.50451, 11.13271], [77.50379, 11.13331], [77.50322, 11.13384], [77.50279, 11.13413], [77.50195, 11.13469], [77.50129, 11.13546], [77.5008, 11.13635], [77.50046, 11.13704], [77.50035, 11.13725], [77.49975, 11.13822], [77.49887, 11.13974], [77.49879, 11.1405], [77.4978, 11.1404], [77.49825, 11.14185], [77.49872, 11.14305], [77.49897, 11.14347], [77.49918, 11.14381], [77.4998, 11.14485], [77.50032, 11.14559], [77.50068, 11.14606], [77.50077, 11.14618], [77.50094, 11.14669], [77.50023, 11.14678], [77.49978, 11.14683], [77.49859, 11.14687], [77.49809, 11.14688], [77.4978, 11.14696], [77.49756, 11.14702], [77.49719, 11.14714], [77.49676, 11.14722], [77.49641, 11.14717], [77.49622, 11.14686], [77.49617, 11.1464], [77.49613, 11.14602], [77.49609, 11.14562], [77.49586, 11.14505], [77.49553, 11.14472], [77.49525, 11.14456], [77.49475, 11.14449], [77.49425, 11.14447], [77.49365, 11.14438], [77.49327, 11.1443], [77.49273, 11.14406], [77.49226, 11.14384], [77.49176, 11.14375], [77.49123, 11.14373], [77.49048, 11.1437], [77.4898, 11.14395], [77.48943, 11.14422], [77.48906, 11.14444], [77.48885, 11.1445], [77.48857, 11.14457], [77.48788, 11.14456], [77.48744, 11.14426], [77.48693, 11.1439], [77.48658, 11.14379], [77.48555, 11.14377], [77.48503, 11.1439], [77.48457, 11.14426], [77.48418, 11.14479], [77.48416, 11.14508], [77.48426, 11.14548], [77.48462, 11.14605], [77.48495, 11.14659], [77.48518, 11.14713], [77.48539, 11.14819], [77.48557, 11.14902], [77.48556, 11.1496], [77.48531, 11.15027], [77.48516, 11.15065], [77.48514, 11.15103], [77.48525, 11.1516], [77.48544, 11.15205], [77.48562, 11.15249], [77.48578, 11.15286], [77.48582, 11.15323], [77.48565, 11.15367], [77.4855, 11.15394], [77.48557, 11.15419], [77.48579, 11.15431], [77.48635, 11.15444], [77.48649, 11.15452], [77.4867, 11.15463], [77.48717, 11.15498], [77.48737, 11.15538], [77.48744, 11.15581], [77.48755, 11.15644], [77.48785, 11.15718], [77.48812, 11.15793], [77.48824, 11.15847], [77.488, 11.15868], [77.48703, 11.15883], [77.48566, 11.15888], [77.48495, 11.1589], [77.48386, 11.15899], [77.48266, 11.15929], [77.48173, 11.15958], [77.48145, 11.15962], [77.4808, 11.1597], [77.48003, 11.15964], [77.47866, 11.15948], [77.47763, 11.15949], [77.47636, 11.15944], [77.47546, 11.15944], [77.47478, 11.15949], [77.47433, 11.15977], [77.47422, 11.15996], [77.474, 11.16033], [77.47365, 11.16127], [77.47339, 11.162], [77.47301, 11.16254], [77.47199, 11.1634], [77.47218, 11.16408], [77.4722, 11.16483], [77.47222, 11.16606], [77.47231, 11.1661], [77.47283, 11.16632], [77.4737, 11.16676], [77.47441, 11.16721], [77.47508, 11.16761], [77.47549, 11.16821], [77.47571, 11.16882], [77.47578, 11.16976], [77.47556, 11.17151], [77.47576, 11.17269], [77.47624, 11.17404], [77.47682, 11.17525], [77.47749, 11.17631], [77.47812, 11.17752], [77.47908, 11.17709], [77.47994, 11.17674], [77.48065, 11.1764], [77.48133, 11.17608], [77.48154, 11.17598], [77.48219, 11.17568], [77.48296, 11.17536], [77.48345, 11.17514], [77.48438, 11.17499], [77.48483, 11.17499], [77.48568, 11.17498], [77.48634, 11.17507], [77.48684, 11.1754], [77.48741, 11.17564], [77.48793, 11.1756], [77.48843, 11.17543], [77.48869, 11.17505], [77.48892, 11.17446], [77.4891, 11.17411], [77.48948, 11.17398], [77.48994, 11.17393], [77.4906, 11.174], [77.49129, 11.17423], [77.49204, 11.17458], [77.49248, 11.17483], [77.49311, 11.17501], [77.49423, 11.17494], [77.49485, 11.17472], [77.49507, 11.17468], [77.49584, 11.17454], [77.49662, 11.17446], [77.49852, 11.17439], [77.49989, 11.17434], [77.50142, 11.17463], [77.50251, 11.17506], [77.50491, 11.17527], [77.50601, 11.17528], [77.50662, 11.17528], [77.50735, 11.17527], [77.50819, 11.17535], [77.5087, 11.17551], [77.5092, 11.17578], [77.5097, 11.17596], [77.51023, 11.17595], [77.51067, 11.17578], [77.51123, 11.17556], [77.51169, 11.17537], [77.51235, 11.17514], [77.51278, 11.17498], [77.514, 11.17471], [77.51459, 11.17469], [77.51506, 11.17475], [77.51575, 11.17502], [77.51648, 11.17531], [77.51708, 11.17587], [77.51747, 11.17661], [77.5177, 11.1775], [77.51778, 11.17848], [77.51786, 11.1795], [77.51779, 11.18095], [77.51792, 11.18153], [77.51802, 11.18292], [77.51807, 11.18373], [77.51828, 11.18506], [77.51851, 11.18764], [77.51858, 11.18845], [77.51882, 11.18948], [77.51917, 11.19034], [77.51969, 11.1912], [77.52017, 11.19193], [77.52065, 11.19256], [77.52097, 11.1933], [77.52114, 11.19411], [77.52119, 11.19501], [77.5212, 11.19558], [77.5212, 11.19565], [77.52129, 11.19592], [77.52146, 11.19645], [77.52149, 11.19653], [77.52173, 11.19718], [77.52132, 11.19895], [77.52129, 11.19907], [77.52109, 11.20005], [77.5205, 11.20108], [77.52013, 11.20181], [77.51977, 11.20273], [77.51967, 11.20335], [77.51952, 11.20412], [77.51903, 11.20449], [77.51822, 11.20467], [77.51745, 11.2048], [77.5171, 11.20483], [77.51631, 11.20489], [77.51511, 11.20509], [77.51359, 11.20535], [77.51245, 11.20549], [77.5112, 11.20564], [77.5099, 11.20574], [77.5098, 11.20635], [77.50965, 11.20686], [77.50927, 11.20708], [77.50747, 11.20704], [77.50644, 11.20703], [77.50502, 11.20708], [77.5044, 11.20713], [77.50393, 11.20717], [77.50339, 11.20721], [77.50236, 11.20728], [77.50111, 11.20748], [77.50024, 11.20791], [77.49966, 11.20869], [77.4994, 11.20952], [77.49947, 11.21043], [77.49992, 11.21113], [77.50055, 11.21151], [77.50127, 11.21179], [77.50236, 11.21185], [77.50347, 11.21201], [77.5035, 11.21201], [77.50438, 11.21244], [77.50488, 11.21293], [77.50533, 11.21347], [77.50534, 11.2136], [77.50539, 11.21418], [77.5053, 11.21489], [77.50503, 11.21526], [77.50427, 11.21549], [77.50319, 11.21583], [77.50249, 11.21606], [77.50146, 11.21625], [77.50075, 11.21643], [77.50032, 11.2168], [77.50012, 11.21727], [77.50001, 11.21773], [77.50068, 11.21821], [77.50085, 11.21861], [77.50037, 11.21909], [77.49929, 11.21958], [77.49907, 11.21974], [77.49764, 11.21909], [77.49612, 11.21829], [77.49484, 11.21779], [77.49392, 11.21761], [77.49317, 11.21764], [77.4927, 11.21763], [77.49208, 11.21762], [77.49206, 11.21882], [77.49236, 11.21948], [77.49276, 11.22], [77.49291, 11.22019], [77.49316, 11.22085], [77.49323, 11.22162], [77.49324, 11.22233], [77.49325, 11.2227], [77.49337, 11.22452], [77.49338, 11.2246], [77.49355, 11.2259], [77.49362, 11.22657], [77.49367, 11.22711], [77.49374, 11.22824], [77.49366, 11.22942], [77.49359, 11.23082], [77.49359, 11.23093], [77.49362, 11.23226], [77.49366, 11.23328], [77.49293, 11.23338], [77.49204, 11.23365], [77.49093, 11.23399], [77.49071, 11.23406], [77.49044, 11.23414], [77.48987, 11.23421], [77.48955, 11.23402], [77.48919, 11.2337], [77.48874, 11.23336], [77.48842, 11.23338], [77.48804, 11.23357], [77.48762, 11.23417], [77.48736, 11.23466], [77.48707, 11.23536], [77.48676, 11.23613], [77.48671, 11.23621], [77.48654, 11.23601], [77.48608, 11.2357], [77.48571, 11.23531], [77.48535, 11.23486], [77.48516, 11.23449], [77.48487, 11.23397], [77.48473, 11.23362], [77.48428, 11.23434], [77.4837, 11.23521], [77.48363, 11.23532], [77.48355, 11.23544], [77.48321, 11.23606], [77.48279, 11.23649], [77.48157, 11.23716], [77.4814, 11.23725], [77.48022, 11.23798], [77.47941, 11.23842], [77.47917, 11.2385], [77.47908, 11.23853], [77.47903, 11.23855], [77.4788, 11.23862], [77.47847, 11.23873], [77.47777, 11.23894], [77.4756, 11.23925], [77.47512, 11.2396], [77.47478, 11.24007], [77.47463, 11.24071], [77.47446, 11.24153], [77.47444, 11.24167], [77.47434, 11.24234], [77.47421, 11.24285], [77.47409, 11.24339], [77.47385, 11.24371], [77.47369, 11.24384], [77.47296, 11.24404], [77.47191, 11.24421], [77.47093, 11.24422], [77.4708, 11.24423], [77.4712, 11.24523], [77.47157, 11.24623], [77.47174, 11.24687], [77.47184, 11.24723], [77.4721, 11.24806], [77.47225, 11.24882], [77.47234, 11.24942], [77.47219, 11.25052], [77.47196, 11.25111], [77.47152, 11.25179], [77.47094, 11.25264], [77.47112, 11.25356], [77.47121, 11.25412], [77.47139, 11.25493], [77.4716, 11.2554], [77.47197, 11.25622], [77.47223, 11.25677], [77.47256, 11.25735], [77.47293, 11.2579], [77.47299, 11.25799], [77.47322, 11.25836], [77.4733, 11.25848], [77.47379, 11.25913], [77.47385, 11.25919], [77.47426, 11.25961], [77.47436, 11.25971], [77.47475, 11.26007], [77.47513, 11.26042], [77.4755, 11.2609], [77.47566, 11.2613], [77.47571, 11.26141], [77.47581, 11.26208], [77.47587, 11.26293], [77.47585, 11.26394], [77.47542, 11.26604], [77.47518, 11.26701], [77.47507, 11.26743], [77.47439, 11.26916], [77.47429, 11.26942], [77.47405, 11.27], [77.47348, 11.27106], [77.47282, 11.27216], [77.4728, 11.27219], [77.47195, 11.2739], [77.4723, 11.27434], [77.47276, 11.27514], [77.47313, 11.27597], [77.47327, 11.27663], [77.47345, 11.27763], [77.47358, 11.27818], [77.47202, 11.27757], [77.47155, 11.27755], [77.47123, 11.27769], [77.47096, 11.27836], [77.47066, 11.27896], [77.47024, 11.27964], [77.46994, 11.28013], [77.46991, 11.28065], [77.47004, 11.28124], [77.47041, 11.28174], [77.47051, 11.28196], [77.47062, 11.28222], [77.47059, 11.28266], [77.47036, 11.28293], [77.46997, 11.28309], [77.46957, 11.28318], [77.46898, 11.28323], [77.46843, 11.28333], [77.46816, 11.28348], [77.46797, 11.28375], [77.46774, 11.28435], [77.46756, 11.28494], [77.46733, 11.2855], [77.46691, 11.286], [77.46652, 11.28612], [77.46616, 11.2861], [77.46606, 11.28613], [77.46581, 11.28619], [77.46561, 11.2863], [77.4655, 11.2866], [77.46551, 11.2869], [77.46564, 11.28719], [77.46603, 11.28791], [77.46637, 11.28864], [77.46641, 11.28876], [77.46658, 11.28929], [77.46652, 11.29], [77.4663, 11.29078], [77.46597, 11.29175], [77.46589, 11.292], [77.46571, 11.29257], [77.4653, 11.29343], [77.46512, 11.29403], [77.46517, 11.29447], [77.46534, 11.29494], [77.46579, 11.29541], [77.46631, 11.29553], [77.46661, 11.2955], [77.46741, 11.29542], [77.4678, 11.29515], [77.46802, 11.29452], [77.46824, 11.29399], [77.46867, 11.29376], [77.46915, 11.29374], [77.46943, 11.29388], [77.46956, 11.294], [77.46979, 11.2942], [77.46993, 11.29453], [77.47005, 11.29482], [77.47002, 11.29537], [77.46995, 11.29574], [77.46977, 11.29619], [77.46946, 11.2965], [77.46932, 11.29656], [77.46891, 11.29674], [77.46828, 11.29683], [77.46773, 11.29696], [77.46756, 11.29708], [77.46746, 11.29715], [77.46717, 11.29764], [77.46689, 11.29876], [77.46686, 11.29902], [77.46683, 11.29938], [77.46664, 11.29998], [77.46643, 11.30076], [77.46621, 11.30128], [77.46586, 11.30181], [77.46556, 11.30234], [77.4655, 11.30293], [77.46571, 11.30351], [77.46594, 11.30415], [77.46597, 11.30424], [77.46591, 11.30472], [77.4658, 11.30516], [77.46542, 11.30572], [77.46504, 11.30625], [77.46427, 11.30705], [77.46374, 11.30766], [77.46371, 11.30769], [77.46282, 11.30857], [77.46271, 11.30863], [77.462, 11.30904], [77.46116, 11.3098], [77.46058, 11.31041], [77.46008, 11.3109], [77.45965, 11.31102], [77.45948, 11.3107], [77.45947, 11.31015], [77.45961, 11.30963], [77.45991, 11.30907], [77.45998, 11.30874], [77.45989, 11.30863], [77.45973, 11.30845], [77.45949, 11.30835], [77.45922, 11.30841], [77.4591, 11.30844], [77.45879, 11.30852], [77.45836, 11.30865], [77.45789, 11.30881], [77.45742, 11.30886], [77.45654, 11.30911], [77.45572, 11.30982], [77.45546, 11.30951], [77.45511, 11.30924], [77.45484, 11.30878], [77.45452, 11.30823], [77.45431, 11.30782], [77.454, 11.30746], [77.45369, 11.30743], [77.4533, 11.30739], [77.4528, 11.3075], [77.4522, 11.30761], [77.4519, 11.30744], [77.45178, 11.30698], [77.45182, 11.30651], [77.45181, 11.30615], [77.4518, 11.30576], [77.45173, 11.30525], [77.45137, 11.3048], [77.45086, 11.30472], [77.45019, 11.30479], [77.44984, 11.30508], [77.44965, 11.30523], [77.44941, 11.30552], [77.44883, 11.306], [77.44824, 11.30649], [77.44692, 11.30728], [77.44628, 11.30767], [77.44574, 11.3081], [77.445, 11.3087], [77.44471, 11.30894], [77.44435, 11.3093], [77.44369, 11.30995], [77.44311, 11.31062], [77.44254, 11.31133], [77.44163, 11.31243], [77.44079, 11.31297], [77.43985, 11.31323], [77.43881, 11.31336], [77.43797, 11.31371], [77.43709, 11.31415], [77.43511, 11.31467], [77.43418, 11.31488], [77.43372, 11.31499], [77.43313, 11.31508], [77.43149, 11.31534], [77.42936, 11.31582], [77.4285, 11.31609], [77.42679, 11.31662], [77.42516, 11.31211], [77.42386, 11.31126], [77.42368, 11.31114], [77.42271, 11.31051], [77.42177, 11.31015], [77.42014, 11.30954], [77.41999, 11.30948], [77.41768, 11.30978], [77.41718, 11.30984], [77.41337, 11.3119], [77.41161, 11.31285], [77.41119, 11.31308], [77.40973, 11.31396], [77.40926, 11.31376], [77.40908, 11.31368], [77.40792, 11.31318], [77.40787, 11.3132], [77.40711, 11.31349], [77.40586, 11.31397], [77.40555, 11.31409], [77.40322, 11.31499], [77.40072, 11.31603], [77.40021, 11.31644], [77.39954, 11.31698], [77.39711, 11.31892], [77.39682, 11.31915], [77.39637, 11.31951], [77.3959, 11.31989], [77.39449, 11.32022], [77.3935, 11.32045], [77.39117, 11.321], [77.38865, 11.3215], [77.38835, 11.32165], [77.38776, 11.32194], [77.38756, 11.32369], [77.3875, 11.32425], [77.38648, 11.32545], [77.38382, 11.32857], [77.38146, 11.3304], [77.38088, 11.33137], [77.38084, 11.33144], [77.38, 11.33287], [77.37999, 11.33288], [77.38, 11.3339], [77.38001, 11.33584], [77.38017, 11.33718], [77.3794, 11.33697], [77.37927, 11.33694], [77.37537, 11.33558], [77.37434, 11.33599], [77.37283, 11.33659], [77.36894, 11.33791], [77.36759, 11.33768], [77.36664, 11.33775], [77.36488, 11.33788], [77.36413, 11.33764], [77.36413, 11.33617], [77.3643, 11.33584], [77.36565, 11.33324], [77.36702, 11.33059], [77.36743, 11.32981], [77.36786, 11.32704], [77.36792, 11.32662], [77.36817, 11.32498], [77.36815, 11.32437], [77.36809, 11.32284], [77.36802, 11.32125], [77.36713, 11.31876], [77.36512, 11.3168], [77.36479, 11.31683], [77.36157, 11.31714], [77.36132, 11.31705], [77.35827, 11.31596], [77.35799, 11.31586], [77.35227, 11.31542], [77.34487, 11.31484], [77.34456, 11.31485], [77.34233, 11.31496], [77.33409, 11.31534], [77.33391, 11.31535], [77.3327, 11.3154], [77.33302, 11.31432], [77.33383, 11.31154], [77.33387, 11.3114], [77.3342, 11.31026], [77.33646, 11.30751], [77.34231, 11.30039], [77.34255, 11.30009], [77.34368, 11.29872], [77.34547, 11.29654], [77.34643, 11.29284], [77.34649, 11.2926], [77.34774, 11.28774], [77.34711, 11.286], [77.34444, 11.27866], [77.3443, 11.27827], [77.34421, 11.27803], [77.344, 11.27746], [77.34387, 11.2771], [77.34174, 11.27125], [77.34016, 11.27004], [77.33988, 11.26983], [77.33952, 11.26955], [77.33933, 11.2694], [77.33806, 11.26842], [77.3379, 11.26829], [77.33571, 11.26343], [77.33568, 11.26337], [77.33481, 11.26145], [77.33242, 11.25615], [77.33134, 11.25628], [77.32881, 11.25711], [77.32792, 11.2574], [77.32743, 11.25757], [77.32682, 11.25777], [77.32655, 11.25786], [77.32513, 11.25833], [77.32232, 11.25926], [77.31727, 11.26092], [77.31596, 11.26135], [77.31553, 11.26149], [77.31534, 11.26155], [77.31454, 11.26181], [77.31033, 11.2632], [77.30968, 11.26353], [77.30392, 11.26646], [77.30364, 11.26671], [77.30228, 11.26787], [77.29803, 11.27154], [77.29747, 11.27202], [77.30216, 11.2728], [77.30373, 11.27306], [77.30535, 11.27365], [77.30944, 11.27513], [77.31146, 11.27586], [77.31305, 11.27845], [77.31371, 11.27952], [77.31299, 11.27986], [77.31087, 11.28086], [77.3099, 11.28132], [77.30678, 11.28278], [77.30599, 11.28296], [77.2951, 11.28551], [77.29132, 11.2864], [77.29054, 11.28658], [77.28662, 11.28929], [77.28614, 11.28962], [77.28645, 11.29351], [77.28649, 11.29403], [77.28673, 11.29695], [77.28833, 11.30423], [77.28785, 11.30737], [77.28751, 11.3096], [77.28689, 11.31129], [77.28557, 11.31483], [77.28512, 11.31605], [77.28561, 11.31754], [77.28585, 11.31825], [77.28599, 11.31868], [77.28652, 11.32024], [77.2871, 11.32195], [77.28891, 11.3242], [77.29282, 11.32907], [77.29195, 11.32974], [77.29092, 11.33137], [77.29056, 11.33154], [77.2894, 11.33207], [77.28691, 11.33377], [77.28547, 11.33494], [77.28542, 11.33502], [77.28392, 11.33784], [77.28416, 11.33947], [77.28438, 11.34096], [77.27987, 11.34055], [77.28056, 11.33595], [77.28084, 11.33404], [77.28061, 11.33342], [77.28011, 11.33229], [77.27974, 11.33144], [77.277, 11.32879], [77.2755, 11.32734], [77.27398, 11.32587], [77.27075, 11.32408], [77.26957, 11.32342], [77.26944, 11.32335], [77.26904, 11.32313], [77.26903, 11.32304], [77.26895, 11.3221], [77.26889, 11.32147], [77.26885, 11.32106], [77.26877, 11.32094], [77.26726, 11.31859], [77.2649, 11.31804], [77.26465, 11.31624], [77.26454, 11.31545], [77.26295, 11.31404], [77.26047, 11.31554], [77.25628, 11.3118], [77.25578, 11.31135], [77.25344, 11.30926], [77.25136, 11.31466], [77.25184, 11.31767], [77.25227, 11.31838], [77.25251, 11.31938], [77.253, 11.32141], [77.25326, 11.32246], [77.2534, 11.32304], [77.2511, 11.32414], [77.25067, 11.32509], [77.2505, 11.32545], [77.24995, 11.32665], [77.24985, 11.3267], [77.24854, 11.3273], [77.24788, 11.32642], [77.24724, 11.32556], [77.24567, 11.32346], [77.24554, 11.32328], [77.24522, 11.32328], [77.24454, 11.32328], [77.24242, 11.32326], [77.2417, 11.32325], [77.24169, 11.3232], [77.24152, 11.32246], [77.24154, 11.32073], [77.2393, 11.3127], [77.23936, 11.31218], [77.23993, 11.30772], [77.24073, 11.30571], [77.2412, 11.3051], [77.24139, 11.3045], [77.24207, 11.30236], [77.24175, 11.30232], [77.24074, 11.30218], [77.23239, 11.30107], [77.23102, 11.30071], [77.22271, 11.2985], [77.21969, 11.29769], [77.21764, 11.29715], [77.21506, 11.29712], [77.21094, 11.29706], [77.21016, 11.29705], [77.20903, 11.29703], [77.20587, 11.29754], [77.20502, 11.29768], [77.20239, 11.2981], [77.20248, 11.2989], [77.20241, 11.29903], [77.20132, 11.30094], [77.20055, 11.30231], [77.20061, 11.30291], [77.2007, 11.30383], [77.20081, 11.30508], [77.20087, 11.30573], [77.20098, 11.30694], [77.20107, 11.30789], [77.20184, 11.30764], [77.20386, 11.30697], [77.20775, 11.30568], [77.20988, 11.3055], [77.219, 11.30476], [77.21942, 11.30629], [77.21944, 11.30635], [77.22089, 11.31158], [77.22136, 11.31175], [77.22356, 11.31255], [77.22563, 11.31331], [77.22586, 11.31339], [77.22619, 11.31351], [77.22771, 11.31407], [77.22865, 11.31396], [77.23011, 11.3138], [77.2306, 11.31375], [77.23213, 11.31358], [77.23336, 11.31412], [77.23478, 11.31473], [77.23493, 11.31508], [77.23645, 11.31867], [77.23668, 11.32092], [77.23672, 11.32133], [77.23664, 11.32197], [77.23727, 11.3265], [77.23476, 11.32753], [77.23416, 11.32894], [77.23206, 11.33391], [77.22773, 11.33375], [77.22719, 11.33373], [77.22274, 11.33357], [77.22166, 11.33353], [77.22145, 11.33457], [77.22075, 11.3381], [77.22131, 11.33863], [77.22794, 11.34509], [77.22826, 11.34551], [77.22852, 11.34586], [77.23145, 11.34976], [77.23135, 11.34978], [77.23068, 11.34992], [77.22537, 11.35107], [77.22386, 11.35088], [77.22307, 11.35078], [77.22057, 11.35047], [77.2187, 11.35024], [77.21856, 11.3502], [77.21794, 11.35001], [77.21332, 11.34861], [77.21159, 11.34808], [77.20772, 11.34691], [77.20706, 11.34655], [77.20356, 11.34465], [77.20281, 11.34424], [77.20065, 11.34307], [77.19995, 11.34269], [77.19903, 11.34219], [77.19846, 11.34234], [77.19752, 11.3426], [77.19663, 11.34283], [77.19673, 11.3421], [77.19698, 11.34021], [77.19726, 11.33808], [77.19641, 11.33433], [77.19253, 11.3363], [77.18794, 11.33864], [77.18608, 11.33886], [77.18345, 11.33917], [77.18343, 11.33917], [77.17964, 11.33961], [77.17743, 11.33987], [77.1771, 11.33991], [77.17635, 11.33653], [77.17633, 11.33641], [77.17499, 11.33038], [77.17498, 11.33033], [77.17491, 11.33004], [77.17505, 11.33004], [77.17589, 11.33007], [77.17765, 11.33013], [77.17922, 11.33018], [77.17947, 11.32951], [77.18075, 11.32614], [77.18072, 11.32534], [77.18067, 11.32446], [77.1806, 11.32305], [77.18055, 11.32194], [77.1836, 11.3208], [77.18129, 11.3138], [77.18086, 11.31375], [77.17675, 11.31445], [77.16869, 11.3146], [77.1672, 11.31463], [77.1668, 11.31464], [77.16101, 11.32717], [77.16086, 11.3275], [77.16041, 11.32847], [77.15514, 11.33135], [77.15403, 11.33196], [77.15372, 11.33213], [77.15029, 11.334], [77.15036, 11.33234], [77.15076, 11.3314], [77.15083, 11.33131], [77.1512, 11.3309], [77.15151, 11.33053], [77.15187, 11.3301], [77.15203, 11.32994], [77.15268, 11.32927], [77.15361, 11.32844], [77.15451, 11.32796], [77.15469, 11.32704], [77.1544, 11.32613], [77.15437, 11.32546], [77.15444, 11.3246], [77.15362, 11.32418], [77.15346, 11.32354], [77.15358, 11.32283], [77.15366, 11.32276], [77.15419, 11.32228], [77.1548, 11.3215], [77.1552, 11.32041], [77.15521, 11.31943], [77.1544, 11.31852], [77.15396, 11.31788], [77.15379, 11.31763], [77.15387, 11.31645], [77.15409, 11.31596], [77.15426, 11.31559], [77.15404, 11.31451], [77.15363, 11.314], [77.15329, 11.31262], [77.15337, 11.31138], [77.15334, 11.31004], [77.15318, 11.30925], [77.15311, 11.30891], [77.15238, 11.30865], [77.15046, 11.30915], [77.14722, 11.31036], [77.14632, 11.31075], [77.14531, 11.31135], [77.14439, 11.31154], [77.14316, 11.31138], [77.14245, 11.31125], [77.14151, 11.31107], [77.13967, 11.31106], [77.13794, 11.31144], [77.13621, 11.31202], [77.13509, 11.31224], [77.13373, 11.31139], [77.1336, 11.31133], [77.13259, 11.3109], [77.13075, 11.31119], [77.12943, 11.31163], [77.12809, 11.31157], [77.12571, 11.3106], [77.12445, 11.30951], [77.12416, 11.30869], [77.1239, 11.30793], [77.12343, 11.30604], [77.12307, 11.30414], [77.12298, 11.30361], [77.12259, 11.30133], [77.12242, 11.2992], [77.12309, 11.29731], [77.12381, 11.29583], [77.12475, 11.29453], [77.12524, 11.29389], [77.12609, 11.29366], [77.12633, 11.2936], [77.12784, 11.29296], [77.12838, 11.29273], [77.13058, 11.29063], [77.13248, 11.28927], [77.13457, 11.28856], [77.13552, 11.28823], [77.1388, 11.28752], [77.13918, 11.28744], [77.14214, 11.28711], [77.14407, 11.28686], [77.14478, 11.28709], [77.14498, 11.28715], [77.14503, 11.28799], [77.14507, 11.28938], [77.14521, 11.29002], [77.14592, 11.29006], [77.14661, 11.28976], [77.14709, 11.28862], [77.14777, 11.28747], [77.1483, 11.28823], [77.14866, 11.28979], [77.14928, 11.29014], [77.15021, 11.29042], [77.15031, 11.29045], [77.15163, 11.29014], [77.15272, 11.28906], [77.15324, 11.2882], [77.15359, 11.28761], [77.15384, 11.28611], [77.15399, 11.28441], [77.15448, 11.28388], [77.15581, 11.28388], [77.15609, 11.28376], [77.15692, 11.2834], [77.1574, 11.28267], [77.158, 11.28224], [77.15863, 11.28278], [77.15926, 11.2828], [77.15951, 11.28281], [77.16026, 11.28276], [77.16055, 11.28205], [77.16083, 11.28124], [77.16154, 11.2811], [77.16257, 11.28142], [77.16359, 11.28154], [77.16472, 11.28156], [77.16595, 11.28167], [77.16597, 11.28225], [77.16558, 11.28307], [77.16541, 11.28415], [77.16575, 11.2852], [77.16659, 11.28563], [77.16936, 11.2856], [77.16965, 11.2856], [77.16991, 11.28558], [77.172, 11.28543], [77.17292, 11.28536], [77.17363, 11.28531], [77.1737, 11.28506], [77.17381, 11.28462], [77.17399, 11.28373], [77.1736, 11.28281], [77.17299, 11.28137], [77.17168, 11.27883], [77.17135, 11.27797], [77.17121, 11.27671], [77.17107, 11.27545], [77.17066, 11.27375], [77.17052, 11.27193], [77.17048, 11.2714], [77.1705, 11.27048], [77.17058, 11.26918], [77.17061, 11.26874], [77.17062, 11.26559], [77.17072, 11.26222], [77.1707, 11.2613], [77.17065, 11.25955], [77.1707, 11.25928], [77.17091, 11.258], [77.171, 11.25746], [77.17074, 11.25529], [77.17024, 11.25194], [77.17018, 11.24976], [77.16967, 11.24814], [77.16946, 11.24805], [77.16905, 11.24787], [77.16782, 11.24774], [77.16617, 11.24742], [77.16462, 11.2469], [77.16419, 11.24612], [77.16405, 11.24473], [77.16405, 11.24464], [77.16411, 11.24313], [77.16408, 11.24174], [77.16364, 11.24066], [77.16311, 11.23961], [77.16286, 11.2384], [77.16291, 11.2363], [77.16292, 11.2362], [77.16299, 11.2352], [77.16287, 11.23441], [77.16214, 11.23384], [77.16208, 11.23382], [77.16059, 11.23341], [77.15961, 11.23219], [77.15943, 11.23197], [77.15846, 11.23022], [77.15829, 11.22987], [77.15819, 11.22967], [77.15806, 11.22941], [77.1576, 11.22846], [77.15715, 11.22707], [77.15651, 11.226], [77.15579, 11.22554], [77.15444, 11.22499], [77.15415, 11.22365], [77.15404, 11.22326], [77.15311, 11.2227], [77.15291, 11.22262], [77.15197, 11.22225], [77.15132, 11.22087], [77.1518, 11.21945], [77.15179, 11.21915], [77.15178, 11.21855], [77.15135, 11.21767], [77.15062, 11.21669], [77.15055, 11.21643], [77.15039, 11.2158], [77.15046, 11.21439], [77.15086, 11.21357], [77.15104, 11.21277], [77.1506, 11.21128], [77.15038, 11.21059], [77.15045, 11.20888], [77.15105, 11.20845], [77.15227, 11.208], [77.15287, 11.20698], [77.15294, 11.20567], [77.15279, 11.20443], [77.15488, 11.20521], [77.15695, 11.20502], [77.15728, 11.20493], [77.15873, 11.20454], [77.15976, 11.20414], [77.16197, 11.20295], [77.16237, 11.20221], [77.16295, 11.19994], [77.16363, 11.19762], [77.16356, 11.19408], [77.16348, 11.18965], [77.16335, 11.1883], [77.16326, 11.18736], [77.16324, 11.18585], [77.16321, 11.18417], [77.1633, 11.18101], [77.16332, 11.18027], [77.1635, 11.17774], [77.16376, 11.17406], [77.16429, 11.1728], [77.165, 11.17171], [77.16645, 11.17149], [77.16828, 11.17143], [77.16854, 11.17142], [77.16916, 11.1714], [77.17206, 11.17131], [77.17335, 11.17127], [77.17554, 11.17173], [77.1768, 11.17116], [77.17705, 11.17097], [77.17766, 11.17054], [77.1786, 11.16986], [77.17952, 11.16911], [77.1804, 11.16839], [77.18119, 11.16735], [77.18164, 11.16676], [77.18224, 11.1663], [77.18242, 11.16576], [77.18253, 11.1656], [77.18278, 11.16522], [77.1824, 11.16453], [77.18215, 11.16427], [77.18105, 11.16359], [77.18041, 11.163], [77.17994, 11.16257], [77.17956, 11.16116], [77.17882, 11.16048], [77.17767, 11.15842], [77.17768, 11.15839], [77.17927, 11.15392], [77.17927, 11.15352], [77.17925, 11.15216], [77.17873, 11.15026], [77.17867, 11.15005], [77.17792, 11.14848], [77.17776, 11.14788], [77.17735, 11.14638], [77.17714, 11.14479], [77.17731, 11.14355], [77.17744, 11.14321], [77.17766, 11.14265], [77.17856, 11.1421], [77.18038, 11.14187], [77.18344, 11.14229], [77.18457, 11.14245], [77.18569, 11.14472], [77.18579, 11.14507], [77.18665, 11.14805], [77.18706, 11.15175], [77.18763, 11.1535], [77.18859, 11.15381], [77.19041, 11.15376], [77.19362, 11.15243], [77.19488, 11.15169], [77.19541, 11.15125], [77.19633, 11.14955], [77.19728, 11.14868], [77.19782, 11.14818], [77.19866, 11.1475], [77.19933, 11.14748], [77.20046, 11.14795], [77.20122, 11.14793], [77.20257, 11.14756], [77.20307, 11.14689], [77.2034, 11.14605], [77.20369, 11.14568], [77.20407, 11.14521], [77.20473, 11.1442], [77.20499, 11.14406], [77.20513, 11.14403], [77.20526, 11.14393], [77.20537, 11.14384], [77.20658, 11.14316], [77.20794, 11.14329], [77.20807, 11.14327], [77.20942, 11.1431], [77.20964, 11.14307], [77.21031, 11.14256], [77.21062, 11.14232], [77.21085, 11.14214], [77.21165, 11.14153], [77.21164, 11.14087], [77.21129, 11.13973], [77.21145, 11.13907], [77.2115, 11.13905], [77.2128, 11.13854], [77.21312, 11.13754], [77.21294, 11.1364], [77.21309, 11.13557], [77.21351, 11.13494], [77.21408, 11.13408], [77.21409, 11.13406], [77.21423, 11.13208], [77.21456, 11.13092], [77.21573, 11.12974], [77.21792, 11.12902], [77.21962, 11.12913], [77.22003, 11.12897], [77.22089, 11.1285], [77.22141, 11.12822], [77.22315, 11.12755], [77.22417, 11.12736], [77.22469, 11.12833], [77.2269, 11.12859], [77.22859, 11.1287], [77.23131, 11.12945], [77.23175, 11.13006], [77.232, 11.13041], [77.23207, 11.13067], [77.23271, 11.13302], [77.23368, 11.13511], [77.23376, 11.13528], [77.23397, 11.13807], [77.2341, 11.13867], [77.23433, 11.1397], [77.23442, 11.14014], [77.23471, 11.14046], [77.23503, 11.14082], [77.23557, 11.14115], [77.23605, 11.14145], [77.23623, 11.14147], [77.23631, 11.14148], [77.23707, 11.14158], [77.2396, 11.14085], [77.24246, 11.13961], [77.24396, 11.13825], [77.24445, 11.13693], [77.24561, 11.13558], [77.24644, 11.13424], [77.24794, 11.13321], [77.24978, 11.13184], [77.2506, 11.13018], [77.25064, 11.13013], [77.25071, 11.13004], [77.25144, 11.12917], [77.25226, 11.12784], [77.25274, 11.12619], [77.25323, 11.12437], [77.25371, 11.12288], [77.25471, 11.1217], [77.25706, 11.12115], [77.25855, 11.11832], [77.25892, 11.11747], [77.25898, 11.11733], [77.25907, 11.11712], [77.25985, 11.11533], [77.26085, 11.114], [77.26286, 11.11296], [77.26335, 11.11164], [77.26339, 11.11123], [77.26345, 11.11063], [77.2635, 11.11016], [77.26335, 11.10945], [77.26322, 11.10881], [77.26174, 11.10892], [77.25954, 11.10909], [77.25931, 11.10911], [77.25746, 11.10974], [77.25607, 11.11032], [77.25572, 11.11038], [77.25454, 11.11041], [77.25425, 11.11042], [77.25312, 11.11041], [77.25216, 11.1104], [77.24691, 11.11036], [77.24514, 11.11016], [77.24343, 11.10994], [77.24102, 11.10949], [77.23953, 11.10862], [77.23913, 11.10811], [77.23899, 11.10743], [77.23884, 11.1067], [77.23707, 11.10603], [77.23655, 11.10569], [77.2314, 11.10231], [77.22544, 11.09943], [77.2254, 11.09941], [77.22182, 11.09772], [77.21992, 11.09682], [77.21959, 11.09669], [77.21786, 11.096], [77.21642, 11.09542], [77.2126, 11.0939], [77.21052, 11.09372], [77.20994, 11.09367], [77.20711, 11.09342], [77.20585, 11.09278], [77.20448, 11.09208], [77.20363, 11.09165], [77.20026, 11.08828], [77.19963, 11.08765], [77.19778, 11.08463], [77.19643, 11.0837], [77.19562, 11.08295], [77.19291, 11.08148], [77.19046, 11.08091], [77.18856, 11.08046], [77.18822, 11.08034], [77.18773, 11.08018], [77.18673, 11.07984], [77.18445, 11.07907], [77.18102, 11.07698], [77.17352, 11.07268], [77.16617, 11.06806], [77.16577, 11.06656], [77.16526, 11.06467], [77.16517, 11.0643], [77.16507, 11.06392], [77.16534, 11.06131], [77.16605, 11.06059], [77.16768, 11.05895], [77.16811, 11.05852], [77.17154, 11.05507], [77.17257, 11.05404], [77.17297, 11.05315], [77.17336, 11.05228], [77.17345, 11.05207], [77.17516, 11.04824], [77.17546, 11.04679], [77.1755, 11.0466], [77.17562, 11.04604], [77.17595, 11.04445], [77.1763, 11.04281], [77.17634, 11.04262], [77.1765, 11.04186], [77.17696, 11.03932], [77.17701, 11.03911], [77.17701, 11.03908], [77.17704, 11.03891], [77.17709, 11.03858], [77.17754, 11.03609], [77.17695, 11.03367], [77.17621, 11.03064], [77.17569, 11.02849], [77.17558, 11.02805], [77.17548, 11.02764], [77.17545, 11.02752], [77.17429, 11.02577], [77.17458, 11.02456], [77.17497, 11.0232], [77.17501, 11.02307], [77.17444, 11.01817], [77.17356, 11.01681], [77.17256, 11.01526], [77.17185, 11.01416], [77.17067, 11.01235], [77.16975, 11.0115], [77.16865, 11.01049], [77.16693, 11.00955], [77.16654, 11.00929], [77.16513, 11.00828], [77.16498, 11.00762], [77.16489, 11.00722], [77.16469, 11.00633], [77.16258, 11.00272], [77.16254, 11.00266], [77.16113, 11.0005], [77.1598, 10.99966], [77.1597, 10.99965], [77.15945, 10.99964], [77.15842, 10.99958], [77.15573, 10.99942], [77.15528, 10.99868], [77.1556, 10.99685], [77.15673, 10.99423], [77.15695, 10.99371], [77.16033, 10.98721], [77.16036, 10.98716], [77.16267, 10.98326], [77.16425, 10.98059], [77.16429, 10.98047], [77.16481, 10.97907], [77.16534, 10.97766], [77.1663, 10.97508], [77.16652, 10.97454], [77.16814, 10.97055], [77.16922, 10.96678], [77.16887, 10.96432], [77.16894, 10.96313], [77.16897, 10.9625], [77.17105, 10.96128], [77.17233, 10.95607], [77.17252, 10.95344], [77.17271, 10.95081], [77.17362, 10.94969], [77.17436, 10.94876], [77.17621, 10.94732], [77.17654, 10.94596], [77.17682, 10.94469], [77.17514, 10.9423], [77.17568, 10.93947], [77.17595, 10.93805], [77.17737, 10.93339], [77.17768, 10.93228], [77.17964, 10.92528], [77.18222, 10.92567], [77.18371, 10.92665], [77.18609, 10.92748], [77.18696, 10.92712], [77.18912, 10.92622], [77.18935, 10.92612], [77.19053, 10.9248], [77.19188, 10.92455], [77.19661, 10.92369], [77.1995, 10.92408], [77.19976, 10.92345], [77.20096, 10.9206], [77.20115, 10.91905], [77.19981, 10.91713], [77.19954, 10.91675], [77.20033, 10.91558], [77.20046, 10.91557], [77.20272, 10.91535], [77.2039, 10.91397], [77.20408, 10.91146], [77.20707, 10.91141], [77.20738, 10.91145], [77.21023, 10.91184], [77.21085, 10.91192], [77.21482, 10.91089], [77.2161, 10.90979], [77.2163, 10.90962], [77.21647, 10.90947], [77.21658, 10.90941], [77.21666, 10.90935], [77.21677, 10.90922], [77.21698, 10.90904], [77.21716, 10.90888], [77.21756, 10.90853], [77.21772, 10.90839], [77.21779, 10.90833], [77.21814, 10.90836], [77.21873, 10.90841], [77.21978, 10.90849], [77.21994, 10.9085], [77.22027, 10.90853], [77.22186, 10.90865], [77.22197, 10.90866], [77.22616, 10.91072], [77.22875, 10.91166], [77.23232, 10.91025], [77.23609, 10.90865], [77.24054, 10.90797], [77.24188, 10.9075], [77.24593, 10.90609], [77.25226, 10.90305], [77.2524, 10.90297], [77.25601, 10.90096], [77.25692, 10.89962], [77.25741, 10.89889], [77.25785, 10.89428], [77.26038, 10.88553], [77.26042, 10.88383], [77.26056, 10.87793], [77.2607, 10.87584], [77.26094, 10.87213], [77.26097, 10.8717], [77.26189, 10.86719], [77.2621, 10.86617], [77.26237, 10.86599], [77.269, 10.86223], [77.26898, 10.86211], [77.27027, 10.86061], [77.27376, 10.85874], [77.27799, 10.85665], [77.27999, 10.8564], [77.28062, 10.85628], [77.28079, 10.85614], [77.28117, 10.85583], [77.28392, 10.85529], [77.29055, 10.85492], [77.29034, 10.85395], [77.29017, 10.8532], [77.28958, 10.85054], [77.28948, 10.85011], [77.28966, 10.84688], [77.28968, 10.84656], [77.29001, 10.8406], [77.29002, 10.84045], [77.29014, 10.83817], [77.2909, 10.83682], [77.29171, 10.83539], [77.2914, 10.83438], [77.29079, 10.83236], [77.29078, 10.83231], [77.29143, 10.82943], [77.29336, 10.82775], [77.29674, 10.8248], [77.29661, 10.82214], [77.29657, 10.82143], [77.29951, 10.81472], [77.29797, 10.81379], [77.29454, 10.81171], [77.29342, 10.81218], [77.29254, 10.81255], [77.28982, 10.81369], [77.28684, 10.80953], [77.28548, 10.80763], [77.28494, 10.80689], [77.28374, 10.8065], [77.28209, 10.80596], [77.28109, 10.80517], [77.27804, 10.80276], [77.27728, 10.79748], [77.2767, 10.79344], [77.27664, 10.79309], [77.2754, 10.78943], [77.27515, 10.78869], [77.27174, 10.7864], [77.26915, 10.78539], [77.26847, 10.78512], [77.26679, 10.78482], [77.26466, 10.78362], [77.26411, 10.78331], [77.26082, 10.78146], [77.25926, 10.78045], [77.25909, 10.78034], [77.25804, 10.77967], [77.25509, 10.779], [77.25302, 10.77888], [77.25174, 10.77881], [77.25151, 10.7788], [77.25137, 10.77878], [77.24589, 10.77815], [77.23917, 10.77688], [77.23823, 10.77688], [77.23181, 10.7769], [77.23024, 10.77729], [77.22919, 10.77755], [77.22663, 10.77818], [77.22541, 10.77902], [77.225, 10.7793], [77.22001, 10.78276], [77.21757, 10.78406], [77.21733, 10.78419], [77.21467, 10.78509], [77.21322, 10.78558], [77.21308, 10.78563], [77.21215, 10.78609], [77.20961, 10.78737], [77.20819, 10.78989], [77.20849, 10.79442], [77.21012, 10.79615], [77.21053, 10.79659], [77.21304, 10.79969], [77.21462, 10.80218], [77.21462, 10.80285], [77.21462, 10.80389], [77.21289, 10.80468], [77.2103, 10.80414], [77.20644, 10.80333], [77.20112, 10.8026], [77.20045, 10.80252], [77.19998, 10.80244], [77.19542, 10.80296], [77.19305, 10.80345], [77.19198, 10.80332], [77.19176, 10.80329], [77.18943, 10.80302], [77.18516, 10.80199], [77.18499, 10.80205], [77.18005, 10.79913], [77.17642, 10.79901], [77.17369, 10.79989], [77.17136, 10.80064], [77.16982, 10.80248], [77.16512, 10.79744], [77.16198, 10.79438], [77.1605, 10.79253], [77.15934, 10.79108], [77.15885, 10.79047], [77.15772, 10.78681], [77.15711, 10.78437], [77.15632, 10.78117], [77.15406, 10.77526], [77.1536, 10.7742], [77.15356, 10.77405], [77.15153, 10.76935], [77.14754, 10.76573], [77.14217, 10.76242], [77.13949, 10.76151], [77.1393, 10.76141], [77.13637, 10.75886], [77.13409, 10.7555], [77.13412, 10.75211], [77.13428, 10.7512], [77.1346, 10.74928], [77.13465, 10.74899], [77.13504, 10.74671], [77.13576, 10.73739], [77.13662, 10.73192], [77.13678, 10.73088], [77.13683, 10.73058], [77.1374, 10.72695], [77.13764, 10.72542], [77.13843, 10.71859], [77.13895, 10.7146], [77.13959, 10.70969], [77.14049, 10.70466], [77.14111, 10.70113], [77.14132, 10.69771], [77.1416, 10.69293], [77.14169, 10.68781], [77.14073, 10.68341], [77.14049, 10.67796], [77.14066, 10.67659], [77.14083, 10.67526], [77.141, 10.67387], [77.14174, 10.66805], [77.14421, 10.66263], [77.1445, 10.66199], [77.14613, 10.65841], [77.14866, 10.65549], [77.14893, 10.65518], [77.15184, 10.65181], [77.15613, 10.64903], [77.15676, 10.64862], [77.16307, 10.64622], [77.16442, 10.64571], [77.16971, 10.64479], [77.17198, 10.64457], [77.17455, 10.64431], [77.17716, 10.6437], [77.17784, 10.64335], [77.17867, 10.64293], [77.17943, 10.64218], [77.17933, 10.64137], [77.17927, 10.64089], [77.17785, 10.63852], [77.17683, 10.63523], [77.17617, 10.63211], [77.1755, 10.62936], [77.17482, 10.62716], [77.1742, 10.62517], [77.17414, 10.62497], [77.17407, 10.62419], [77.17386, 10.62165], [77.17303, 10.61835], [77.17218, 10.61579], [77.17085, 10.61065], [77.17077, 10.61009], [77.17038, 10.60732], [77.17017, 10.60589], [77.17013, 10.60558], [77.17001, 10.60474], [77.16978, 10.60311], [77.1698, 10.59877], [77.16981, 10.59665], [77.16863, 10.59299], [77.1683, 10.5926], [77.16597, 10.58965], [77.15975, 10.58675], [77.15911, 10.58645], [77.15564, 10.58485], [77.14965, 10.5839], [77.1425, 10.58428], [77.13684, 10.58481], [77.136, 10.5849], [77.13569, 10.58494], [77.13537, 10.58497], [77.13412, 10.5851], [77.13203, 10.58533], [77.12774, 10.5858], [77.12758, 10.58582], [77.12636, 10.58606], [77.12525, 10.58628], [77.12169, 10.58697], [77.12094, 10.58712], [77.11996, 10.58683], [77.11953, 10.5867], [77.11814, 10.58628], [77.11683, 10.58595], [77.11569, 10.58617], [77.11416, 10.58695], [77.11207, 10.58756], [77.11016, 10.58761], [77.10659, 10.58771], [77.10408, 10.58742], [77.10397, 10.58741], [77.10098, 10.58638], [77.09701, 10.58685], [77.09434, 10.58613], [77.09165, 10.58543], [77.09047, 10.58354], [77.09016, 10.58305], [77.08879, 10.58087], [77.0865, 10.57527], [77.0864, 10.57503], [77.08438, 10.57128], [77.08156, 10.56587], [77.08054, 10.56418], [77.07831, 10.56045], [77.07801, 10.55935], [77.07741, 10.55714], [77.07723, 10.55679], [77.07705, 10.55629], [77.07559, 10.55062], [77.07569, 10.55023], [77.07565, 10.54895], [77.07538, 10.54674], [77.07501, 10.54326], [77.07509, 10.54102], [77.0755, 10.53703], [77.07642, 10.53279], [77.07657, 10.53139], [77.07677, 10.52956], [77.07682, 10.52905], [77.07689, 10.5273], [77.07752, 10.51461], [77.07755, 10.51398], [77.07787, 10.50798], [77.07798, 10.50584], [77.07271, 10.49245], [77.06863, 10.48498], [77.06592, 10.47976], [77.06589, 10.47924], [77.06583, 10.47809], [77.06562, 10.47365], [77.06556, 10.4724], [77.06572, 10.47177], [77.06609, 10.47033], [77.06622, 10.46983], [77.06626, 10.46969], [77.0665, 10.46875], [77.06801, 10.4672], [77.07259, 10.46249], [77.07392, 10.46167], [77.07442, 10.46042], [77.07411, 10.45832], [77.07382, 10.4558], [77.06934, 10.45158], [77.06352, 10.44776], [77.05977, 10.44522], [77.05612, 10.44062], [77.05395, 10.43765], [77.05248, 10.43563], [77.05213, 10.43508], [77.04926, 10.43065], [77.04776, 10.42612], [77.04922, 10.41547], [77.05353, 10.4094], [77.06776, 10.39942], [77.07565, 10.39262], [77.08224, 10.3858], [77.08964, 10.37982], [77.09297, 10.37537], [77.09505, 10.36791], [77.09497, 10.35958], [77.09422, 10.35664], [77.09403, 10.35593], [77.09051, 10.34285], [77.08739, 10.33574], [77.08725, 10.33079], [77.08733, 10.3305], [77.08894, 10.32464], [77.09085, 10.32179], [77.09211, 10.31953], [77.09473, 10.31484], [77.09556, 10.31334], [77.09562, 10.31184], [77.0957, 10.30968], [77.0957, 10.30962], [77.09911, 10.31077], [77.10199, 10.31175], [77.10378, 10.3128], [77.10436, 10.31314], [77.10625, 10.31426], [77.10698, 10.31428], [77.11475, 10.31446], [77.11856, 10.31584], [77.12237, 10.31721], [77.12832, 10.32061], [77.13339, 10.32557], [77.14081, 10.33033], [77.14816, 10.33382], [77.15808, 10.34106], [77.16052, 10.34286], [77.16234, 10.34419], [77.16907, 10.34979], [77.17708, 10.35645], [77.18298, 10.35617], [77.18729, 10.35421], [77.18966, 10.35396], [77.19555, 10.35338], [77.20318, 10.35641], [77.20609, 10.35428], [77.20695, 10.35365], [77.20778, 10.35349], [77.209, 10.353], [77.20957, 10.35277], [77.21309, 10.35217], [77.2137, 10.35221], [77.21763, 10.35207], [77.21932, 10.35201], [77.22128, 10.35194], [77.22152, 10.35193], [77.22874, 10.35167], [77.22933, 10.35159], [77.23647, 10.35062], [77.23648, 10.35024], [77.23684, 10.33885], [77.23508, 10.33609], [77.23268, 10.33233], [77.23259, 10.33196], [77.22887, 10.3161], [77.23162, 10.30831], [77.23534, 10.30635], [77.24335, 10.29276], [77.24641, 10.28757], [77.26111, 10.26793], [77.26515, 10.26414], [77.26216, 10.26195], [77.25991, 10.25895], [77.25945, 10.25557], [77.26043, 10.24253], [77.26021, 10.23663], [77.26092, 10.23265], [77.26121, 10.23099], [77.26193, 10.23139], [77.26383, 10.23244], [77.26451, 10.2332], [77.2659, 10.23475], [77.26794, 10.23405], [77.26889, 10.23373], [77.2693, 10.23439], [77.27026, 10.23594], [77.27197, 10.23506], [77.27347, 10.23428], [77.28096, 10.23553], [77.28471, 10.23477], [77.28959, 10.23101]]]}}